{"type":"FeatureCollection","features":[{"type":"Feature","properties":{"nombre":"Buenos Aires","fuente":"Referencia comunitaria; verificar con IGN"},"geometry":{"type":"Polygon","coordinates":[[[-62.78961181640625,-41.02342727608894],[-62.80197143554687,-40.97678774053033],[-62.82669067382812,-40.9539741793387],[-62.845916748046875,-40.92700253056922],[-62.86102294921875,-40.91351257612757],[-62.88024902343749,-40.88963898943264],[-62.917327880859375,-40.86679532183928],[-62.92831420898437,-40.84706035607122],[-62.94342041015624,-40.84186596689078],[-62.95989990234376,-40.814848580634],[-62.99285888671875,-40.79925662005226],[-63.03131103515625,-40.790939409851795],[-63.04779052734375,-40.77222187732902],[-63.093109130859375,-40.761820969066],[-63.13842773437499,-40.73893324113602],[-63.164520263671875,-40.73268976628568],[-63.17825317382813,-40.72228267283148],[-63.219451904296875,-40.721241873973796],[-63.25927734375,-40.72332345541449],[-63.28536987304687,-40.728527124205996],[-63.2977294921875,-40.720201058841496],[-63.296356201171875,-40.711873951908096],[-63.314208984375,-40.70666898117328],[-63.351287841796875,-40.714996739064084],[-63.36364746093749,-40.720201058841496],[-63.359527587890625,-40.70666898117328],[-63.36364746093749,-40.70042247927176],[-63.37875366210937,-40.711873951908096],[-63.38012695312499,-40.531545551348394],[-63.381500244140625,-40.268000174695224],[-63.38287353515625,-39.94659500773898],[-63.384246826171875,-39.263094691154286],[-63.39385986328124,-34.38877925439019],[-62.36114501953125,-34.384246040152185],[-61.732177734375,-34.37064492478657],[-60.90820312499999,-33.58716733904656],[-60.83129882812501,-33.56886118255556],[-60.655517578125,-33.58716733904656],[-60.5126953125,-33.65120829920497],[-60.413818359375,-33.559706648411975],[-60.3369140625,-33.394759218577974],[-60.2490234375,-33.31216783738619],[-60.2435302734375,-33.28461996888768],[-60.12817382812499,-33.36953127791291],[-59.99908447265625,-33.477272187760356],[-59.88372802734375,-33.51620936110905],[-59.80957031249999,-33.54368387865591],[-59.8040771484375,-33.58945533558723],[-59.76287841796874,-33.61004457369563],[-59.71343994140625,-33.605469612271875],[-59.666748046875,-33.61690656060315],[-59.6392822265625,-33.63291573870477],[-59.6173095703125,-33.660353121928814],[-59.600830078125,-33.687781758439364],[-59.58160400390624,-33.667211101197545],[-59.52941894531251,-33.660353121928814],[-59.490966796875,-33.64892194168653],[-59.46624755859374,-33.69463755048318],[-59.4305419921875,-33.73119253613476],[-59.34539794921875,-33.73347670599253],[-59.25750732421875,-33.72890830547333],[-59.23828124999999,-33.751747875681936],[-59.23278808593749,-33.811102288647014],[-59.17785644531249,-33.80767911381059],[-59.143524169921875,-33.839623418519786],[-59.12429809570313,-33.84874817060766],[-59.055633544921875,-33.8339199536547],[-59.02954101562499,-33.84646707394074],[-58.99932861328126,-33.84076406581977],[-58.97598266601563,-33.87041555094183],[-58.93890380859375,-33.87497640410958],[-58.89495849609374,-33.89549722712386],[-58.875732421875,-33.9285481685662],[-58.83590698242188,-33.95247360616282],[-58.77891540527343,-33.944499207394635],[-58.73977661132812,-33.94962569237503],[-58.73016357421875,-33.966711745413896],[-58.70201110839843,-34.00030430441023],[-58.67935180664062,-34.02648590051865],[-58.64982604980469,-34.03559064991931],[-58.59283447265624,-34.03388358382994],[-58.4857177734375,-34.004858205417236],[-58.42529296875,-33.99802726234876],[-58.38134765624999,-34.0116885991085],[-58.36212158203125,-34.0367286748951],[-58.36212158203125,-34.07313741164209],[-58.35937499999999,-34.10953050666587],[-58.37310791015624,-34.14818102254435],[-58.38134765624999,-34.175453097578526],[-58.35937499999999,-34.18908583117239],[-58.3538818359375,-34.207259382072294],[-58.38409423828125,-34.227699943873134],[-58.41156005859375,-34.25721644329402],[-58.46649169921874,-34.27083595164999],[-58.48846435546875,-34.27537529764387],[-58.47747802734375,-34.29126107845569],[-58.45550537109375,-34.32982832836202],[-58.45275878906249,-34.37064492478657],[-58.4637451171875,-34.39784494644985],[-58.48846435546875,-34.42050488013384],[-58.49945068359374,-34.452218472826544],[-58.480224609375,-34.481656029905835],[-58.45550537109375,-34.531449776214835],[-58.40606689453124,-34.56312121279481],[-58.35937499999999,-34.57216798051356],[-58.33465576171874,-34.64676624651909],[-58.25775146484374,-34.696461172723474],[-58.18084716796876,-34.739355518133564],[-58.1121826171875,-34.75289647745205],[-58.00506591796875,-34.78673916270252],[-57.93365478515625,-34.83634999076384],[-57.87872314453125,-34.829586636768205],[-57.80731201171875,-34.87015842600913],[-57.69195556640625,-34.93998515156043],[-57.60131835937499,-34.98500313017105],[-57.513427734375,-35.02999636902566],[-57.34039306640625,-35.16482750605026],[-57.249755859375,-35.256833789618256],[-57.19207763671874,-35.319607405861625],[-57.139892578125,-35.413676519035775],[-57.12890625,-35.45395828344929],[-57.22503662109375,-35.570214567965984],[-57.341766357421875,-35.70749253887842],[-57.381591796875,-35.81113141643796],[-57.39257812499999,-35.88237433729238],[-57.381591796875,-35.94132391854179],[-57.37335205078125,-35.97244935753682],[-57.32940673828124,-36.05798104702501],[-57.28546142578124,-36.11458078918906],[-57.139892578125,-36.26420679934512],[-56.9915771484375,-36.33725319397004],[-56.87896728515625,-36.33282808737917],[-56.788330078125,-36.33504067209606],[-56.766357421875,-36.30184530368433],[-56.7333984375,-36.317338234886236],[-56.689453125,-36.485348924361425],[-56.6729736328125,-36.868634885301006],[-56.7388916015625,-36.96964388918141],[-57.00531005859375,-37.30682947124942],[-57.12890625,-37.501010429493256],[-57.48321533203125,-37.79676317682159],[-57.52166748046875,-37.90953361677019],[-57.53814697265625,-37.993998198369574],[-57.53265380859374,-38.054579528211924],[-57.54638671874999,-38.097821233295114],[-57.5848388671875,-38.11943249695315],[-57.60955810546874,-38.14103736644329],[-57.77435302734374,-38.24896576024462],[-57.864990234375,-38.292092317626086],[-58.19183349609375,-38.42562182814217],[-58.52691650390625,-38.53957267203905],[-59.10644531249999,-38.69622870885281],[-59.578857421875,-38.77549900381295],[-59.78759765625,-38.82473078093276],[-60.86975097656249,-38.97862765746911],[-61.57562255859375,-38.99997583555929],[-61.651153564453125,-38.99570671505042],[-61.692352294921875,-38.97328960692987],[-61.697845458984375,-38.96581566018901],[-61.761016845703125,-38.97328960692987],[-61.80084228515625,-38.991437336978805],[-61.857147216796875,-38.97542487543143],[-61.87637329101563,-38.96581566018901],[-61.90521240234374,-38.967951154015914],[-61.99310302734376,-38.944457181389424],[-62.05902099609375,-38.92309226598177],[-62.08648681640626,-38.90278963537609],[-62.10845947265624,-38.882481197550796],[-62.134552001953125,-38.833289356866885],[-62.175750732421875,-38.80225962384822],[-62.230682373046875,-38.79155658128224],[-62.2540283203125,-38.789415779890476],[-62.274627685546875,-38.78834535508562],[-62.30072021484375,-38.78192246873937],[-62.30621337890625,-38.770145674423965],[-62.30346679687499,-38.753012320665185],[-62.32269287109375,-38.745515184882635],[-62.314453125,-38.736946065676],[-62.35153198242188,-38.71659028673451],[-62.368011474609375,-38.71980474264237],[-62.37762451171875,-38.73373238087941],[-62.391357421875,-38.74337300148124],[-62.41195678710937,-38.7348036252108],[-62.433929443359375,-38.73908844187685],[-62.469635009765625,-38.74337300148124],[-62.49847412109374,-38.736946065676],[-62.49847412109374,-38.720876195817276],[-62.50671386718749,-38.7155187693046],[-62.516326904296875,-38.723019053974696],[-62.52044677734374,-38.736946065676],[-62.53692626953124,-38.740159605877814],[-62.52868652343749,-38.753012320665185],[-62.53829956054687,-38.76800423017593],[-62.55203247070312,-38.78406349514288],[-62.532806396484375,-38.797978599704635],[-62.519073486328125,-38.81938114846881],[-62.4847412109375,-38.823660886593345],[-62.44354248046874,-38.82580065919523],[-62.40371704101562,-38.81938114846881],[-62.38861083984374,-38.82580065919523],[-62.38998413085937,-38.83863794429496],[-62.3638916015625,-38.85147291406818],[-62.33367919921874,-38.847194848082914],[-62.347412109375,-38.86644411885283],[-62.33367919921874,-38.88461920129189],[-62.324066162109375,-38.900652178533434],[-62.329559326171875,-38.92309226598177],[-62.33917236328125,-38.948729392110934],[-62.32818603515626,-38.96688341514958],[-62.315826416015625,-38.991437336978805],[-62.3089599609375,-39.004244698497224],[-62.299346923828125,-39.03091925576063],[-62.30346679687499,-39.05225165582583],[-62.33642578125001,-39.07890809706474],[-62.35565185546875,-39.11088253765177],[-62.33917236328125,-39.12899495106675],[-62.340545654296875,-39.157752153690964],[-62.32269287109375,-39.196076813671674],[-62.28424072265625,-39.23225314171489],[-62.259521484375,-39.23438058054426],[-62.23205566406249,-39.24927084622339],[-62.28149414062501,-39.24501680713313],[-62.314453125,-39.25139776900491],[-62.32269287109375,-39.25990481501755],[-62.31170654296874,-39.27478966170307],[-62.1990966796875,-39.279041894366785],[-62.08648681640626,-39.30667511534215],[-62.04528808593749,-39.33854604847977],[-62.00683593749999,-39.3576616371712],[-62.00683593749999,-39.378895047064844],[-62.03155517578124,-39.39375459224347],[-62.105712890625,-39.37677199661635],[-62.16064453125,-39.32367475355143],[-62.22381591796875,-39.298173747353026],[-62.28424072265625,-39.30242456041487],[-62.28698730468749,-39.32579941789297],[-62.24029541015624,-39.3555379410938],[-62.19635009765625,-39.378895047064844],[-62.13317871093751,-39.417098913067726],[-62.0562744140625,-39.438314241496776],[-62.04528808593749,-39.44891948347229],[-62.09747314453125,-39.544293973019904],[-62.12493896484374,-39.679712203159724],[-62.13043212890624,-39.7240885773337],[-62.10296630859375,-39.70296052957232],[-62.10845947265624,-39.7663252565449],[-62.11395263671875,-39.840177132754896],[-62.11944580078125,-39.85915479295669],[-62.15789794921875,-39.88023492849342],[-62.18536376953124,-39.85915479295669],[-62.24029541015624,-39.85704642313065],[-62.2979736328125,-39.87601941962115],[-62.32543945312499,-39.905522539728544],[-62.33917236328125,-40.038129390781265],[-62.33917236328125,-40.10958807474141],[-62.32818603515626,-40.14948820651523],[-62.32543945312499,-40.17677479990543],[-62.347412109375,-40.20405042511329],[-62.4078369140625,-40.23760536584024],[-62.44354248046874,-40.24389506699776],[-62.48199462890624,-40.31304320888089],[-62.45452880859375,-40.38212061782238],[-62.41607666015625,-40.438585867043294],[-62.39410400390625,-40.48455955508278],[-62.32543945312499,-40.51171103483291],[-62.2760009765625,-40.53885152535465],[-62.21832275390624,-40.565981025008355],[-62.17163085937499,-40.58267063809529],[-62.16888427734375,-40.62854560636585],[-62.21832275390624,-40.68480366159125],[-62.2760009765625,-40.786780414016455],[-62.314453125,-40.87406461663042],[-62.45178222656249,-40.92596493951428],[-62.63580322265625,-40.994410999439516],[-62.71270751953125,-41.02549937831375],[-62.75115966796875,-41.03378713521864],[-62.78961181640625,-41.02342727608894]]]}},{"type":"Feature","properties":{"nombre":"Catamarca","fuente":"Referencia comunitaria; verificar con IGN"},"geometry":{"type":"Polygon","coordinates":[[[-65.1873779296875,-27.931327412293648],[-65.10498046875,-28.212449285338465],[-65.093994140625,-28.4300528923357],[-65.1324462890625,-28.644799609105895],[-65.15167236328125,-28.644799609105895],[-65.126953125,-28.719496107557465],[-65.01708984375,-28.73876397137028],[-64.97589111328125,-28.791732274740774],[-64.92095947265625,-28.820612741699428],[-64.89349365234375,-28.84467368077178],[-64.91546630859375,-28.871134287431133],[-64.89898681640625,-28.9120147012556],[-64.89898681640625,-28.93124697186731],[-64.88800048828125,-28.96249180185516],[-64.86328125,-29.017748018496036],[-64.85504150390625,-29.056169702743407],[-64.85504150390625,-29.084976575985902],[-64.84954833984375,-29.204918463909024],[-64.786376953125,-29.264836859024015],[-64.8193359375,-29.27442054681336],[-64.84130859375,-29.305561325527712],[-64.8358154296875,-29.339086927341054],[-64.8248291015625,-29.36302703778376],[-64.80010986328125,-29.389354660473675],[-64.78363037109374,-29.418067934281137],[-64.8028564453125,-29.439597566602902],[-64.8248291015625,-29.46112263402122],[-64.83306884765625,-29.482643134466592],[-64.83306884765625,-29.52567042617583],[-64.8193359375,-29.561512529746754],[-64.99237060546875,-29.59973009438042],[-64.93743896484375,-29.890662187739487],[-65.14068603515625,-30.052453901811454],[-65.43182373046875,-30.11899736389511],[-65.50323486328125,-29.912090918781477],[-65.56365966796875,-29.78821690967894],[-65.72158813476562,-29.41208667100813],[-65.71609497070312,-29.331903797454434],[-65.7476806640625,-29.281607722988337],[-65.81771850585938,-29.281607722988337],[-65.81634521484375,-29.19053283229457],[-65.9344482421875,-29.080175989623193],[-66.03881835937499,-28.998531814051795],[-66.104736328125,-28.945668833650494],[-66.3848876953125,-28.86872905602898],[-66.4013671875,-28.84467368077178],[-66.4013671875,-28.7965462417692],[-66.357421875,-28.758028282691114],[-66.346435546875,-28.719496107557465],[-66.3958740234375,-28.695406284421953],[-66.4508056640625,-28.661671216419496],[-66.4947509765625,-28.62792528761854],[-66.51123046875,-28.53144857631924],[-66.5496826171875,-28.53144857631924],[-66.5167236328125,-28.492833128965096],[-66.5826416015625,-28.294707428421194],[-67.0111083984375,-28.251166905231475],[-67.060546875,-28.265682390146466],[-67.1429443359375,-28.36723539252298],[-67.32421875,-28.386567819657202],[-67.6812744140625,-28.30921698045776],[-67.708740234375,-28.318888915773826],[-67.763671875,-28.32855997136169],[-67.763671875,-28.34789944257092],[-67.796630859375,-28.34789944257092],[-67.8350830078125,-28.37690204653979],[-67.8570556640625,-28.33823014702584],[-67.8570556640625,-28.289870471423562],[-67.8900146484375,-28.23664944401446],[-67.9119873046875,-28.193085209185234],[-67.9229736328125,-28.13981591275445],[-67.939453125,-28.096212229438105],[-67.9833984375,-28.120438687101075],[-68.0438232421875,-28.13981591275445],[-68.0877685546875,-28.173717624327864],[-68.104248046875,-28.193085209185234],[-68.1427001953125,-28.110748760633534],[-68.1756591796875,-28.08652011460073],[-68.2525634765625,-28.08652011460073],[-68.2965087890625,-28.105903469076186],[-68.30749511718749,-28.057438520876673],[-68.302001953125,-28.018650821833045],[-68.345947265625,-28.028349057505764],[-68.4063720703125,-27.999251729858745],[-68.4393310546875,-28.038046419369934],[-68.4503173828125,-27.999251729858745],[-68.4393310546875,-27.931327412293648],[-68.45581054687499,-27.868216579514076],[-68.5546875,-27.80020993741824],[-68.675537109375,-27.809927780908364],[-68.79638671875,-27.741884632507087],[-68.90625,-27.75160768754937],[-69.005126953125,-27.75160768754937],[-69.10400390625,-27.77105119317226],[-69.06005859375,-27.67379895781762],[-69.005126953125,-27.576460076262702],[-68.93920898437499,-27.518015241965653],[-68.895263671875,-27.488781168937983],[-69.027099609375,-27.45953933271788],[-68.92822265625,-27.401032392938852],[-68.90625,-27.313213898568247],[-68.84033203125,-27.274161117374668],[-68.763427734375,-27.303451991034542],[-68.88427734374999,-27.20578572438331],[-68.79638671875,-27.137368359795595],[-68.741455078125,-27.08847315655588],[-68.653564453125,-27.156920456880865],[-68.5986328125,-27.19601438317328],[-68.57666015625,-27.137368359795595],[-68.5546875,-27.059125784374054],[-68.44482421875,-27.059125784374054],[-68.345947265625,-27.04934161987035],[-68.2470703125,-26.971037606255557],[-68.291015625,-26.873080965938414],[-68.4228515625,-26.74561038219901],[-68.565673828125,-26.509904531413927],[-68.5546875,-26.273714024406416],[-68.37890625,-26.145576207592274],[-68.499755859375,-25.681137335685307],[-68.565673828125,-25.60190226111574],[-68.48876953125,-25.572175556682115],[-68.5546875,-25.50278454875533],[-68.5546875,-25.423431426334233],[-68.5107421875,-25.34402602913433],[-68.565673828125,-25.274503517820154],[-68.5107421875,-25.21488107113258],[-68.45581054687499,-25.145284610685053],[-67.8955078125,-25.244695951306028],[-67.423095703125,-25.23475847023373],[-66.895751953125,-25.244695951306028],[-66.632080078125,-25.21488107113258],[-66.588134765625,-25.264568475331583],[-66.588134765625,-25.304303764403592],[-66.588134765625,-25.36388227274024],[-66.52221679687499,-25.36388227274024],[-66.478271484375,-25.383735254706856],[-66.500244140625,-25.453194979524856],[-66.52221679687499,-25.5127000076205],[-66.533203125,-25.58208527870071],[-66.55517578125,-25.641526373065755],[-66.610107421875,-25.710836919640606],[-66.6650390625,-25.720735134412095],[-66.829833984375,-25.70093788144426],[-66.807861328125,-25.888878582127074],[-66.807861328125,-25.997549919572098],[-66.676025390625,-26.06665213857739],[-66.588134765625,-26.125850185680356],[-66.55517578125,-26.263862280111095],[-66.51123046875,-26.342652809380578],[-66.4013671875,-26.382027976025352],[-66.346435546875,-26.401710528707692],[-66.357421875,-26.28356493253137],[-66.26953125,-26.175158990178122],[-66.15966796875,-26.15543796871355],[-66.11572265625,-26.2145910237943],[-66.126708984375,-26.28356493253137],[-66.1102294921875,-26.33772997083918],[-66.104736328125,-26.386948928734135],[-66.15966796875,-26.41155054662258],[-66.170654296875,-26.44598399885638],[-66.1761474609375,-26.495156792444053],[-66.126708984375,-26.524650377182777],[-66.15966796875,-26.539394329017032],[-66.192626953125,-26.578702269100557],[-66.15966796875,-26.632728662035912],[-66.0333251953125,-26.608174374033094],[-65.94543457031249,-26.657277674217585],[-65.8465576171875,-26.711266913515722],[-65.8135986328125,-26.75051574561838],[-65.89599609375,-26.843677401113002],[-65.85205078125,-26.897578097333913],[-65.841064453125,-26.941659545381505],[-65.885009765625,-26.961245770526954],[-65.91796875,-26.995513469748403],[-65.9674072265625,-27.034663773424224],[-65.994873046875,-27.064017546608678],[-65.950927734375,-27.064017546608678],[-65.972900390625,-27.08847315655588],[-66.0113525390625,-27.122702042259448],[-66.0662841796875,-27.171582284054892],[-66.07177734375,-27.19601438317328],[-66.1212158203125,-27.191128391422247],[-66.13220214843749,-27.239978671808224],[-66.0498046875,-27.298570715261523],[-65.9674072265625,-27.33273513685913],[-65.9619140625,-27.488781168937983],[-65.91796875,-27.659203644307915],[-65.8740234375,-27.70784710660342],[-65.8245849609375,-27.81964475509946],[-65.7806396484375,-27.766190642387496],[-65.731201171875,-27.795350689749107],[-65.6927490234375,-27.8439333860705],[-65.6817626953125,-27.926474039864992],[-65.6103515625,-27.97014654331592],[-65.55541992187499,-28.018650821833045],[-65.5224609375,-27.91191261511188],[-65.423583984375,-27.882783884259105],[-65.36865234375,-27.8439333860705],[-65.3082275390625,-27.85364731612737],[-65.2532958984375,-27.89249433228659],[-65.1873779296875,-27.931327412293648]]]}},{"type":"Feature","properties":{"nombre":"Chaco","fuente":"Referencia comunitaria; verificar con IGN"},"geometry":{"type":"Polygon","coordinates":[[[-62.347412109375,-24.08157428735657],[-62.19360351562499,-24.146753594703064],[-62.18811035156251,-24.181836387890975],[-62.127685546875,-24.216909537721737],[-62.09472656250001,-24.196868919249642],[-62.0672607421875,-24.226928664976363],[-61.98486328124999,-24.231937933001383],[-61.9024658203125,-24.27200497871758],[-61.89147949218751,-24.317065306876035],[-61.82006835937499,-24.317065306876035],[-61.7596435546875,-24.312059393849218],[-61.69921875,-24.347096633808512],[-61.70471191406251,-24.387127324604496],[-61.69921875,-24.42214378185897],[-61.64978027343751,-24.43714786161562],[-61.57836914062499,-24.442148824865622],[-61.4794921875,-24.602074737077242],[-61.380615234375,-24.6170573408095],[-61.270751953125,-24.637031353509517],[-61.19384765625,-24.661994379101547],[-61.12792968750001,-24.77675993321915],[-61.12792968750001,-24.826624956562156],[-60.9136962890625,-25.005972656239177],[-60.77636718749999,-25.070672916651077],[-60.70495605468749,-25.100523057465217],[-60.6390380859375,-25.16020148313336],[-60.5291748046875,-25.180087808990645],[-60.44128417968749,-25.264568475331583],[-60.3753662109375,-25.339061458818374],[-60.303955078125,-25.418470119273106],[-60.23803710937499,-25.492868271257112],[-60.20507812499999,-25.5127000076205],[-60.216064453125,-25.537485071759033],[-60.2325439453125,-25.567220388070023],[-60.194091796875,-25.626668871238557],[-60.16662597656249,-25.636574077877036],[-60.0787353515625,-25.681137335685307],[-60.00732421875,-25.725683932942644],[-59.92492675781249,-25.77516058680343],[-59.8809814453125,-25.814727063097394],[-59.8370361328125,-25.859223554761382],[-59.77111816406251,-25.913585416189786],[-59.72167968749999,-25.98273700762736],[-59.688720703125,-26.02717014049737],[-59.68322753906249,-26.071586453170973],[-59.67773437500001,-26.10612083235552],[-59.66125488281249,-26.140645014531366],[-59.58435058593751,-26.13571361317392],[-59.5074462890625,-26.160368536718494],[-59.4525146484375,-26.15543796871355],[-59.39208984375,-26.194876675795218],[-59.3975830078125,-26.23430203240673],[-59.3756103515625,-26.273714024406416],[-59.3701171875,-26.342652809380578],[-59.3206787109375,-26.342652809380578],[-59.26025390625,-26.347575438494673],[-59.1888427734375,-26.32788366558412],[-59.16137695312499,-26.293415004265782],[-59.12017822265625,-26.32542195842115],[-59.08172607421875,-26.359881094855364],[-59.04876708984375,-26.382027976025352],[-59.007568359375,-26.37710681367004],[-58.96087646484375,-26.40417061185343],[-58.91967773437499,-26.441065564038407],[-58.88671875,-26.46565563783836],[-58.84826660156249,-26.49761488038017],[-58.81256103515626,-26.536937135265674],[-58.7933349609375,-26.514820023728774],[-58.75762939453126,-26.546765594479623],[-58.75762939453126,-26.578702269100557],[-58.74938964843749,-26.5958952526538],[-58.74664306640625,-26.608174374033094],[-58.71093750000001,-26.588527147308625],[-58.6834716796875,-26.60326288363106],[-58.67797851562499,-26.630273470591913],[-58.66424560546876,-26.652368294008856],[-58.64227294921875,-26.669550200821504],[-58.5955810546875,-26.68918349715621],[-58.57086181640626,-26.696545111585127],[-58.57086181640626,-26.711266913515722],[-58.54614257812499,-26.740704807127823],[-58.51593017578126,-26.748063090366852],[-58.48846435546875,-26.772587261095424],[-58.4857177734375,-26.811814919309278],[-58.44451904296874,-26.82897275381776],[-58.41156005859375,-26.838776064165863],[-58.37585449218751,-26.851029008675006],[-58.36486816406249,-26.875530918023017],[-58.39782714843749,-26.900027518368503],[-58.43902587890625,-26.92206991673281],[-58.458251953125,-26.926967642880513],[-58.50494384765625,-26.924518806384913],[-58.47473144531249,-26.983276203452643],[-58.480224609375,-27.019984007982554],[-58.49121093749999,-26.997960763263023],[-58.51318359374999,-27.002855190521245],[-58.50494384765625,-27.044449217654016],[-58.502197265625,-27.064017546608678],[-58.52142333984374,-27.064017546608678],[-58.54614257812499,-27.04200293656626],[-58.55712890625,-27.098253906137874],[-58.60107421874999,-27.108033801463105],[-58.6505126953125,-27.132479801022885],[-58.65875244140625,-27.17891247557852],[-58.65325927734375,-27.20578572438331],[-58.60931396484376,-27.22532583690336],[-58.59626770019531,-27.239368175526916],[-58.59283447265624,-27.2540191619042],[-58.59626770019531,-27.265616491021337],[-58.60588073730469,-27.277212610447233],[-58.60931396484376,-27.286976825127024],[-58.60313415527344,-27.29918088647159],[-58.5791015625,-27.307112806993715],[-58.63746643066406,-27.32968516989974],[-58.77136230468749,-27.371767300523032],[-58.86474609374999,-27.479034752500656],[-58.89770507812501,-27.595934774495042],[-58.84277343749999,-27.678663629123285],[-58.80981445312499,-27.761329874505233],[-58.831787109375,-27.868216579514076],[-58.84963989257812,-27.928900753321876],[-58.82766723632813,-27.955591004642542],[-58.8372802734375,-27.978636367553733],[-58.852386474609375,-28.011376571761453],[-58.9141845703125,-27.998039170620494],[-59.33303833007812,-27.99682659773872],[-60.64315795898437,-27.999251729858745],[-61.71157836914062,-27.998039170620494],[-61.714324951171875,-27.544806317753874],[-61.71844482421874,-26.27248260209306],[-61.714324951171875,-25.650192395244773],[-62.59048461914062,-25.650192395244773],[-63.41857910156249,-25.64771645312254],[-62.862396240234375,-24.99974967945575],[-62.472381591796875,-24.547123179730765],[-62.34329223632812,-24.393380975448288],[-62.346038818359375,-24.112914635346772],[-62.347412109375,-24.08157428735657]]]}},{"type":"Feature","properties":{"nombre":"Chubut","fuente":"Referencia comunitaria; verificar con IGN"},"geometry":{"type":"Polygon","coordinates":[[[-65.0885009765625,-41.98399427093562],[-65.0555419921875,-42.06968462804663],[-64.97314453125,-42.13082130188811],[-64.8358154296875,-42.212245162885814],[-64.7314453125,-42.2203817837206],[-64.6051025390625,-42.23665188032057],[-64.44580078125,-42.240718749226666],[-64.51171875,-42.28950073090455],[-64.5721435546875,-42.297627391284564],[-64.5721435546875,-42.3341843859394],[-64.599609375,-42.382894009614034],[-64.6051025390625,-42.41940144722476],[-64.4842529296875,-42.44372793752475],[-64.3798828125,-42.43156587257917],[-64.31396484375,-42.395065515651225],[-64.22607421875,-42.4153461142536],[-64.16015624999999,-42.42751132639089],[-64.0997314453125,-42.41940144722476],[-64.0557861328125,-42.366661663732735],[-64.0447998046875,-42.30981541568665],[-64.072265625,-42.25698360376746],[-64.10522460937499,-42.232584749313325],[-64.18212890625,-42.232584749313325],[-64.2425537109375,-42.228517356208506],[-64.2919921875,-42.24885170072094],[-64.34692382812499,-42.24478535602798],[-64.1656494140625,-42.19596877629178],[-64.0667724609375,-42.175617396616836],[-63.9678955078125,-42.13896840458089],[-63.8580322265625,-42.10229818948116],[-63.77014160156249,-42.0737622400872],[-63.720703125,-42.155259465778606],[-63.64379882812499,-42.228517356208506],[-63.599853515625,-42.3016903282445],[-63.58886718749999,-42.350425122434565],[-63.62182617187499,-42.395065515651225],[-63.599853515625,-42.47209690919284],[-63.577880859375,-42.553080288955805],[-63.58886718749999,-42.62991729384456],[-63.6328125,-42.73490914651559],[-63.65478515625,-42.775243380699706],[-63.71520996093749,-42.803461724170766],[-63.99536132812499,-42.84777884235987],[-64.0887451171875,-42.87193842444845],[-64.16015624999999,-42.863886280785835],[-64.237060546875,-42.791369723650135],[-64.25354003906249,-42.7268391495544],[-64.19860839843749,-42.62991729384456],[-64.25354003906249,-42.62183364891663],[-64.25354003906249,-42.58139967966506],[-64.281005859375,-42.56926437219385],[-64.3084716796875,-42.57330973706638],[-64.3304443359375,-42.52879629320372],[-64.44030761718749,-42.504502852990505],[-64.566650390625,-42.492352591428194],[-64.676513671875,-42.52474804234816],[-64.786376953125,-42.58139967966506],[-64.852294921875,-42.61779143282346],[-64.940185546875,-42.60970621339408],[-64.9896240234375,-42.66628070564926],[-65.028076171875,-42.722803757327256],[-65.0390625,-42.75507954507213],[-64.9566650390625,-42.803461724170766],[-64.8797607421875,-42.83166720261407],[-64.8138427734375,-42.84777884235987],[-64.6929931640625,-42.89608855297105],[-64.654541015625,-42.91620643817352],[-64.5281982421875,-42.92022922733792],[-64.478759765625,-42.956422511073335],[-64.3304443359375,-42.93631775765236],[-64.3194580078125,-42.98455813425606],[-64.4677734375,-43.052833917627936],[-64.6600341796875,-43.125043167401266],[-64.9127197265625,-43.22118973298753],[-65.028076171875,-43.28920196020125],[-65.06103515625,-43.3291736678439],[-65.0390625,-43.38508989465153],[-65.126953125,-43.45291889355465],[-65.19287109375,-43.5326204268101],[-65.269775390625,-43.58039085560784],[-65.3192138671875,-43.6281234121246],[-65.3411865234375,-43.68773584519809],[-65.36865234375,-43.76712702120529],[-65.2972412109375,-43.79488907226601],[-65.32470703125,-43.80678314779553],[-65.3302001953125,-43.90185050527358],[-65.28076171875,-43.94537239244209],[-65.1983642578125,-43.97305156068594],[-65.2587890625,-44.00071783428275],[-65.2423095703125,-44.02837121279198],[-65.14892578125,-44.03232064275082],[-65.225830078125,-44.05601169578525],[-65.2313232421875,-44.09547572946636],[-65.21484375,-44.146739625584985],[-65.269775390625,-44.146739625584985],[-65.2972412109375,-44.18614312298759],[-65.2972412109375,-44.249133968868925],[-65.2642822265625,-44.268804788566165],[-65.2532958984375,-44.32384807250688],[-65.21484375,-44.34349388385858],[-65.21484375,-44.38276576225239],[-65.2587890625,-44.386691502152054],[-65.28076171875,-44.402391829093894],[-65.291748046875,-44.425934421453114],[-65.3082275390625,-44.44554600843546],[-65.2752685546875,-44.46515101351962],[-65.291748046875,-44.5160932228493],[-65.32470703125,-44.5160932228493],[-65.379638671875,-44.53959000445631],[-65.36865234375,-44.57873024377563],[-65.401611328125,-44.598290489840096],[-65.4510498046875,-44.56307730757892],[-65.56640625,-44.641299860752255],[-65.6268310546875,-44.65693173288727],[-65.665283203125,-44.711610108584296],[-65.67626953125,-44.785733927165914],[-65.72021484375,-44.797428998555645],[-65.72021484375,-44.84029065139799],[-65.67626953125,-44.89479576469787],[-65.6158447265625,-44.906468717098825],[-65.5609130859375,-44.89090425391709],[-65.5279541015625,-44.89868701215517],[-65.5938720703125,-44.95702412512118],[-65.6378173828125,-44.98034238084972],[-65.5938720703125,-45.01141864227726],[-65.599365234375,-45.038596546452574],[-65.6378173828125,-45.05412098425883],[-65.6982421875,-45.05800143539828],[-65.7421875,-45.03083274759958],[-65.7696533203125,-45.01530198999211],[-65.80810546875,-45.04635929200552],[-65.819091796875,-45.01530198999211],[-65.8465576171875,-44.98811302615805],[-65.885009765625,-44.99199795382438],[-65.89050292968749,-45.02306789544618],[-65.9014892578125,-45.05412098425883],[-65.94543457031249,-45.04635929200552],[-65.972900390625,-45.02306789544618],[-66.005859375,-44.999767019181284],[-66.0443115234375,-44.98811302615805],[-66.0772705078125,-44.98811302615805],[-66.11572265625,-44.984227835166486],[-66.148681640625,-44.984227835166486],[-66.181640625,-44.976456663207756],[-66.214599609375,-44.99588261816545],[-66.214599609375,-45.02306789544618],[-66.26953125,-45.02306789544618],[-66.324462890625,-45.04247805089153],[-66.3848876953125,-45.04635929200552],[-66.42883300781249,-45.06188162321301],[-66.4727783203125,-45.07352060670969],[-66.5167236328125,-45.09291364605113],[-66.544189453125,-45.11230010229609],[-66.51123046875,-45.139430081467886],[-66.4617919921875,-45.151053265563384],[-66.46728515624999,-45.17816481220637],[-66.5386962890625,-45.143304739488286],[-66.588134765625,-45.143304739488286],[-66.6046142578125,-45.166547157856016],[-66.544189453125,-45.19365133152568],[-66.52221679687499,-45.22848059584359],[-66.676025390625,-45.22074260255365],[-66.796875,-45.22074260255365],[-66.9012451171875,-45.24782097102814],[-67.027587890625,-45.309665934834115],[-67.1759033203125,-45.47554027158591],[-67.225341796875,-45.52944081525667],[-67.3516845703125,-45.61787968356969],[-67.3681640625,-45.67164385226549],[-67.357177734375,-45.71001523943371],[-67.3681640625,-45.76369095661865],[-67.3626708984375,-45.790509467524714],[-67.412109375,-45.790509467524714],[-67.4505615234375,-45.8211434007947],[-67.48901367187499,-45.84793427349225],[-67.52197265625,-45.886184576022565],[-67.554931640625,-45.924408558629],[-67.56591796875,-45.9587876403564],[-67.587890625,-45.9969616182038],[-69.8675537109375,-45.9969616182038],[-71.641845703125,-45.99314540468519],[-71.6143798828125,-45.94351068030587],[-71.663818359375,-45.89000815866183],[-71.74072265625,-45.84793427349225],[-71.7681884765625,-45.8211434007947],[-71.7352294921875,-45.77135470445037],[-71.7681884765625,-45.74452698046843],[-71.8121337890625,-45.69850658738846],[-71.7572021484375,-45.679320235695386],[-71.7791748046875,-45.640927788365005],[-71.8341064453125,-45.62556343821596],[-71.7462158203125,-45.610194875867386],[-71.7242431640625,-45.59097824945192],[-71.795654296875,-45.56790960986128],[-71.685791015625,-45.53328887946744],[-71.6253662109375,-45.510196544985575],[-71.531982421875,-45.52174389699363],[-71.466064453125,-45.479392021778246],[-71.52099609375,-45.4524242413431],[-71.4990234375,-45.394592696926615],[-71.466064453125,-45.38301927899064],[-71.43310546875,-45.40616374516014],[-71.34521484375,-45.32125436117147],[-71.279296875,-45.28261705751741],[-71.38916015625,-45.166547157856016],[-71.488037109375,-45.12005284153052],[-71.56494140625,-45.01918507438174],[-71.5869140625,-44.97257068224063],[-71.69677734375,-44.94147335480251],[-71.7626953125,-44.93369638969467],[-71.8505859375,-44.91813929958515],[-71.89453125,-44.97257068224063],[-71.982421875,-44.93369638969467],[-72.04833984375,-44.87144275016588],[-72.059326171875,-44.777935896316215],[-71.89453125,-44.801326829048556],[-71.817626953125,-44.81691551782855],[-71.795654296875,-44.754535484160066],[-71.707763671875,-44.77013681219716],[-71.641845703125,-44.801326829048556],[-71.56494140625,-44.77013681219716],[-71.4990234375,-44.73892994307366],[-71.422119140625,-44.77013681219716],[-71.3232421875,-44.809121700077355],[-71.279296875,-44.81691551782855],[-71.246337890625,-44.754535484160066],[-71.19140625,-44.66083904265619],[-71.2353515625,-44.59046718130884],[-71.11450195312499,-44.58264281958419],[-71.12548828125,-44.52784279845549],[-71.19140625,-44.45730980131929],[-71.34521484375,-44.4102404129601],[-71.5869140625,-44.4102404129601],[-71.707763671875,-44.36313311380771],[-71.773681640625,-44.425934421453114],[-71.817626953125,-44.34742225636391],[-71.773681640625,-44.30026441158151],[-71.773681640625,-44.22945656830168],[-71.71875,-44.21370990970204],[-71.817626953125,-44.158563438543105],[-71.861572265625,-44.11914151643736],[-71.773681640625,-44.111253973571536],[-71.65283203125,-43.94537239244209],[-71.74072265625,-43.866218006556394],[-71.641845703125,-43.78695837311561],[-71.56494140625,-43.74728909225906],[-71.54296874999999,-43.63607515596578],[-71.71875,-43.5883489117979],[-71.806640625,-43.5644715872181],[-71.905517578125,-43.57243174740973],[-71.82861328125,-43.51668853502906],[-71.89453125,-43.45291889355465],[-71.9384765625,-43.38908193911749],[-71.905517578125,-43.333169392817325],[-71.8505859375,-43.30119623257964],[-71.74072265625,-43.31718491566705],[-71.7626953125,-43.20517581723731],[-71.7626953125,-43.14107810634585],[-71.861572265625,-43.14909399920127],[-71.949462890625,-43.06888777416961],[-72.02636718749999,-42.99661231842139],[-72.125244140625,-42.91620643817352],[-72.18017578125,-42.851806095847046],[-72.158203125,-42.771211138625894],[-72.2021484375,-42.69858589169841],[-72.103271484375,-42.69858589169841],[-72.08129882812499,-42.5854442573849],[-72.037353515625,-42.52879629320372],[-72.04833984375,-42.40723466155186],[-72.18017578125,-42.3341843859394],[-72.169189453125,-42.28543700749152],[-72.2021484375,-42.12267315117257],[-72.059326171875,-42.13896840458089],[-72.09228515625,-42.09007006868397],[-71.91650390625,-42.16340342422399],[-71.861572265625,-42.16340342422399],[-71.7626953125,-42.106373705793246],[-71.773681640625,-42.041134009408076],[-71.817626953125,-41.98399427093562],[-65.0885009765625,-41.98399427093562]]]}},{"type":"Feature","properties":{"nombre":"Cordoba","fuente":"Referencia comunitaria; verificar con IGN"},"geometry":{"type":"Polygon","coordinates":[[[-62.940673828125,-34.38877925439019],[-63.40209960937499,-34.361576287484176],[-63.40209960937499,-34.99400375757576],[-65.093994140625,-34.98500313017105],[-65.1708984375,-33.19273094190691],[-65.07202148437499,-33.11915022676886],[-65.01708984375,-32.99945000822837],[-64.984130859375,-32.90265033334124],[-64.97314453125,-32.78727452695549],[-64.940185546875,-32.662500354678365],[-64.9127197265625,-32.57922064287566],[-64.852294921875,-32.556073644920275],[-64.88525390624999,-32.48659682936049],[-64.92370605468749,-32.393877575286446],[-64.9346923828125,-32.32891738775125],[-64.9346923828125,-32.287132632616355],[-65.1983642578125,-32.32427558887655],[-65.22033691406249,-32.24068253457368],[-65.23681640625,-32.11514862261243],[-65.302734375,-32.031363284937534],[-65.4510498046875,-31.95216223802496],[-65.5828857421875,-31.886886525780806],[-65.731201171875,-31.891550612684366],[-65.76416015625,-31.886886525780806],[-65.7696533203125,-31.029401353028888],[-65.41259765625,-30.11186984923526],[-65.14892578125,-30.054831224852435],[-64.9346923828125,-29.893043385434165],[-64.9951171875,-29.602118211647323],[-64.83032226562499,-29.554345125748267],[-64.324951171875,-29.496987596535757],[-63.96240234375,-29.544787796199465],[-63.96240234375,-29.606894276531495],[-63.88000488281251,-29.616445727622533],[-63.841552734375,-29.55912345157795],[-63.79211425781249,-29.568679425235135],[-63.7811279296875,-29.606894276531495],[-63.7481689453125,-29.640320395351402],[-63.63830566406251,-29.64986867797229],[-63.52294921875,-29.64986867797229],[-63.4844970703125,-29.64986867797229],[-63.47351074218749,-29.72145191669099],[-63.4515380859375,-29.716681287231072],[-63.44055175781249,-29.78344945682059],[-62.77038574218749,-29.807284450222504],[-62.80334472656249,-29.85017312568988],[-62.7813720703125,-29.90256760730232],[-62.7264404296875,-29.954934549656134],[-62.69348144531249,-29.993002284551064],[-62.64404296875,-30.031055426540206],[-62.6055908203125,-30.054831224852435],[-62.56164550781249,-30.088107753367257],[-62.58361816406249,-30.145127183376115],[-62.57812500000001,-30.221101852485987],[-62.56713867187499,-30.259067203213007],[-62.51220703125,-30.32547125932808],[-62.4462890625,-30.33021268543272],[-62.314453125,-30.320729603696012],[-62.1990966796875,-30.311245603935003],[-62.1441650390625,-30.363396239603716],[-62.11669921874999,-30.406044269969488],[-62.11669921874999,-30.472348632640834],[-62.1221923828125,-30.533876572997617],[-62.1441650390625,-30.595365565588075],[-61.8475341796875,-30.746556862773616],[-62.1112060546875,-31.611287945395052],[-62.1441650390625,-31.62064369245056],[-62.2210693359375,-31.700129553985924],[-62.22656249999999,-31.86822781618069],[-62.1990966796875,-31.92885480180956],[-62.149658203125,-31.998759371947305],[-62.1771240234375,-32.06395559466041],[-62.21008300781249,-32.1384086967725],[-62.1441650390625,-32.208153325473255],[-62.04528808593749,-32.268555446214776],[-61.9793701171875,-32.3799614643573],[-61.92993164062499,-32.47732919639943],[-61.9244384765625,-32.53755174676898],[-61.90658569335937,-32.56533316084102],[-61.9189453125,-32.57459172113417],[-61.92306518554688,-32.58500645901216],[-61.91070556640625,-32.597733940057424],[-61.88873291015624,-32.59426298812164],[-61.89422607421875,-32.6093028087336],[-61.89971923828126,-32.619713512984596],[-61.94503784179687,-32.650938361757355],[-61.94915771484375,-32.68099643258195],[-61.934051513671875,-32.68446402087721],[-61.887359619140625,-32.69833302755347],[-61.862640380859375,-32.69371026472291],[-61.84478759765626,-32.726064576130646],[-61.7926025390625,-32.78727452695549],[-61.78161621093749,-32.83805835927704],[-61.776123046875,-32.9164853473144],[-61.78161621093749,-32.99484290420987],[-61.8475341796875,-33.077733957209844],[-61.907958984375,-33.100745405144245],[-62.1112060546875,-33.367237465838315],[-62.46826171874999,-33.82935690773929],[-62.666015625,-34.09361045276871],[-62.81982421875001,-34.293530230588566],[-62.8857421875,-34.38877925439019],[-62.940673828125,-34.38877925439019]]]}},{"type":"Feature","properties":{"nombre":"Corrientes","fuente":"Referencia comunitaria; verificar con IGN"},"geometry":{"type":"Polygon","coordinates":[[[-57.83203125,-30.737114341627038],[-57.91442871093749,-30.661540870820907],[-58.018798828125,-30.58117925738696],[-58.0902099609375,-30.45340913020357],[-58.17810058593749,-30.33021268543272],[-58.21105957031249,-30.26381184075493],[-58.28796386718749,-30.230594564932193],[-58.46923828125001,-30.206861065952626],[-58.53515625,-30.168875561169077],[-58.68896484375,-30.17362455035855],[-58.80981445312499,-30.21635515266855],[-58.85925292968751,-30.268556249047727],[-58.9471435546875,-30.244831915307145],[-58.99108886718749,-30.21635515266855],[-59.08996582031249,-30.249577240467637],[-59.1558837890625,-30.301760686320698],[-59.2218017578125,-30.349176094149833],[-59.29321289062499,-30.37761431777478],[-59.38659667968749,-30.33969484897426],[-59.447021484375,-30.320729603696012],[-59.53491210937499,-30.344435586368448],[-59.57336425781249,-30.44867367928755],[-59.67773437500001,-30.334953881988564],[-59.64477539062499,-30.230594564932193],[-59.600830078125,-30.10236569641242],[-59.5458984375,-29.988244615509043],[-59.6722412109375,-29.84064389983441],[-59.6173095703125,-29.76914573606667],[-59.64477539062499,-29.673735421779128],[-59.5953369140625,-29.587788659909958],[-59.62829589843749,-29.535229562948455],[-59.58984374999999,-29.453948118887734],[-59.61181640625,-29.40610505570927],[-59.556884765625,-29.3486636465236],[-59.51293945312499,-29.305561325527712],[-59.51293945312499,-29.262440796698915],[-59.3536376953125,-29.176145182559758],[-59.39208984375,-29.132970130878636],[-59.1888427734375,-29.01294430242485],[-59.2108154296875,-28.93124697186731],[-59.1668701171875,-28.86391842622455],[-59.12292480468749,-28.724313406473463],[-59.073486328125,-28.680949728554964],[-59.12292480468749,-28.545925723233477],[-59.0789794921875,-28.502488316130417],[-59.0350341796875,-28.459033019728043],[-59.0625,-28.425222099239033],[-59.08447265624999,-28.323724553546],[-59.117431640625,-28.246327971048842],[-59.095458984375,-28.1882436418503],[-59.02954101562499,-28.134971934813155],[-58.93615722656249,-28.115593833316762],[-58.9141845703125,-28.06713326012151],[-58.875732421875,-28.013801376380727],[-58.82629394531249,-27.955591004642542],[-58.80981445312499,-27.887639217136503],[-58.8153076171875,-27.809927780908364],[-58.8372802734375,-27.717573198352586],[-58.86474609374999,-27.630007171411226],[-58.8922119140625,-27.581329075043346],[-58.88122558593749,-27.537500308359462],[-58.84826660156249,-27.469287473692006],[-58.7274169921875,-27.357131851125803],[-58.6724853515625,-27.327855149448382],[-58.60107421874999,-27.28880751983311],[-58.52966308593749,-27.269278554175003],[-58.43627929687499,-27.269278554175003],[-58.30444335937499,-27.269278554175003],[-58.2550048828125,-27.269278554175003],[-58.1671142578125,-27.274161117374668],[-58.0572509765625,-27.239978671808224],[-57.95288085937499,-27.25951278436168],[-57.84301757812499,-27.318094530276976],[-57.74963378906249,-27.32297494724568],[-57.61779785156249,-27.366889032381295],[-57.52441406249999,-27.41078570257701],[-57.425537109375,-27.41078570257701],[-57.31567382812501,-27.420538151287094],[-57.21130371093749,-27.45953933271788],[-57.095947265625,-27.498526722798307],[-56.99707031249999,-27.522886832325785],[-56.8817138671875,-27.581329075043346],[-56.788330078125,-27.566721430409697],[-56.71142578125,-27.537500308359462],[-56.6949462890625,-27.493654053703136],[-56.6839599609375,-27.44979032978423],[-56.5740966796875,-27.425414052729572],[-56.49169921875,-27.425414052729572],[-56.436767578125,-27.440040465097045],[-56.31591796875,-27.401032392938852],[-56.21704101562499,-27.352252938063845],[-56.107177734375,-27.313213898568247],[-56.06048583984375,-27.30833305214544],[-56.03027343749999,-27.318094530276976],[-56.0357666015625,-27.342494467201007],[-56.0357666015625,-27.362010549240267],[-56.03851318359375,-27.39615541533632],[-56.0357666015625,-27.41322389547461],[-56.05224609375,-27.4229761289204],[-56.06048583984375,-27.440040465097045],[-56.04949951171874,-27.469287473692006],[-56.02203369140625,-27.508271413876017],[-55.9808349609375,-27.537500308359462],[-55.82977294921875,-27.802639479776524],[-55.83526611328124,-27.81964475509946],[-55.8380126953125,-27.85364731612737],[-55.82977294921875,-27.86336037597851],[-55.82977294921875,-27.882783884259105],[-55.81329345703125,-27.90948552034696],[-55.81329345703125,-27.936180566769377],[-55.810546875,-27.96044306897833],[-55.78033447265625,-28.001676807403094],[-55.7666015625,-28.028349057505764],[-55.7666015625,-28.04047062328007],[-55.76110839843749,-28.05986228767112],[-55.75286865234375,-28.076827124762367],[-55.7391357421875,-28.064709657296643],[-55.72265625,-28.05986228767112],[-55.72265625,-28.071980301779845],[-55.711669921875,-28.08409694916474],[-55.68145751953125,-28.103480741227433],[-55.64849853515624,-28.120438687101075],[-55.62652587890625,-28.14223781959315],[-55.61279296874999,-28.151924899329817],[-55.6292724609375,-28.16645387574049],[-55.65399169921875,-28.183401855246004],[-55.69519042968749,-28.212449285338465],[-55.76934814453124,-28.241488817301658],[-55.7830810546875,-28.256005619824986],[-55.75286865234375,-28.277777117422552],[-55.7281494140625,-28.29228897739707],[-55.70068359375,-28.30921698045776],[-55.67047119140625,-28.32855997136169],[-55.66772460937499,-28.34789944257092],[-55.6787109375,-28.37690204653979],[-55.69244384765625,-28.41555985166584],[-55.70343017578125,-28.4300528923357],[-55.71441650390624,-28.4107283972379],[-55.7281494140625,-28.386567819657202],[-55.74188232421874,-28.36965213860084],[-55.78582763671875,-28.364818591401086],[-55.8270263671875,-28.36240173523821],[-55.85174560546875,-28.352733760237793],[-55.87646484375,-28.357567857801694],[-55.8929443359375,-28.37206882963162],[-55.9039306640625,-28.393816571287864],[-55.90118408203125,-28.420391085674304],[-55.89569091796875,-28.43971381702787],[-55.89019775390624,-28.466276810692897],[-55.887451171875,-28.483177058570757],[-55.93688964843749,-28.49766083296346],[-55.9698486328125,-28.49524700856669],[-56.00280761718749,-28.502488316130417],[-56.03851318359375,-28.55075099675816],[-56.02752685546875,-28.562813213218377],[-56.00006103515625,-28.579697994029317],[-56.085205078125,-28.656851034203406],[-56.12365722656249,-28.695406284421953],[-56.1895751953125,-28.729130483430154],[-56.21704101562499,-28.758028282691114],[-56.2554931640625,-28.76765910569124],[-56.2939453125,-28.815799886487312],[-56.304931640625,-28.878349647602047],[-56.3214111328125,-28.93124697186731],[-56.36535644531249,-28.96489485992113],[-56.4422607421875,-28.99372720461892],[-56.436767578125,-29.07537517955836],[-56.49169921875,-29.099376992628493],[-56.546630859375,-29.10897615145303],[-56.57958984374999,-29.113775395114406],[-56.63452148437499,-29.16655229520015],[-56.678466796875,-29.31993078977759],[-56.7059326171875,-29.36781438477539],[-56.75537109374999,-29.377388403478978],[-56.78283691406249,-29.420460341013133],[-56.82128906249999,-29.47786119581683],[-56.8927001953125,-29.516110386062277],[-56.9476318359375,-29.592565403314072],[-57.008056640625,-29.673735421779128],[-57.095947265625,-29.754839972510933],[-57.18383789062499,-29.778681776917622],[-57.271728515625,-29.792984135470494],[-57.31567382812501,-29.831113764737136],[-57.32116699218749,-29.883518253353166],[-57.31567382812501,-29.912090918781477],[-57.32666015625,-29.954934549656134],[-57.32666015625,-29.993002284551064],[-57.3651123046875,-30.012030680358613],[-57.4200439453125,-30.05007652169872],[-57.4639892578125,-30.073847754270204],[-57.535400390625,-30.121373087823034],[-57.60131835937499,-30.187870144799806],[-57.65624999999999,-30.235340577517928],[-57.65075683593751,-30.292274851024256],[-57.65624999999999,-30.334953881988564],[-57.733154296875,-30.38709188778112],[-57.76611328124999,-30.424992973925583],[-57.8155517578125,-30.462879341709876],[-57.886962890625,-30.491284452100185],[-57.85949707031249,-30.600093873550072],[-57.81005859375,-30.65209002676],[-57.81005859375,-30.68988785772122],[-57.83203125,-30.737114341627038]]]}}]}