{"type":"FeatureCollection","features":[{"type":"Feature","properties":{"nombre":"Santa Cruz","fuente":"Referencia comunitaria; verificar con IGN"},"geometry":{"type":"Polygon","coordinates":[[[-67.5933837890625,-45.99314540468519],[-67.587890625,-46.02366774426006],[-67.6153564453125,-46.046548446306204],[-67.63732910156249,-46.10370875598026],[-67.60986328125,-46.22165245637911],[-67.5164794921875,-46.42271253466718],[-67.423095703125,-46.5739667965278],[-67.34619140625,-46.641893958928726],[-67.24731445312499,-46.64566519258494],[-67.21435546875,-46.679594465640186],[-67.1649169921875,-46.694667307773095],[-67.1209716796875,-46.71726868507395],[-67.0440673828125,-46.79253827035979],[-66.9891357421875,-46.84140712700584],[-66.9451904296875,-46.86770273172813],[-66.9012451171875,-46.897739085507006],[-66.85729980468749,-46.93526088057719],[-66.8243408203125,-46.96151050487309],[-66.807861328125,-46.98025235521882],[-66.68701171875,-47.03269459852135],[-66.632080078125,-47.03269459852135],[-66.59912109375,-47.05515408550348],[-66.51123046875,-47.043925523961406],[-66.4013671875,-47.05141149430736],[-66.2420654296875,-47.08508535995384],[-66.1212158203125,-47.10752278534249],[-66.0662841796875,-47.08508535995384],[-65.9564208984375,-47.07760411715962],[-65.863037109375,-47.09256555223568],[-65.841064453125,-47.12995075666305],[-65.79711914062499,-47.16357498846736],[-65.7421875,-47.193445339382926],[-65.7366943359375,-47.21956811231548],[-65.7586669921875,-47.24940695788844],[-65.7257080078125,-47.27922900257082],[-65.709228515625,-47.38719309778042],[-65.731201171875,-47.46523622438362],[-65.7586669921875,-47.572819867338694],[-65.8026123046875,-47.628380027447136],[-65.8355712890625,-47.68757916850813],[-65.8575439453125,-47.73562905149294],[-65.8795166015625,-47.76517619125414],[-65.8575439453125,-47.81315451752766],[-65.841064453125,-47.868459093342956],[-65.830078125,-47.894247720209975],[-65.76416015625,-47.89793076180494],[-65.7476806640625,-47.916342040161176],[-65.7861328125,-47.9200235099327],[-65.775146484375,-47.949465837887004],[-65.7916259765625,-47.97153658265931],[-65.8685302734375,-47.94210682755303],[-65.9124755859375,-47.9200235099327],[-65.94543457031249,-47.93474676946778],[-65.93994140625,-47.96418071541227],[-65.91796875,-47.99359789867389],[-65.9783935546875,-48.04870994288686],[-65.9619140625,-48.07073826425829],[-65.91796875,-48.07440873478364],[-65.9014892578125,-48.10009469797379],[-65.9124755859375,-48.12943437745314],[-65.9674072265625,-48.11476663187632],[-66.005859375,-48.09275716032736],[-66.0662841796875,-48.09642606004487],[-66.11572265625,-48.10743118848039],[-66.1376953125,-48.12576783370165],[-66.1651611328125,-48.184401125107684],[-66.2420654296875,-48.199048979359134],[-66.2969970703125,-48.231991343209614],[-66.3409423828125,-48.27222545100432],[-66.37390136718749,-48.305120721403895],[-66.346435546875,-48.34894812401374],[-66.4068603515625,-48.34164617237459],[-66.46728515624999,-48.352598707539286],[-66.4508056640625,-48.40003249610685],[-66.51123046875,-48.41826449418744],[-66.6375732421875,-48.42920055556839],[-66.676025390625,-48.447422095770555],[-66.7254638671875,-48.46563710044978],[-66.77490234375,-48.487486479884126],[-66.829833984375,-48.51296552999086],[-66.8792724609375,-48.54934195877749],[-66.8463134765625,-48.578424287520356],[-66.8902587890625,-48.6002250604689],[-66.9561767578125,-48.60385760823253],[-67.0111083984375,-48.61475368407372],[-67.0660400390625,-48.66194284607006],[-67.137451171875,-48.68370757165362],[-67.1429443359375,-48.73083222613515],[-67.181396484375,-48.763431137917955],[-67.1978759765625,-48.79600890414034],[-67.203369140625,-48.824949169310756],[-67.269287109375,-48.85025819972149],[-67.412109375,-48.89722676235672],[-67.4835205078125,-48.95497369808867],[-67.5439453125,-49.00184391797851],[-67.587890625,-49.066668395581154],[-67.598876953125,-49.09545216253481],[-67.642822265625,-49.120624274988344],[-67.6263427734375,-49.15296965617039],[-67.598876953125,-49.167338606291075],[-67.60986328125,-49.188884215245785],[-67.65380859375,-49.188884215245785],[-67.686767578125,-49.2032427441791],[-67.664794921875,-49.22477272279481],[-67.642822265625,-49.249879180004164],[-67.598876953125,-49.242707208753835],[-67.587890625,-49.26421999734762],[-67.67578124999999,-49.42526716083716],[-67.708740234375,-49.58934857766426],[-67.752685546875,-49.7670740736679],[-67.8515625,-49.958288428069665],[-68.082275390625,-50.05713877598689],[-68.203125,-50.10648772767333],[-68.35693359375,-50.10648772767333],[-68.367919921875,-50.169861746007314],[-68.5986328125,-50.22612374437136],[-68.785400390625,-50.29635802110317],[-68.917236328125,-50.34546040860479],[-69.0380859375,-50.49246334187723],[-69.14794921875,-50.63901028125871],[-69.14794921875,-50.75035931136963],[-69.136962890625,-50.903032831112554],[-69.2138671875,-50.95842672335992],[-69.14794921875,-50.99992885585964],[-69.0380859375,-51.3374756629652],[-68.9501953125,-51.52241608253253],[-68.983154296875,-51.624837461743205],[-68.763427734375,-51.964577109947506],[-68.565673828125,-52.133488040771475],[-68.3349609375,-52.348763181988076],[-68.40087890624999,-52.36218321674425],[-68.48876953125,-52.30847862366335],[-68.587646484375,-52.29504228453733],[-68.79638671875,-52.28832258600298],[-68.97216796875,-52.241256149663414],[-69.06005859375,-52.16719363541222],[-69.169921875,-52.140231201085044],[-69.49951171875,-52.160454557747045],[-70.0048828125,-51.99164577219735],[-71.861572265625,-52.00517397055569],[-71.982421875,-51.9781134854881],[-71.91650390625,-51.89683388301248],[-71.97143554687499,-51.81540697949438],[-72.0703125,-51.73383267274112],[-72.158203125,-51.72702815704775],[-72.257080078125,-51.69979984974194],[-72.301025390625,-51.63847621195153],[-72.333984375,-51.570241445811234],[-72.45483398437499,-51.577069537225654],[-72.344970703125,-51.51557978375591],[-72.301025390625,-51.4471603469801],[-72.31201171875,-51.37863823622005],[-72.3779296875,-51.35120063065598],[-72.2900390625,-51.27566243415851],[-72.26806640624999,-51.19999983412068],[-72.366943359375,-51.18622962638681],[-72.410888671875,-51.11041991029262],[-72.3779296875,-51.0206660125581],[-72.279052734375,-51.01375465718819],[-72.26806640624999,-50.9445844349501],[-72.26806640624999,-50.8336976709807],[-72.366943359375,-50.736455137010644],[-72.301025390625,-50.67383524992134],[-72.366943359375,-50.618102904924775],[-72.4658203125,-50.59718623058701],[-72.542724609375,-50.590211939351896],[-72.57568359375,-50.65294336725709],[-72.57568359375,-50.69471783819287],[-72.652587890625,-50.65294336725709],[-72.7294921875,-50.61113171332362],[-72.828369140625,-50.61113171332362],[-72.894287109375,-50.67383524992134],[-72.982177734375,-50.72950150147431],[-73.01513671875,-50.77120783188782],[-73.092041015625,-50.78510168548184],[-73.1689453125,-50.79899141148548],[-73.23486328124999,-50.819818262156545],[-73.289794921875,-50.77120783188782],[-73.245849609375,-50.70863440082822],[-73.14697265625,-50.65990836093937],[-73.245849609375,-50.63204218884232],[-73.311767578125,-50.541362965221616],[-73.377685546875,-50.47149085139955],[-73.465576171875,-50.38050249104245],[-73.443603515625,-50.33143633083883],[-73.509521484375,-50.28933925329178],[-73.553466796875,-50.22612374437136],[-73.553466796875,-50.14170587960567],[-73.509521484375,-50.09239321093879],[-73.45458984375,-50.07124366044472],[-73.553466796875,-50.00067775723633],[-73.487548828125,-49.93707975697529],[-73.564453125,-49.9300081246069],[-73.49853515625,-49.85215166776999],[-73.47656249999999,-49.80254124506291],[-73.267822265625,-49.70316772017987],[-73.125,-49.66051672522669],[-73.05908203125,-49.62494564650144],[-73.245849609375,-49.50380954152214],[-73.10302734375,-49.50380954152214],[-73.048095703125,-49.482401378269316],[-73.125,-49.38952445158216],[-73.037109375,-49.30363576187124],[-72.99316406249999,-49.25346477497736],[-73.070068359375,-49.19606400072378],[-73.157958984375,-49.18170338770662],[-73.157958984375,-49.1170290407793],[-73.048095703125,-49.08106236432073],[-72.960205078125,-48.97300592158682],[-72.861328125,-48.944151234187935],[-72.806396484375,-48.98742700601183],[-72.7734375,-48.91527985344381],[-72.69653320312499,-48.83579746243091],[-72.608642578125,-48.83579746243091],[-72.542724609375,-48.77067246880508],[-72.57568359375,-48.46563710044978],[-72.44384765625,-48.50204750525715],[-72.333984375,-48.370847702383635],[-72.158203125,-48.327039130634766],[-72.333984375,-48.22467264956519],[-72.3779296875,-48.06339653776211],[-72.3779296875,-47.97521412341617],[-72.53173828125,-47.93106634750978],[-72.61962890625,-47.842657628165355],[-72.48779296875,-47.81315451752766],[-72.5537109375,-47.72454454909966],[-72.35595703125,-47.63578359086485],[-72.301025390625,-47.52461999690649],[-72.39990234375,-47.457808530750306],[-72.279052734375,-47.39091206104779],[-72.169189453125,-47.39834920035925],[-72.059326171875,-47.33137715779822],[-72.00439453125,-47.27177506640827],[-72.0703125,-47.167309701315766],[-71.89453125,-47.24194882163241],[-71.89453125,-47.18224592701489],[-71.8505859375,-47.114999826207715],[-71.97143554687499,-47.04766864046081],[-71.87255859375,-47.02520600158537],[-71.97143554687499,-46.95026224218561],[-71.97143554687499,-46.875213396722685],[-71.927490234375,-46.81509864599243],[-72.00439453125,-46.78501604269255],[-71.795654296875,-46.80757957199238],[-71.65283203125,-46.679594465640186],[-71.641845703125,-46.619261036171515],[-71.69677734375,-46.5739667965278],[-71.74072265625,-46.377254205100265],[-71.707763671875,-46.28622391806706],[-71.773681640625,-46.202646380610176],[-71.8505859375,-46.179830407594345],[-71.905517578125,-46.13417004624325],[-71.707763671875,-46.08847179577592],[-71.641845703125,-45.9969616182038],[-67.5933837890625,-45.99314540468519]]]}},{"type":"Feature","properties":{"nombre":"Santa Fe","fuente":"Referencia comunitaria; verificar con IGN"},"geometry":{"type":"Polygon","coordinates":[[[-60.26824951171874,-33.26280507083056],[-60.266876220703125,-33.282323920510336],[-60.281982421875,-33.311020183237765],[-60.313568115234375,-33.338559712732525],[-60.33142089843749,-33.39590576922804],[-60.34790039062501,-33.42456461884057],[-60.38909912109375,-33.449776583118435],[-60.41793823242187,-33.48070852506528],[-60.42205810546875,-33.51849923765609],[-60.4193115234375,-33.542539281398845],[-60.42617797851563,-33.56542834598162],[-60.44815063476562,-33.578014746143985],[-60.461883544921875,-33.59746284562641],[-60.46051025390625,-33.62948545097291],[-60.49346923828124,-33.643205782197015],[-60.54290771484376,-33.64777874015307],[-60.585479736328125,-33.636345889823964],[-60.623931884765625,-33.62033734918939],[-60.6610107421875,-33.59860671494884],[-60.684356689453125,-33.58831134490153],[-60.74340820312499,-33.58373523046863],[-60.785980224609375,-33.57458227354356],[-60.80795288085938,-33.55856226340838],[-60.81619262695313,-33.542539281398845],[-60.84503173828124,-33.540250041407845],[-60.90133666992188,-33.56886118255556],[-60.92330932617187,-33.59631896113268],[-60.92468261718749,-33.63291573870477],[-60.934295654296875,-33.652351455189454],[-60.96588134765625,-33.67292566628718],[-61.019439697265625,-33.71291698851024],[-61.230926513671875,-33.92740869431181],[-61.40808105468749,-34.095884929552085],[-61.71981811523437,-34.38311269824022],[-62.00958251953125,-34.384246040152185],[-62.88711547851562,-34.3853793667234],[-62.579498291015625,-33.98322500128353],[-62.11532592773437,-33.372971882623666],[-61.92855834960937,-33.1237508297102],[-61.879119873046875,-33.09844453136718],[-61.82693481445312,-33.0386006781382],[-61.7926025390625,-33.01096671579776],[-61.78848266601562,-32.96373866131707],[-61.77337646484374,-32.916485347314385],[-61.791229248046875,-32.872667054361834],[-61.77886962890625,-32.82767311846153],[-61.78436279296875,-32.803436166989265],[-61.7926025390625,-32.776883350239835],[-61.807708740234375,-32.760716885480875],[-61.81869506835937,-32.754942436547225],[-61.848907470703125,-32.71797709835758],[-61.85852050781249,-32.69486597787506],[-61.9024658203125,-32.69486597787506],[-61.9244384765625,-32.689087262491576],[-61.93679809570312,-32.67868463225378],[-61.94641113281251,-32.67752870965115],[-61.94641113281251,-32.650938361757355],[-61.91619873046875,-32.62780989050403],[-61.89422607421875,-32.61392993783565],[-61.89010620117187,-32.58963484306729],[-61.91482543945312,-32.593105974265356],[-61.92306518554688,-32.58616357743128],[-61.925811767578125,-32.580377835974154],[-61.90658569335937,-32.56649053314148],[-61.90658569335937,-32.556073644920275],[-61.917572021484375,-32.54681317351514],[-61.931304931640625,-32.54218257955074],[-61.92031860351562,-32.53060504985311],[-61.91482543945312,-32.522499891112936],[-61.92031860351562,-32.50860363229594],[-61.91482543945312,-32.49818002841076],[-61.9573974609375,-32.42286258586671],[-62.00958251953125,-32.350962682113405],[-62.041168212890625,-32.258104107130904],[-62.11395263671875,-32.217448573031014],[-62.17987060546874,-32.15933769278929],[-62.1990966796875,-32.10816944421469],[-62.18536376953124,-32.0639555946604],[-62.1661376953125,-31.98594751862827],[-62.189483642578125,-31.917198867419142],[-62.222442626953125,-31.888052569652835],[-62.219696044921875,-31.779547369387327],[-62.222442626953125,-31.732839253650077],[-62.24029541015624,-31.7024663437955],[-62.15515136718749,-31.62181309470652],[-62.129058837890625,-31.61947427549924],[-62.02331542968749,-31.29380756394083],[-61.85852050781249,-30.737114341627038],[-62.1441650390625,-30.590637026892917],[-62.00683593749999,-29.707139348134145],[-61.732177734375,-27.994401411046148],[-58.9306640625,-27.999251729858745],[-58.90045166015625,-28.002889325708416],[-58.8922119140625,-28.02592458049936],[-58.89770507812501,-28.073192028027314],[-58.9251708984375,-28.107114812483616],[-58.95950317382812,-28.12649444646718],[-59.00619506835937,-28.136182949830477],[-59.05975341796874,-28.133760906108453],[-59.095458984375,-28.19308520918522],[-59.1119384765625,-28.242698626321285],[-59.096832275390625,-28.300753315557927],[-59.06799316406249,-28.361193286517356],[-59.073486328125,-28.414352008722236],[-59.04464721679687,-28.448166402490504],[-59.06524658203125,-28.504901974894548],[-59.10095214843751,-28.543513003567337],[-59.1119384765625,-28.580903946106904],[-59.096832275390625,-28.627925287618552],[-59.08447265624999,-28.662876227341798],[-59.105072021484375,-28.707451889351844],[-59.1339111328125,-28.764047651199782],[-59.15313720703124,-28.8627157339839],[-59.20120239257812,-28.94326532940748],[-59.20944213867187,-28.99612953724706],[-59.20120239257812,-29.029756331252777],[-59.225921630859375,-29.06097140738389],[-59.28634643554687,-29.10177686626508],[-59.34814453124999,-29.122173532832893],[-59.3701171875,-29.143765595138238],[-59.35775756835938,-29.168950601092266],[-59.35638427734374,-29.197725900405835],[-59.3701171875,-29.208514556408225],[-59.415435791015625,-29.222897664495267],[-59.4635009765625,-29.237278753059552],[-59.51293945312499,-29.264836859024015],[-59.51293945312499,-29.30316621811306],[-59.522552490234375,-29.340284066450106],[-59.5458984375,-29.36661756912835],[-59.58435058593751,-29.390551208770546],[-59.59945678710938,-29.395337261208205],[-59.58709716796875,-29.452752317036296],[-59.6173095703125,-29.505354261384966],[-59.632415771484375,-29.52686536767756],[-59.63790893554687,-29.536424391519873],[-59.60494995117187,-29.580623120820164],[-59.615936279296875,-29.63315858914055],[-59.62966918945312,-29.672542219068973],[-59.62829589843749,-29.71548859443817],[-59.615936279296875,-29.736954896290666],[-59.615936279296875,-29.753647733356967],[-59.64614868164063,-29.80251790576445],[-59.66400146484375,-29.835878945929938],[-59.64340209960937,-29.869228848968298],[-59.610443115234375,-29.9013771293521],[-59.593963623046875,-29.94898514859969],[-59.57336425781249,-30.009652330442915],[-59.585723876953125,-30.063151406016424],[-59.61181640625,-30.09880140343807],[-59.626922607421875,-30.166500980766052],[-59.63653564453124,-30.19024421026399],[-59.64614868164063,-30.222288491651227],[-59.64202880859375,-30.255508574624745],[-59.66949462890626,-30.331398006092712],[-59.68048095703125,-30.36813582872057],[-59.69284057617187,-30.4084130591452],[-59.69970703124999,-30.42854544631636],[-59.68048095703125,-30.464063053423697],[-59.66125488281249,-30.479449996609695],[-59.65301513671874,-30.540973445353863],[-59.65301513671874,-30.589454856169542],[-59.65850830078125,-30.624913704054762],[-59.64202880859375,-30.67571540416773],[-59.63104248046876,-30.71586528568627],[-59.65576171875,-30.741835717889778],[-59.68322753906249,-30.76189898543508],[-59.7052001953125,-30.80791068136646],[-59.725799560546875,-30.86097373272608],[-59.76150512695312,-30.904581367044198],[-59.81643676757812,-30.94110220488551],[-59.84664916992187,-31.002331635913638],[-59.907073974609375,-31.095278060807935],[-59.98947143554688,-31.192832764255467],[-60.00320434570312,-31.233940186109823],[-60.060882568359375,-31.27385599154884],[-60.08010864257812,-31.291460539248643],[-60.093841552734375,-31.316101383495624],[-60.084228515625,-31.346600164871646],[-60.107574462890625,-31.37943395059564],[-60.1171875,-31.407568065105846],[-60.13916015625,-31.4310067191785],[-60.16799926757812,-31.452096498983657],[-60.19683837890625,-31.47435278317815],[-60.209197998046875,-31.498945677962915],[-60.23666381835937,-31.523532106031112],[-60.28472900390624,-31.532896662756972],[-60.32318115234374,-31.54460103811182],[-60.3424072265625,-31.5656652152831],[-60.33966064453124,-31.583215062757276],[-60.33966064453124,-31.611287945395063],[-60.398712158203125,-31.649874339453312],[-60.459136962890625,-31.695455797778703],[-60.52093505859375,-31.700129553985924],[-60.569000244140625,-31.700129553985924],[-60.63491821289062,-31.743350634409595],[-60.65277099609375,-31.841399302094047],[-60.655517578125,-31.86822781618069],[-60.66650390624999,-31.92186141844725],[-60.692596435546875,-31.954492656522525],[-60.68161010742187,-31.98361789848808],[-60.67474365234374,-32.0185559882866],[-60.670623779296875,-32.055808605387014],[-60.65826416015624,-32.08141098532516],[-60.684356689453125,-32.12329032304639],[-60.70632934570312,-32.170962836413246],[-60.68984985351562,-32.208153325473255],[-60.67337036132812,-32.225581135206106],[-60.678863525390625,-32.287132632616355],[-60.678863525390625,-32.32195460020057],[-60.709075927734375,-32.3254360609053],[-60.7269287109375,-32.33355894864106],[-60.73654174804687,-32.350962682113405],[-60.7159423828125,-32.38112122215103],[-60.722808837890625,-32.43329491065414],[-60.74478149414062,-32.480804670595184],[-60.76812744140624,-32.513235957279385],[-60.747528076171875,-32.55260108010647],[-60.74615478515625,-32.60004783331758],[-60.74615478515625,-32.63706199657343],[-60.71182250976562,-32.6821523103069],[-60.71868896484375,-32.74801260358347],[-60.6939697265625,-32.8022818615473],[-60.656890869140625,-32.82767311846153],[-60.66925048828125,-32.864592899813275],[-60.68572998046875,-32.88535352597145],[-60.65277099609375,-32.91533251206151],[-60.61294555664063,-32.960281958039836],[-60.601959228515625,-32.99714648628773],[-60.545654296875,-33.06392419812064],[-60.492095947265625,-33.12605104079945],[-60.43373107910157,-33.172042605758925],[-60.39390563964843,-33.18583537264943],[-60.36506652832031,-33.18411139551861],[-60.33416748046875,-33.18066333948353],[-60.305328369140625,-33.186410024154036],[-60.28953552246094,-33.19962596829633],[-60.28404235839843,-33.21054198303287],[-60.29640197753906,-33.235815948149146],[-60.27511596679687,-33.25246979589198],[-60.25657653808594,-33.261082609915874],[-60.25314331054687,-33.273713201167375],[-60.26824951171874,-33.26280507083056]]]}},{"type":"Feature","properties":{"nombre":"Santiago del Estero","fuente":"Referencia comunitaria; verificar con IGN"},"geometry":{"type":"Polygon","coordinates":[[[-62.1112060546875,-30.396568538569365],[-62.1990966796875,-30.30650325984881],[-62.4407958984375,-30.32547125932808],[-62.4957275390625,-30.32547125932808],[-62.5506591796875,-30.27804437780013],[-62.5946044921875,-30.197366063272245],[-62.58361816406249,-30.12612436422458],[-62.55615234375,-30.088107753367257],[-62.6495361328125,-30.002516938570686],[-62.742919921875,-29.921613319695577],[-62.80883789062499,-29.859701442126745],[-62.77038574218749,-29.802517905764464],[-63.43505859374999,-29.773913869992242],[-63.446044921875,-29.707139348134145],[-63.4844970703125,-29.707139348134145],[-63.47900390625,-29.645094649860745],[-63.69873046874999,-29.635545914466675],[-63.77014160156249,-29.625996273660775],[-63.7811279296875,-29.57823449473918],[-63.80859374999999,-29.54956657394792],[-63.84704589843749,-29.55912345157795],[-63.86901855468749,-29.597341920567366],[-63.90197753906249,-29.611670115197377],[-63.951416015625,-29.602118211647323],[-63.94042968749999,-29.544787796199465],[-64.0283203125,-29.53045010749105],[-64.281005859375,-29.492206334848714],[-64.48974609375,-29.506549442788593],[-64.742431640625,-29.535229562948455],[-64.8248291015625,-29.55912345157795],[-64.9072265625,-29.27681632836857],[-64.852294921875,-29.017748018496036],[-64.962158203125,-28.815799886487312],[-65.06103515625,-28.73876397137028],[-65.137939453125,-28.671310915880834],[-65.21484375,-28.623103554529905],[-65.115966796875,-28.536274512989916],[-65.115966796875,-28.4300528923357],[-65.126953125,-28.101057958669447],[-65.1708984375,-27.994401411046148],[-65.21484375,-27.887639217136503],[-65.0830078125,-27.868216579514076],[-65.028076171875,-27.77105119317226],[-64.951171875,-27.741884632507087],[-65.01708984375,-27.664068965384516],[-65.028076171875,-27.58619785769265],[-64.9951171875,-27.469287473692006],[-64.9951171875,-27.362010549240267],[-64.88525390624999,-27.303451991034542],[-64.84130859375,-27.22532583690336],[-64.786376953125,-27.03955660216317],[-64.70947265625,-26.843677401113002],[-64.64355468749999,-26.784847361051206],[-64.566650390625,-26.63763888664592],[-64.500732421875,-26.647458702659357],[-64.522705078125,-26.441065564038407],[-64.4677734375,-26.273714024406416],[-64.478759765625,-26.165298896316028],[-64.412841796875,-26.06665213857739],[-64.34692382812499,-25.90864446329127],[-64.259033203125,-25.750424835909385],[-64.2041015625,-25.69103802005013],[-64.017333984375,-25.7306325255319],[-64.0283203125,-25.651430347039724],[-63.5009765625,-25.70093788144426],[-63.424072265625,-25.641526373065755],[-61.71020507812499,-25.631621577258482],[-61.71020507812499,-26.13571361317392],[-61.72119140625,-26.843677401113002],[-61.69921875,-27.32297494724568],[-61.72119140625,-28.013801376380727],[-61.80908203125,-28.6905876542507],[-61.94091796875,-29.286398892934763],[-62.1112060546875,-30.396568538569365]]]}},{"type":"Feature","properties":{"nombre":"Tierra del Fuego","fuente":"Referencia comunitaria; verificar con IGN"},"geometry":{"type":"Polygon","coordinates":[[[-68.60412597656249,-52.65972593335805],[-68.57666015625,-52.69969002255456],[-68.4832763671875,-52.7728625816634],[-68.3953857421875,-52.862497459709466],[-68.2855224609375,-52.945327958220325],[-68.258056640625,-52.99825639899418],[-68.1976318359375,-53.15994678846807],[-68.2635498046875,-53.05772343915075],[-68.26904296875,-53.01478324585921],[-68.31298828125,-53.001562274591464],[-68.4063720703125,-53.02800016773516],[-68.4832763671875,-53.103918911983605],[-68.5546875,-53.15994678846807],[-68.57666015625,-53.2257684357902],[-68.5107421875,-53.27506837459296],[-68.4393310546875,-53.30790344668576],[-68.367919921875,-53.321030409806646],[-68.2415771484375,-53.32759237756109],[-68.1976318359375,-53.314467432871226],[-68.126220703125,-53.33743343712966],[-68.09326171875,-53.38332836757154],[-68.0712890625,-53.44226352500858],[-68.038330078125,-53.49784954396766],[-68.038330078125,-53.55988897245465],[-67.939453125,-53.63812471860767],[-67.8350830078125,-53.70646218454776],[-67.6922607421875,-53.79416183737104],[-67.5384521484375,-53.855766703698954],[-67.576904296875,-53.86548550842126],[-67.56591796875,-53.894628379476444],[-67.5494384765625,-53.93345394944651],[-67.5054931640625,-53.94315470224928],[-67.4505615234375,-53.96578102161266],[-67.4560546875,-53.981935162091666],[-67.4066162109375,-53.99808304035924],[-67.34619140625,-54.01745222977419],[-67.335205078125,-54.05616356873161],[-67.2418212890625,-54.07872853867059],[-67.159423828125,-54.12382170046237],[-67.1099853515625,-54.14634989865953],[-67.0770263671875,-54.13025957879544],[-67.0111083984375,-54.1592176541669],[-66.95068359374999,-54.19458336016264],[-66.9232177734375,-54.22028488212399],[-66.8408203125,-54.23634021441341],[-66.7584228515625,-54.24917998455609],[-66.70898437499999,-54.29088164657004],[-66.676025390625,-54.338946534620526],[-66.59912109375,-54.37095860924334],[-66.544189453125,-54.4093401837683],[-66.5057373046875,-54.44768586644475],[-66.46728515624999,-54.48599567367707],[-66.434326171875,-54.49556752187406],[-66.37939453125,-54.48599567367707],[-66.324462890625,-54.51151562248606],[-66.18713378906249,-54.55613719840548],[-66.0498046875,-54.58479674367873],[-65.885009765625,-54.62615829892251],[-65.830078125,-54.651590680027134],[-65.7366943359375,-54.651590680027134],[-65.6597900390625,-54.67383096593114],[-65.6158447265625,-54.661123722066385],[-65.56640625,-54.648412502316674],[-65.5279541015625,-54.67383096593114],[-65.478515625,-54.651590680027134],[-65.4345703125,-54.63887647795801],[-65.423583984375,-54.67065452767033],[-65.3851318359375,-54.64523407607477],[-65.3302001953125,-54.63569730606385],[-65.2862548828125,-54.63569730606385],[-65.225830078125,-54.62615829892251],[-65.247802734375,-54.67065452767033],[-65.19287109375,-54.648412502316674],[-65.126953125,-54.65794628989233],[-65.181884765625,-54.68970943061655],[-65.1983642578125,-54.71827501830231],[-65.21484375,-54.76900862613557],[-65.2093505859375,-54.79435160392049],[-65.2642822265625,-54.797518359658994],[-65.22033691406249,-54.82917227452137],[-65.291748046875,-54.84182689655049],[-65.302734375,-54.87028529268184],[-65.3411865234375,-54.914514007665254],[-65.3961181640625,-54.942921113078356],[-65.4290771484375,-54.914514007665254],[-65.4510498046875,-54.895564790773385],[-65.478515625,-54.882927024213835],[-65.511474609375,-54.892405720815276],[-65.5059814453125,-54.930298209559496],[-65.54443359375,-54.93976575865892],[-65.5828857421875,-54.94607621987402],[-65.621337890625,-54.95554005461726],[-65.6597900390625,-54.965001661102036],[-65.7147216796875,-54.942921113078356],[-65.7366943359375,-54.917671343429596],[-65.7806396484375,-54.901882187385006],[-65.8245849609375,-54.90504051405818],[-65.8575439453125,-54.895564790773385],[-65.9124755859375,-54.90504051405818],[-65.972900390625,-54.898723612960005],[-66.03881835937499,-54.90504051405818],[-66.0223388671875,-54.92082843149135],[-65.9619140625,-54.94607621987402],[-65.98388671875,-54.968155034807836],[-66.0882568359375,-54.993373113673535],[-66.1651611328125,-54.99022172004892],[-66.2200927734375,-54.98391819036322],[-66.29150390625,-54.99022172004892],[-66.3299560546875,-54.98391819036322],[-66.3629150390625,-54.99022172004892],[-66.37390136718749,-55.01227627898972],[-66.3848876953125,-55.05005589189804],[-66.4453125,-55.043761763080774],[-66.5277099609375,-55.05320258537112],[-66.68701171875,-55.00912637001029],[-66.7584228515625,-54.965001661102036],[-66.8353271484375,-54.94607621987402],[-66.90673828125,-54.93976575865892],[-67.0330810546875,-54.92398527186035],[-67.1319580078125,-54.895564790773385],[-67.225341796875,-54.87660665410869],[-67.291259765625,-54.87028529268184],[-67.357177734375,-54.87028529268184],[-67.4066162109375,-54.87976696307157],[-67.4176025390625,-54.914514007665254],[-67.5,-54.90504051405818],[-67.52197265625,-54.882927024213835],[-67.4835205078125,-54.87344609731538],[-67.4505615234375,-54.857639595548996],[-67.4835205078125,-54.854477551567086],[-67.5494384765625,-54.86080139164162],[-67.6153564453125,-54.882927024213835],[-67.69775390625,-54.87976696307157],[-67.7691650390625,-54.86712424019823],[-67.8515625,-54.86080139164162],[-67.9669189453125,-54.854477551567086],[-68.0438232421875,-54.835500081451656],[-68.13720703125,-54.822843475681324],[-68.2196044921875,-54.803851126920264],[-68.302001953125,-54.803851126920264],[-68.291015625,-54.822843475681324],[-68.2470703125,-54.83866361297512],[-68.2415771484375,-54.851315259686075],[-68.291015625,-54.844989932187566],[-68.3184814453125,-54.832336301970344],[-68.345947265625,-54.822843475681324],[-68.37890625,-54.844989932187566],[-68.4228515625,-54.854477551567086],[-68.5052490234375,-54.851315259686075],[-68.543701171875,-54.83866361297512],[-68.565673828125,-54.854477551567086],[-68.565673828125,-54.87028529268184],[-68.60412597656249,-54.90504051405818],[-68.60412597656249,-52.65972593335805]]]}},{"type":"Feature","properties":{"nombre":"","fuente":"Referencia comunitaria; verificar con IGN"},"geometry":{"type":"Polygon","coordinates":[[[-63.83193969726562,-54.72620633389006],[-63.82232666015624,-54.720654575930745],[-63.81134033203125,-54.71827501830231],[-63.81134033203125,-54.725413272166534],[-63.80584716796875,-54.73255026902895],[-63.796234130859375,-54.724620194924476],[-63.80996704101563,-54.737307568657506],[-63.80584716796875,-54.74523516008683],[-63.796234130859375,-54.753161200041596],[-63.80996704101563,-54.75791607936991],[-63.819580078125,-54.759500915045884],[-63.83331298828126,-54.75712363826352],[-63.83056640624999,-54.76267040025495],[-63.82232666015624,-54.767424162729554],[-63.84429931640625,-54.77851410375888],[-63.83880615234374,-54.784057934383256],[-63.84429931640625,-54.79039281037679],[-63.87725830078124,-54.79435160392049],[-63.87725830078124,-54.78643362918132],[-63.88275146484375,-54.78009813290534],[-63.889617919921875,-54.78880918441787],[-63.90472412109375,-54.79039281037679],[-63.9129638671875,-54.7919763743114],[-63.91708374023437,-54.80068486732233],[-63.944549560546875,-54.80939148433863],[-63.95416259765625,-54.81018290195896],[-63.95690917968749,-54.80226802812885],[-63.94729614257812,-54.796726693981796],[-63.94866943359374,-54.79039281037679],[-63.96514892578124,-54.79593501279975],[-63.96240234375,-54.787225496433464],[-63.961029052734375,-54.77772206592319],[-63.951416015625,-54.77059302750084],[-63.952789306640625,-54.7650473512915],[-63.98162841796875,-54.77296951322506],[-63.98712158203124,-54.77930612608621],[-63.9898681640625,-54.784057934383256],[-64.0008544921875,-54.79118460009706],[-64.00909423828125,-54.79355987622297],[-64.017333984375,-54.787225496433464],[-64.0228271484375,-54.79355987622297],[-64.03656005859375,-54.79910164449945],[-64.02969360351562,-54.80860005121588],[-64.05166625976562,-54.79910164449945],[-64.06402587890625,-54.79039281037679],[-64.05303955078125,-54.78247406031503],[-64.07363891601562,-54.78326600510287],[-64.08187866210936,-54.7919763743114],[-64.07501220703125,-54.79355987622297],[-64.07501220703125,-54.80226802812885],[-64.0777587890625,-54.81097430407705],[-64.09011840820312,-54.81176569069303],[-64.10110473632812,-54.813348417419284],[-64.10247802734375,-54.82363462978406],[-64.10659790039062,-54.82917227452137],[-64.11209106445312,-54.83312727008725],[-64.10934448242188,-54.82363462978406],[-64.11758422851562,-54.817304962958794],[-64.11209106445312,-54.81018290195896],[-64.12582397460938,-54.817304962958794],[-64.13681030273436,-54.822843475681324],[-64.14505004882812,-54.82759016780596],[-64.15191650390624,-54.82679909119998],[-64.16290283203125,-54.82442576838715],[-64.17251586914062,-54.8204699203736],[-64.17938232421875,-54.82679909119998],[-64.1766357421875,-54.83629098757819],[-64.18075561523438,-54.84182689655049],[-64.193115234375,-54.837081878207506],[-64.19448852539062,-54.82679909119998],[-64.2041015625,-54.82679909119998],[-64.2095947265625,-54.837081878207506],[-64.21371459960938,-54.846571357032325],[-64.21371459960938,-54.85605860454481],[-64.22332763671875,-54.8584300678114],[-64.22470092773438,-54.851315259686075],[-64.23019409179686,-54.8434084453607],[-64.22195434570312,-54.8394544571137],[-64.23019409179686,-54.83470915982777],[-64.237060546875,-54.82917227452137],[-64.22744750976562,-54.82205230607877],[-64.23294067382812,-54.81176569069303],[-64.22882080078125,-54.80305958527638],[-64.23294067382812,-54.79435160392049],[-64.237060546875,-54.78564174642233],[-64.23431396484375,-54.7816821000196],[-64.24942016601562,-54.787225496433464],[-64.25354003906249,-54.79355987622297],[-64.26589965820312,-54.80622565883166],[-64.27276611328125,-54.79435160392049],[-64.27963256835938,-54.7951433161127],[-64.28924560546875,-54.789601005150445],[-64.2974853515625,-54.787225496433464],[-64.31121826171875,-54.787225496433464],[-64.30984497070312,-54.7919763743114],[-64.30160522460938,-54.79355987622297],[-64.30572509765625,-54.797518359658994],[-64.3084716796875,-54.80226802812885],[-64.30572509765625,-54.807808602590576],[-64.31533813476562,-54.81413975752987],[-64.32632446289062,-54.822843475681324],[-64.33319091796875,-54.82521689149074],[-64.3414306640625,-54.832336301970344],[-64.35516357421875,-54.83391822270634],[-64.36065673828125,-54.82996330463112],[-64.37164306640625,-54.83312727008725],[-64.3798828125,-54.83312727008725],[-64.38949584960938,-54.82917227452137],[-64.3963623046875,-54.826007999094955],[-64.3963623046875,-54.83312727008725],[-64.3963623046875,-54.841036098901235],[-64.40597534179688,-54.84182689655049],[-64.40872192382812,-54.84578065235764],[-64.40048217773438,-54.84578065235764],[-64.40322875976562,-54.850524647980436],[-64.41009521484375,-54.85605860454481],[-64.42108154296875,-54.86238219673252],[-64.434814453125,-54.86554362100959],[-64.44717407226562,-54.871865725979255],[-64.4512939453125,-54.866333938349605],[-64.46090698242188,-54.86475328817803],[-64.4732666015625,-54.863962939854765],[-64.47738647460938,-54.87344609731538],[-64.48699951171875,-54.8726559193924],[-64.48974609375,-54.866333938349605],[-64.49249267578125,-54.86001096585755],[-64.48150634765625,-54.8521058558974],[-64.478759765625,-54.846571357032325],[-64.46365356445311,-54.84024528575569],[-64.45266723632812,-54.8394544571137],[-64.45541381835938,-54.83470915982777],[-64.46365356445311,-54.83312727008725],[-64.4622802734375,-54.82759016780596],[-64.4622802734375,-54.82363462978406],[-64.47463989257812,-54.82442576838715],[-64.47738647460938,-54.82996330463112],[-64.48837280273438,-54.83787275333977],[-64.50485229492188,-54.841036098901235],[-64.51171875,-54.850524647980436],[-64.51995849609375,-54.857639595548996],[-64.53643798828125,-54.87028529268184],[-64.51583862304688,-54.86791452655561],[-64.52545166015625,-54.87107551707578],[-64.52957153320312,-54.877396754583124],[-64.53643798828125,-54.88450696185532],[-64.54330444335938,-54.888456534924046],[-64.55154418945312,-54.88766665128511],[-64.5611572265625,-54.88766665128511],[-64.56939697265625,-54.885296907444186],[-64.57077026367188,-54.89003625574077],[-64.57626342773438,-54.89398528676637],[-64.5831298828125,-54.898723612960005],[-64.59686279296875,-54.90346138168995],[-64.6051025390625,-54.908198592989386],[-64.61746215820312,-54.91293524689153],[-64.61471557617188,-54.90504051405818],[-64.62295532226562,-54.90109256700586],[-64.63531494140624,-54.900302931142086],[-64.63943481445312,-54.90504051405818],[-64.64630126953125,-54.90740909648186],[-64.65179443359375,-54.91135642418847],[-64.65866088867186,-54.914514007665254],[-64.66690063476561,-54.914514007665254],[-64.66827392578125,-54.905830057016395],[-64.67788696289062,-54.91056698961305],[-64.69024658203124,-54.912145843281245],[-64.698486328125,-54.91135642418847],[-64.698486328125,-54.90740909648186],[-64.68063354492188,-54.90346138168995],[-64.65728759765625,-54.896354519548225],[-64.64767456054688,-54.89003625574077],[-64.64630126953125,-54.883717000778596],[-64.65728759765625,-54.87897690906441],[-64.66140747070312,-54.87344609731538],[-64.6710205078125,-54.871865725979255],[-64.68475341796875,-54.86001096585755],[-64.68200683593749,-54.85526808580272],[-64.654541015625,-54.844989932187566],[-64.66415405273438,-54.841036098901235],[-64.67788696289062,-54.83866361297512],[-64.69985961914062,-54.84894337808564],[-64.72320556640625,-54.851315259686075],[-64.73419189453125,-54.85684910779353],[-64.74105834960938,-54.85605860454481],[-64.73968505859375,-54.84894337808564],[-64.73419189453125,-54.844989932187566],[-64.742431640625,-54.842617678703576],[-64.75067138671875,-54.842617678703576],[-64.74105834960938,-54.837081878207506],[-64.75341796875,-54.83629098757819],[-64.73693847656249,-54.82917227452137],[-64.74380493164062,-54.82363462978406],[-64.73419189453125,-54.815722391246695],[-64.72320556640625,-54.81413975752987],[-64.72457885742188,-54.807017138462555],[-64.70809936523438,-54.798310009831496],[-64.69573974609375,-54.807017138462555],[-64.68475341796875,-54.803851126920264],[-64.67376708984375,-54.801476455477555],[-64.67514038085938,-54.796726693981796],[-64.68475341796875,-54.7919763743114],[-64.69711303710938,-54.78247406031503],[-64.6710205078125,-54.787225496433464],[-64.65179443359375,-54.77851410375888],[-64.64218139648438,-54.78089012421643],[-64.64218139648438,-54.78484984815637],[-64.64218139648438,-54.7919763743114],[-64.64218139648438,-54.7951433161127],[-64.63531494140624,-54.80068486732233],[-64.62432861328125,-54.80622565883166],[-64.610595703125,-54.80860005121588],[-64.59686279296875,-54.81255706180707],[-64.59686279296875,-54.817304962958794],[-64.59548950195312,-54.82205230607877],[-64.5831298828125,-54.817304962958794],[-64.56527709960936,-54.81176569069303],[-64.566650390625,-54.80622565883166],[-64.56527709960936,-54.799893263663016],[-64.55291748046875,-54.796726693981796],[-64.54193115234374,-54.79355987622297],[-64.53643798828125,-54.796726693981796],[-64.53369140625,-54.799893263663016],[-64.53506469726562,-54.80464265306067],[-64.522705078125,-54.80226802812885],[-64.51583862304688,-54.797518359658994],[-64.51858520507811,-54.78880918441787],[-64.52682495117188,-54.78643362918132],[-64.52133178710938,-54.7816821000196],[-64.52133178710938,-54.77534585936447],[-64.52133178710938,-54.76900862613557],[-64.53094482421875,-54.768216402187726],[-64.5391845703125,-54.76900862613557],[-64.54330444335938,-54.76346273277833],[-64.54330444335938,-54.74444247076275],[-64.54193115234374,-54.737307568657506],[-64.54605102539062,-54.729378425601766],[-64.54055786132812,-54.7285854259509],[-64.52682495117188,-54.73413609763888],[-64.52407836914062,-54.73810039762111],[-64.5172119140625,-54.74364976592378],[-64.50759887695312,-54.74761313497116],[-64.50210571289062,-54.75236866585814],[-64.49523925781249,-54.75870850496398],[-64.48974609375,-54.76346273277833],[-64.478759765625,-54.768216402187726],[-64.45816040039062,-54.767424162729554],[-64.44854736328124,-54.76267040025495],[-64.44030761718749,-54.759500915045884],[-64.43344116210938,-54.76663190776089],[-64.42108154296875,-54.771385204918595],[-64.41421508789062,-54.77296951322506],[-64.41421508789062,-54.77772206592319],[-64.40597534179688,-54.77534585936447],[-64.40597534179688,-54.77059302750084],[-64.40597534179688,-54.76583963728159],[-64.40460205078125,-54.759500915045884],[-64.412841796875,-54.75474622186898],[-64.41696166992186,-54.749990970226904],[-64.39361572265624,-54.75078355095095],[-64.38949584960938,-54.75633118164468],[-64.38949584960938,-54.761878052220155],[-64.38949584960938,-54.771385204918595],[-64.39224243164062,-54.7816821000196],[-64.3853759765625,-54.78564174642233],[-64.3743896484375,-54.7816821000196],[-64.36477661132812,-54.784057934383256],[-64.37026977539061,-54.79355987622297],[-64.3743896484375,-54.79910164449945],[-64.3743896484375,-54.80543416369775],[-64.37576293945312,-54.81176569069303],[-64.36752319335938,-54.80939148433863],[-64.35653686523438,-54.799893263663016],[-64.35653686523438,-54.79435160392049],[-64.35653686523438,-54.78009813290534],[-64.35928344726562,-54.77376164411408],[-64.368896484375,-54.761085688673816],[-64.3743896484375,-54.75633118164468],[-64.37713623046875,-54.749990970226904],[-64.35791015625,-54.74602783389615],[-64.34829711914062,-54.73810039762111],[-64.34692382812499,-54.726999380095194],[-64.33868408203125,-54.71589532099471],[-64.33456420898438,-54.726999380095194],[-64.32907104492188,-54.73334319109242],[-64.3194580078125,-54.736514724177624],[-64.29611206054688,-54.737307568657506],[-64.28375244140625,-54.73175733144829],[-64.27413940429688,-54.73413609763888],[-64.26315307617188,-54.73413609763888],[-64.25628662109375,-54.7404787914159],[-64.24667358398438,-54.74602783389615],[-64.23294067382812,-54.74523516008683],[-64.22470092773438,-54.74444247076275],[-64.22470092773438,-54.73017140973486],[-64.20547485351562,-54.73968600900017],[-64.18350219726561,-54.742064309700545],[-64.17251586914062,-54.75157611616132],[-64.16015624999999,-54.75712363826352],[-64.15603637695312,-54.76900862613557],[-64.13955688476562,-54.76900862613557],[-64.12994384765625,-54.76425504979046],[-64.13818359375,-54.75553870951322],[-64.1436767578125,-54.74682049219088],[-64.15328979492188,-54.74127155831598],[-64.16015624999999,-54.73810039762111],[-64.14642333984375,-54.734928988668464],[-64.13543701171875,-54.73096437835032],[-64.12994384765625,-54.726999380095194],[-64.127197265625,-54.73810039762111],[-64.11483764648438,-54.73968600900017],[-64.10797119140625,-54.74761313497116],[-64.12033081054688,-54.75553870951322],[-64.12307739257812,-54.75870850496398],[-64.11346435546875,-54.76346273277833],[-64.09286499023438,-54.75236866585814],[-64.08462524414062,-54.749198373989024],[-64.07363891601562,-54.73017140973486],[-64.04342651367188,-54.73255026902895],[-64.0557861328125,-54.736514724177624],[-64.04617309570312,-54.742857045569764],[-64.03518676757811,-54.74523516008683],[-64.0338134765625,-54.75078355095095],[-64.03518676757811,-54.75712363826352],[-64.04342651367188,-54.76425504979046],[-64.04617309570312,-54.77296951322506],[-64.04891967773438,-54.77851410375888],[-64.0338134765625,-54.77534585936447],[-64.02969360351562,-54.76583963728159],[-64.02420043945312,-54.75712363826352],[-64.01458740234375,-54.74840576223716],[-64.00360107421875,-54.742857045569764],[-63.99673461914063,-54.749990970226904],[-63.9898681640625,-54.74444247076275],[-63.991241455078125,-54.736514724177624],[-63.985748291015625,-54.736514724177624],[-63.97888183593749,-54.737307568657506],[-63.966522216796875,-54.73413609763888],[-63.961029052734375,-54.7404787914159],[-63.94729614257812,-54.734928988668464],[-63.94180297851562,-54.7285854259509],[-63.929443359375,-54.724620194924476],[-63.91845703124999,-54.72779241078209],[-63.90884399414062,-54.724620194924476],[-63.89923095703125,-54.720654575930745],[-63.88275146484375,-54.71906821969815],[-63.87039184570312,-54.720654575930745],[-63.884124755859375,-54.73017140973486],[-63.87451171875,-54.734928988668464],[-63.86077880859375,-54.729378425601766],[-63.8580322265625,-54.734928988668464],[-63.867645263671875,-54.74127155831598],[-63.88687133789062,-54.75157611616132],[-63.88000488281251,-54.753953718711834],[-63.86077880859375,-54.753161200041596],[-63.851165771484375,-54.74444247076275],[-63.84567260742187,-54.73572186418133],[-63.84017944335937,-54.726999380095194],[-63.83193969726562,-54.72620633389006]]]}},{"type":"Feature","properties":{"nombre":"Tucuman","fuente":"Referencia comunitaria; verificar con IGN"},"geometry":{"type":"Polygon","coordinates":[[[-65.225830078125,-27.916766641249065],[-65.32470703125,-27.839076094777802],[-65.401611328125,-27.85364731612737],[-65.4840087890625,-27.89249433228659],[-65.55541992187499,-27.96044306897833],[-65.56640625,-28.013801376380727],[-65.6048583984375,-27.965294915211118],[-65.64880371093749,-27.96044306897833],[-65.67626953125,-27.94588622176196],[-65.69549560546874,-27.90948552034696],[-65.6982421875,-27.87307256542276],[-65.70648193359375,-27.82450291614481],[-65.72021484375,-27.797780340741387],[-65.753173828125,-27.773481387145182],[-65.7806396484375,-27.761329874505233],[-65.79711914062499,-27.773481387145182],[-65.79711914062499,-27.80020993741824],[-65.80810546875,-27.81964475509946],[-65.83282470703125,-27.802639479776524],[-65.83831787109375,-27.775911526834257],[-65.8575439453125,-27.72000458577013],[-65.8685302734375,-27.690824359526705],[-65.8795166015625,-27.668934069896217],[-65.906982421875,-27.654338106691874],[-65.93170166015625,-27.644606381943312],[-65.96466064453125,-27.561851783388512],[-65.9674072265625,-27.522886832325785],[-65.97564697265625,-27.481471437465334],[-65.97564697265625,-27.436384043710632],[-65.97015380859375,-27.393716845850502],[-65.9674072265625,-27.364449817684083],[-65.972900390625,-27.33761490945199],[-65.99075317382812,-27.31199370709098],[-66.00860595703125,-27.31077350219448],[-66.02096557617188,-27.299791054327926],[-66.0498046875,-27.29368922485238],[-66.06765747070312,-27.287587060048512],[-66.0882568359375,-27.279043466068245],[-66.1102294921875,-27.269278554175003],[-66.126708984375,-27.25829200282288],[-66.13494873046875,-27.246083450428404],[-66.126708984375,-27.233873558307288],[-66.11984252929688,-27.215556209029675],[-66.11572265625,-27.209449756515486],[-66.10748291015625,-27.21433494529935],[-66.09375,-27.21067107379002],[-66.08001708984375,-27.209449756515486],[-66.0882568359375,-27.19845729876719],[-66.07177734375,-27.191128391422247],[-66.06491088867188,-27.176469131898884],[-66.06765747070312,-27.1618079465197],[-66.05667114257812,-27.15203275336282],[-66.04156494140625,-27.132479801022885],[-66.02096557617188,-27.11536816222448],[-66.00448608398438,-27.109256228303348],[-65.98800659179688,-27.109256228303348],[-65.97702026367188,-27.095808798820745],[-65.97015380859375,-27.061571692162207],[-65.97702026367188,-27.055456822683336],[-65.96466064453125,-27.032217279094944],[-65.94131469726562,-27.022430768789505],[-65.91796875,-27.008972924989312],[-65.9124755859375,-26.991842429628925],[-65.91384887695311,-26.982052403616663],[-65.89050292968749,-26.968589727144398],[-65.8740234375,-26.955125440882295],[-65.87539672851561,-26.934313833395052],[-65.85617065429688,-26.929416426216285],[-65.85617065429688,-26.90860007362183],[-65.863037109375,-26.896353366896424],[-65.87539672851561,-26.885330195427912],[-65.89187622070312,-26.885330195427912],[-65.885009765625,-26.876755874156768],[-65.90560913085938,-26.85838013872655],[-65.90972900390625,-26.838776064165863],[-65.84793090820312,-26.784847361051206],[-65.83145141601562,-26.76032583739443],[-65.83145141601562,-26.741931220736518],[-65.841064453125,-26.727213384571503],[-65.86029052734375,-26.714947066655697],[-66.04293823242188,-26.60080705935182],[-66.18850708007812,-26.63150107290848],[-66.18576049804688,-26.619224456301442],[-66.18988037109375,-26.602034978080944],[-66.18301391601562,-26.59466726803601],[-66.17202758789062,-26.59098323512559],[-66.17752075195312,-26.5799304249794],[-66.17752075195312,-26.570104809185352],[-66.16790771484375,-26.56887654795064],[-66.16790771484375,-26.552907953803526],[-66.17202758789062,-26.540622906156816],[-66.16241455078125,-26.536937135265674],[-66.17340087890625,-26.52710783403151],[-66.181640625,-26.517277690994334],[-66.16790771484375,-26.50744670637142],[-66.18026733398438,-26.48409474624507],[-66.16378784179686,-26.45582023845988],[-66.15692138671875,-26.4386062678873],[-66.16104125976562,-26.415240336985192],[-66.15966796875,-26.40540063376061],[-66.11846923828125,-26.37833712391174],[-66.11846923828125,-26.35865058814066],[-66.10748291015625,-26.35372843033832],[-66.11846923828125,-26.331576128197028],[-66.12258911132812,-26.314343628618722],[-66.12396240234375,-26.305726417424278],[-66.12808227539062,-26.298339726417726],[-66.12258911132812,-26.28725880745812],[-66.11984252929688,-26.270019718272557],[-66.11846923828125,-26.25031476680034],[-66.09649658203125,-26.25154642421302],[-66.10061645507812,-26.241692799340115],[-66.10336303710938,-26.22444694563432],[-66.09649658203125,-26.220751072791934],[-66.08413696289062,-26.23430203240673],[-66.0552978515625,-26.239229262573595],[-66.04156494140625,-26.254009699865737],[-65.71884155273436,-26.351267272877063],[-65.71334838867188,-26.330345320410842],[-65.72296142578125,-26.310650616574282],[-65.70098876953125,-26.295877391487554],[-65.72296142578125,-26.279870939987212],[-65.709228515625,-26.26016766047015],[-65.71884155273436,-26.252778068568308],[-65.70510864257812,-26.236765673594654],[-65.70098876953125,-26.221983043453275],[-65.7147216796875,-26.220751072791934],[-65.71746826171875,-26.21212691288088],[-65.70098876953125,-26.193644418207565],[-65.6927490234375,-26.1788563103825],[-65.6927490234375,-26.162833742569923],[-65.70236206054688,-26.160368536718494],[-65.68862915039062,-26.11721900341594],[-65.63919067382812,-26.10982033978211],[-65.63644409179688,-26.122151185638337],[-65.61309814453125,-26.122151185638337],[-65.59524536132812,-26.11598592533351],[-65.577392578125,-26.108587183647025],[-65.55816650390625,-26.088854916793604],[-65.5169677734375,-26.093788295583916],[-65.49636840820312,-26.086388149394864],[-65.47576904296875,-26.09008828099274],[-65.45928955078125,-26.088854916793604],[-65.43731689453125,-26.10982033978211],[-65.4180908203125,-26.10612083235552],[-65.40298461914062,-26.093788295583916],[-65.38787841796875,-26.08268790080201],[-65.37689208984375,-26.070352894012828],[-65.35629272460938,-26.061717616104055],[-65.33432006835938,-26.061717616104055],[-65.32333374023438,-26.072819999334897],[-65.31097412109375,-26.08268790080201],[-65.29586791992188,-26.077754054039627],[-65.29312133789062,-26.083921329998336],[-65.29312133789062,-26.091321632191132],[-65.291748046875,-26.099954726522455],[-65.28350830078125,-26.13571361317392],[-65.2752685546875,-26.156670630251465],[-65.27114868164062,-26.173926524048102],[-65.22171020507812,-26.183785888205623],[-65.22171020507812,-26.191179863921274],[-65.19424438476562,-26.196108920345292],[-65.03631591796875,-26.231838339013287],[-65.04730224609375,-26.24785141280443],[-65.04867553710936,-26.262630753291923],[-65.0390625,-26.273714024406416],[-65.03494262695312,-26.28849007296115],[-65.01296997070312,-26.28356493253137],[-64.99649047851562,-26.277408212953823],[-64.98001098632812,-26.27863958300396],[-64.96627807617188,-26.281102283903156],[-64.96627807617188,-26.295877391487554],[-64.95254516601562,-26.305726417424278],[-64.93881225585938,-26.300802009052873],[-64.91683959960938,-26.293415004265782],[-64.89486694335938,-26.28356493253137],[-64.88937377929688,-26.277408212953823],[-64.88525390624999,-26.284796237242805],[-64.87289428710938,-26.277408212953823],[-64.8577880859375,-26.263862280111095],[-64.84817504882812,-26.25154642421302],[-64.8468017578125,-26.241692799340115],[-64.8248291015625,-26.2355338595266],[-64.81796264648438,-26.240461037483627],[-64.80697631835936,-26.229374593417766],[-64.78775024414062,-26.223215001067548],[-64.76715087890625,-26.22444694563432],[-64.75204467773438,-26.233070192235484],[-64.73968505859375,-26.239229262573595],[-64.70947265625,-26.233070192235484],[-64.6875,-26.23430203240673],[-64.67788696289062,-26.239229262573595],[-64.65316772460938,-26.244156283890756],[-64.62982177734375,-26.23430203240673],[-64.60098266601562,-26.22444694563432],[-64.58587646484375,-26.219519089083942],[-64.55841064453125,-26.223215001067548],[-64.53094482421875,-26.22444694563432],[-64.52133178710938,-26.217055082529814],[-64.49386596679688,-26.218287092329764],[-64.46502685546875,-26.273714024406416],[-64.522705078125,-26.44352480769591],[-64.500732421875,-26.645003827815266],[-64.56390380859375,-26.632728662035912],[-64.64630126953125,-26.782395446979752],[-64.70947265625,-26.843677401113002],[-64.83306884765625,-27.20578572438331],[-64.87701416015624,-27.298570715261523],[-64.98687744140625,-27.349813400935638],[-64.9951171875,-27.48390806852859],[-65.03082275390625,-27.569156172901426],[-65.02532958984374,-27.6251403350933],[-64.99237060546875,-27.700551968697404],[-64.9456787109375,-27.74431547763969],[-65.02532958984374,-27.761329874505233],[-65.0885009765625,-27.86336037597851],[-65.1873779296875,-27.882783884259105],[-65.21209716796874,-27.887639217136503],[-65.19561767578125,-27.931327412293648],[-65.225830078125,-27.916766641249065]]]}}]}