{"type":"FeatureCollection","features":[{"type":"Feature","properties":{"nombre":"Entre Rios","fuente":"Referencia comunitaria; verificar con IGN"},"geometry":{"type":"Polygon","coordinates":[[[-59.6502685546875,-30.334953881988564],[-59.6173095703125,-30.38709188778112],[-59.56787109374999,-30.443937998291165],[-59.556884765625,-30.35865642078877],[-59.51293945312499,-30.33021268543272],[-59.4525146484375,-30.320729603696012],[-59.3975830078125,-30.311245603935003],[-59.337158203125,-30.334953881988564],[-59.28771972656251,-30.363396239603716],[-59.249267578125,-30.363396239603716],[-59.2108154296875,-30.344435586368448],[-59.1668701171875,-30.315987718557853],[-59.117431640625,-30.287531589298727],[-59.117431640625,-30.26381184075493],[-59.095458984375,-30.244831915307145],[-59.0570068359375,-30.235340577517928],[-59.01306152343749,-30.221101852485987],[-58.9691162109375,-30.21635515266855],[-58.9306640625,-30.244831915307145],[-58.85925292968751,-30.259067203213007],[-58.798828125,-30.206861065952626],[-58.7384033203125,-30.197366063272245],[-58.66149902343749,-30.164126343161087],[-58.61755371093751,-30.15937689635618],[-58.54614257812499,-30.164126343161087],[-58.5186767578125,-30.187870144799806],[-58.49121093749999,-30.202113679097216],[-58.447265625,-30.21635515266855],[-58.41979980468749,-30.225848323247707],[-58.38134765624999,-30.244831915307145],[-58.34289550781249,-30.26381184075493],[-58.3099365234375,-30.249577240467637],[-58.260498046875,-30.249577240467637],[-58.2220458984375,-30.27330042806995],[-58.1890869140625,-30.292274851024256],[-58.1671142578125,-30.33021268543272],[-58.15612792968749,-30.401306519203573],[-58.1121826171875,-30.434465946142016],[-58.07922363281251,-30.458144351018078],[-58.06274414062499,-30.505483898927267],[-58.0517578125,-30.548069799103555],[-58.04077148437501,-30.576450026618076],[-57.996826171875,-30.600093873550072],[-57.93090820312501,-30.637912028341113],[-57.89794921874999,-30.67571540416773],[-57.83203125,-30.718226523201352],[-57.80456542968749,-30.85979487256075],[-57.8155517578125,-30.930500817607765],[-57.8704833984375,-30.90693797089463],[-57.908935546875,-30.930500817607765],[-57.886962890625,-30.96347904995935],[-57.864990234375,-31.005862904624195],[-57.85949707031249,-31.043521630684204],[-57.864990234375,-31.076460800121108],[-57.89794921874999,-31.071755902820122],[-57.9034423828125,-31.104685293758486],[-57.91442871093749,-31.142304905845723],[-57.908935546875,-31.208103321325243],[-57.908935546875,-31.245681880715512],[-57.93640136718749,-31.297327991404266],[-58.00781249999999,-31.386468269542288],[-58.04077148437501,-31.428663117358596],[-58.07373046875,-31.456782472114313],[-58.0352783203125,-31.503629305773018],[-57.9803466796875,-31.545771394936274],[-57.9638671875,-31.62064369245056],[-57.996826171875,-31.639352364896208],[-58.00781249999999,-31.681433116625946],[-58.04077148437501,-31.728167146023935],[-58.0572509765625,-31.788886163788444],[-58.08471679687499,-31.835565983656227],[-58.15612792968749,-31.81689688674699],[-58.1890869140625,-31.84956532831343],[-58.19458007812499,-31.89621446335143],[-58.1671142578125,-31.947501223670628],[-58.1451416015625,-31.998759371947305],[-58.13964843749999,-32.05930026106166],[-58.15612792968749,-32.105842932857676],[-58.17810058593749,-32.147711065955704],[-58.13415527343751,-32.22209584050232],[-58.095703125,-32.27784451498272],[-58.1451416015625,-32.32891738775125],[-58.15612792968749,-32.375322284319346],[-58.18359375,-32.42634016154639],[-58.18359375,-32.49123028794758],[-58.17260742187501,-32.56070352232515],[-58.1451416015625,-32.65787573695528],[-58.150634765625,-32.704111144407406],[-58.13415527343751,-32.764181375100804],[-58.12316894531249,-32.81497839698581],[-58.11767578124999,-32.87036022808352],[-58.1121826171875,-32.89803818160521],[-58.08471679687499,-32.96719522935591],[-58.07373046875,-32.99484290420987],[-58.11767578124999,-33.01326987686983],[-58.19458007812499,-33.08233672856375],[-58.260498046875,-33.08693925905122],[-58.2989501953125,-33.08693925905122],[-58.3538818359375,-33.0915415486552],[-58.3868408203125,-33.100745405144245],[-58.3868408203125,-33.23868752757413],[-58.41979980468749,-33.321348526698806],[-58.480224609375,-33.426856918285004],[-58.4857177734375,-33.573438085677324],[-58.4857177734375,-33.7243396617476],[-58.458251953125,-33.86129311351552],[-58.38134765624999,-33.998027262348764],[-58.480224609375,-34.00713506435885],[-58.56262207031251,-34.02534773814794],[-58.62304687499999,-34.039004679044446],[-58.6724853515625,-34.03445260967645],[-58.71643066406249,-33.97980872872456],[-58.73291015624999,-33.95247360616282],[-58.7823486328125,-33.96158628979909],[-58.82080078125,-33.97069799736161],[-58.853759765625,-33.925129700071984],[-58.90319824218749,-33.897777013859475],[-58.941650390625,-33.8840973792749],[-58.95812988281249,-33.85673152928874],[-58.9801025390625,-33.8339199536547],[-59.02954101562499,-33.847607629887406],[-59.117431640625,-33.8339199536547],[-59.183349609375,-33.80653802509605],[-59.23278808593749,-33.80653802509605],[-59.23828124999999,-33.73347670599253],[-59.41955566406249,-33.72890830547334],[-59.490966796875,-33.64663552343715],[-59.58984374999999,-33.669496972795535],[-59.64477539062499,-33.62834199137178],[-59.7052001953125,-33.6008944080788],[-59.71618652343749,-33.619193768170035],[-59.798583984375,-33.58716733904656],[-59.8040771484375,-33.545973027691886],[-59.9468994140625,-33.48185394054359],[-60.1007080078125,-33.39017286472247],[-60.22705078125,-33.293803558346596],[-60.2655029296875,-33.25246979589198],[-60.29296874999999,-33.229498141449504],[-60.27099609375,-33.197327686488734],[-60.29296874999999,-33.16054697509141],[-60.33142089843749,-33.17434155100207],[-60.3973388671875,-33.1881339560504],[-60.435791015625,-33.17434155100207],[-60.49072265625,-33.12375082971021],[-60.55114746093751,-33.06392419812064],[-60.61157226562499,-32.96719522935591],[-60.677490234375,-32.89803818160521],[-60.6390380859375,-32.82882709408908],[-60.7159423828125,-32.78265637602963],[-60.699462890625,-32.704111144407406],[-60.74340820312499,-32.625496714513716],[-60.7708740234375,-32.519026027827515],[-60.732421875,-32.45415593941475],[-60.72143554687499,-32.393877575286446],[-60.73791503906251,-32.33820027152774],[-60.68847656249999,-32.30570601389427],[-60.6610107421875,-32.282488692700475],[-60.66650390624999,-32.22209584050232],[-60.70495605468749,-32.170962836413246],[-60.66650390624999,-32.10118973232094],[-60.6939697265625,-31.94283997285307],[-60.6390380859375,-31.765537409484374],[-60.57861328125,-31.700129553985924],[-60.49072265625,-31.695455797778703],[-60.3753662109375,-31.639352364896208],[-60.3424072265625,-31.59725256170665],[-60.35339355468749,-31.5504526754715],[-60.23803710937499,-31.51767878128718],[-60.172119140625,-31.452096498983657],[-60.10620117187501,-31.39584654193847],[-60.0787353515625,-31.353636941500987],[-60.1171875,-31.297327991404266],[-59.99633789062499,-31.226894468813978],[-59.94140624999999,-31.12819929911197],[-59.853515625,-31.01527898171125],[-59.8040771484375,-30.925788712587],[-59.71618652343749,-30.826780904779774],[-59.6722412109375,-30.760718908944472],[-59.6337890625,-30.685163937659574],[-59.6392822265625,-30.637912028341113],[-59.66125488281249,-30.50075098029068],[-59.67773437500001,-30.45340913020357],[-59.710693359375,-30.42972957503159],[-59.6502685546875,-30.334953881988564]]]}},{"type":"Feature","properties":{"nombre":"Formosa","fuente":"Referencia comunitaria; verificar con IGN"},"geometry":{"type":"Polygon","coordinates":[[[-57.63702392578125,-25.384975957740966],[-57.67410278320313,-25.341543769441653],[-57.71942138671874,-25.2794707340818],[-57.76611328124999,-25.180087808990645],[-57.864990234375,-25.09057381946099],[-57.97210693359375,-25.078136134310142],[-58.08746337890626,-25.018417664026128],[-58.238525390625,-24.93127614538455],[-58.32641601562499,-24.996015742093995],[-58.41156005859375,-24.9362573230613],[-58.45001220703125,-24.873978140216288],[-58.52966308593749,-24.836595553891183],[-58.65600585937501,-24.826624956562156],[-58.963623046875,-24.676969798202666],[-59.249267578125,-24.532132210302738],[-59.49645996093749,-24.337086982410497],[-60.03204345703125,-24.013852991071435],[-60.18035888671875,-24.038939116894056],[-60.33966064453124,-24.01887060790727],[-60.46875,-23.97872419327722],[-60.66650390624999,-23.895882703682613],[-60.72418212890625,-23.87076873182048],[-60.84503173828124,-23.868257066593774],[-60.97961425781251,-23.815500848699656],[-61.07025146484374,-23.71998271844964],[-61.09222412109375,-23.611811980488643],[-61.2872314453125,-23.495995542290174],[-61.48498535156249,-23.41788785572176],[-61.52618408203125,-23.34729931216777],[-61.60034179687499,-23.2842420865242],[-61.666259765625,-23.286764949641892],[-61.9354248046875,-23.054461926693815],[-62.13317871093751,-22.771116581083135],[-62.20458984375,-22.664709810176827],[-62.347412109375,-22.512556954051437],[-62.34191894531249,-24.08157428735657],[-62.1990966796875,-24.13923459969371],[-62.18536376953124,-24.17682515045749],[-62.13043212890624,-24.216909537721737],[-62.09472656250001,-24.194363620393613],[-62.0672607421875,-24.229433323625578],[-61.98486328124999,-24.231937933001383],[-61.90521240234374,-24.266997288418157],[-61.88873291015624,-24.319568189281284],[-61.76239013671875,-24.314562375064085],[-61.70471191406251,-24.384625777615955],[-61.69647216796874,-24.42214378185897],[-61.57562255859375,-24.43964836803683],[-61.48223876953125,-24.604571962313884],[-61.19384765625,-24.66449040712424],[-61.1224365234375,-24.7717723282288],[-61.12518310546874,-24.821639356846607],[-60.9136962890625,-25.000994300028946],[-60.68572998046875,-25.105497373014675],[-60.65277099609375,-25.15522939494057],[-60.52642822265624,-25.17511653162175],[-60.20782470703126,-25.51022121966361],[-60.22979736328124,-25.562265014427492],[-60.19683837890625,-25.629145249921905],[-60.06774902343751,-25.68856292610355],[-59.90295410156249,-25.78505344378837],[-59.76837158203124,-25.92099645737912],[-59.68048095703125,-26.029638154881997],[-59.66400146484375,-26.140645014531366],[-59.58160400390624,-26.13571361317392],[-59.48822021484374,-26.162833742569923],[-59.46075439453125,-26.152972606566966],[-59.39208984375,-26.194876675795218],[-59.39208984375,-26.229374593417766],[-59.37835693359374,-26.25893609446839],[-59.37286376953124,-26.342652809380578],[-59.30145263671874,-26.347575438494673],[-59.1888427734375,-26.332806922897866],[-59.16137695312499,-26.293415004265782],[-59.05151367187499,-26.379567421051796],[-59.00482177734374,-26.379567421051796],[-58.941650390625,-26.418930009317833],[-58.86474609374999,-26.4926986519394],[-58.81805419921874,-26.52710783403151],[-58.79058837890625,-26.51973530566078],[-58.75213623046875,-26.544308558627396],[-58.75762939453126,-26.576245917830413],[-58.743896484375,-26.5958952526538],[-58.70819091796874,-26.58607100679425],[-58.68896484375,-26.608174374033094],[-58.66424560546876,-26.647458702659357],[-58.60656738281249,-26.684275490019473],[-58.57086181640626,-26.696545111585127],[-58.55712890625,-26.73089302213736],[-58.5186767578125,-26.743157621118215],[-58.4857177734375,-26.77013508224145],[-58.48297119140624,-26.811814919309278],[-58.41705322265625,-26.83142366095318],[-58.3868408203125,-26.851029008675006],[-58.34289550781249,-26.87063096076708],[-58.3154296875,-26.87063096076708],[-58.33740234375,-26.80200927630072],[-58.29345703125,-26.799557733065328],[-58.29071044921875,-26.76277822801415],[-58.25775146484374,-26.76032583739443],[-58.25775146484374,-26.725986812271756],[-58.25225830078125,-26.698998877374315],[-58.25775146484374,-26.662186843258542],[-58.25775146484374,-26.642548900196065],[-58.20281982421874,-26.64991352472502],[-58.19183349609375,-26.64009391980515],[-58.216552734375,-26.620452177301207],[-58.19732666015625,-26.59098323512559],[-58.19183349609375,-26.566419985978875],[-58.22479248046874,-26.549222577692028],[-58.21929931640624,-26.522192867724723],[-58.20556640625,-26.49761488038017],[-58.23577880859375,-26.470573022375085],[-58.19183349609375,-26.458279167084115],[-58.20831298828125,-26.4386062678873],[-58.216552734375,-26.40417061185343],[-58.2000732421875,-26.372185441695578],[-58.15338134765625,-26.332806922897866],[-58.1671142578125,-26.26632529456386],[-58.10394287109375,-26.236765673594654],[-58.128662109375,-26.207198534534072],[-58.10943603515624,-26.145576207592274],[-58.02978515624999,-26.103654429038418],[-57.92816162109375,-26.054315442680398],[-57.85400390625,-26.007424156802188],[-57.88970947265624,-25.95063596244654],[-57.83477783203124,-25.906173909220854],[-57.86224365234375,-25.856751966503126],[-57.79083251953126,-25.819671943904044],[-57.80181884765625,-25.760319754713862],[-57.71942138671874,-25.70588750345635],[-57.7606201171875,-25.69103802005013],[-57.72766113281249,-25.64895443060556],[-57.67822265625,-25.656382025768078],[-57.65624999999999,-25.599425317852933],[-57.6068115234375,-25.624192441211974],[-57.568359375,-25.54987568350062],[-57.55462646484374,-25.455674943606656],[-57.58758544921874,-25.406065958440827],[-57.63702392578125,-25.384975957740966]]]}},{"type":"Feature","properties":{"nombre":"Jujuy","fuente":"Referencia comunitaria; verificar con IGN"},"geometry":{"type":"Polygon","coordinates":[[[-67.159423828125,-23.725011735951785],[-66.9287109375,-24.00632619875113],[-66.895751953125,-23.936054914599815],[-66.8408203125,-24.066528197726857],[-66.719970703125,-24.126701958681668],[-66.51123046875,-24.1567782333034],[-66.434326171875,-24.1367281697474],[-66.368408203125,-24.04646399966658],[-66.346435546875,-23.996289790628406],[-66.390380859375,-23.936054914599815],[-66.33544921875,-23.84564988765934],[-66.390380859375,-23.68477416688373],[-66.29150390625,-23.624394569716923],[-66.258544921875,-23.52370005882413],[-66.170654296875,-23.433009077420344],[-66.0498046875,-23.443088931121775],[-65.98388671875,-23.483400654325628],[-65.9619140625,-23.574056966642654],[-65.98388671875,-23.644524198573677],[-66.005859375,-23.745125865762933],[-65.994873046875,-23.90592692731471],[-65.885009765625,-24.00632619875113],[-65.80810546875,-24.00632619875113],[-65.731201171875,-24.096618611278767],[-65.665283203125,-24.216909537721737],[-65.665283203125,-24.27701247166408],[-65.643310546875,-24.327076540018634],[-65.54443359375,-24.397133017391052],[-65.489501953125,-24.41714202537204],[-65.423583984375,-24.41714202537204],[-65.357666015625,-24.45715052418584],[-65.291748046875,-24.467150664738977],[-65.203857421875,-24.467150664738977],[-65.093994140625,-24.547123179730765],[-64.962158203125,-24.6170573408095],[-64.88525390624999,-24.607069137709683],[-64.896240234375,-24.507143283102828],[-64.874267578125,-24.427145340082046],[-64.8193359375,-24.44714958973081],[-64.775390625,-24.4971463205719],[-64.7314453125,-24.557116164309612],[-64.64355468749999,-24.56710835257599],[-64.544677734375,-24.56710835257599],[-64.522705078125,-24.477150011148677],[-64.434814453125,-24.427145340082046],[-64.3798828125,-24.427145340082046],[-64.324951171875,-24.427145340082046],[-64.259033203125,-24.367113562651262],[-64.149169921875,-24.287026865376422],[-64.149169921875,-24.126701958681668],[-64.13818359375,-23.865745352647966],[-64.13818359375,-23.6646507316316],[-64.149169921875,-23.52370005882413],[-64.22607421875,-23.50355189742412],[-64.3359375,-23.52370005882413],[-64.40185546874999,-23.55391651832161],[-64.40185546874999,-23.624394569716923],[-64.478759765625,-23.584126032644107],[-64.5556640625,-23.51362636346272],[-64.632568359375,-23.463246331550348],[-64.720458984375,-23.47332387777116],[-64.808349609375,-23.483400654325628],[-64.874267578125,-23.433009077420344],[-64.896240234375,-23.362428593408826],[-64.9072265625,-23.29181053244191],[-64.984130859375,-23.261534167651835],[-65.050048828125,-23.221154981846546],[-65.0830078125,-23.150462029224087],[-65.06103515625,-23.089838367476705],[-65.126953125,-22.998851594142913],[-65.225830078125,-22.938159639316385],[-65.269775390625,-22.877440464897116],[-65.32470703125,-22.75592068148639],[-65.247802734375,-22.695120184965695],[-65.357666015625,-22.61401087437029],[-65.31372070312499,-22.512556954051437],[-65.302734375,-22.41102852155869],[-65.225830078125,-22.319589442833898],[-65.23681640625,-22.248428704383613],[-65.21484375,-22.177231792821342],[-65.19287109375,-22.11617714721062],[-65.269775390625,-22.09581971780769],[-65.3466796875,-22.12635475991967],[-65.665283203125,-22.10599879975055],[-65.76416015625,-22.11617714721062],[-65.85205078125,-22.03472981704418],[-65.928955078125,-21.95323560036447],[-66.005859375,-21.932854736335287],[-66.07177734375,-21.932854736335287],[-66.03881835937499,-21.830906665069744],[-66.192626953125,-21.80030805097259],[-66.258544921875,-21.881889807629257],[-66.258544921875,-22.014360653103207],[-66.302490234375,-22.10599879975055],[-66.4013671875,-22.13653163760967],[-66.52221679687499,-22.187404991398775],[-66.632080078125,-22.19757745335104],[-66.70898437499999,-22.21792016631101],[-66.77490234375,-22.25859674097572],[-66.77490234375,-22.350075806124853],[-66.796875,-22.421184710331858],[-66.86279296875,-22.441494859380246],[-66.9287109375,-22.482106236077673],[-67.00561523437499,-22.52270570348246],[-67.0166015625,-22.593726063929296],[-67.071533203125,-22.684984142872107],[-67.1484375,-22.75592068148639],[-67.19238281249999,-22.806567100271508],[-67.12646484375,-22.847070687839054],[-67.060546875,-22.877440464897116],[-66.99462890625,-22.91792293614603],[-66.97265625,-22.978623970384902],[-67.21435546875,-23.61432859499169],[-67.225341796875,-23.694834722205936],[-67.159423828125,-23.725011735951785]]]}},{"type":"Feature","properties":{"nombre":"La Pampa","fuente":"Referencia comunitaria; verificar con IGN"},"geometry":{"type":"Polygon","coordinates":[[[-63.38287353515625,-39.327924017690286],[-63.43231201171875,-39.327924017690286],[-63.4515380859375,-39.310925412127155],[-63.47351074218749,-39.32367475355142],[-63.48175048828124,-39.30667511534215],[-63.51196289062499,-39.30667511534215],[-63.54492187500001,-39.29392267616435],[-63.5394287109375,-39.272663448589135],[-63.56689453124999,-39.25990481501754],[-63.58062744140624,-39.245016807133126],[-63.60534667968749,-39.25139776900491],[-63.63006591796876,-39.24927084622339],[-63.62731933593749,-39.232253141714885],[-63.63006591796876,-39.21948715423953],[-63.65753173828125,-39.22374274139129],[-63.6712646484375,-39.21735926391959],[-63.65753173828125,-39.20246222588236],[-63.68225097656249,-39.196076813671674],[-63.71246337890625,-39.193948213963644],[-63.73168945312501,-39.1854331703021],[-63.74267578125,-39.162011480824056],[-63.76739501953125,-39.151362679490305],[-63.7481689453125,-39.13219077593102],[-63.77288818359375,-39.12579898118162],[-63.78936767578125,-39.10022600175344],[-63.8031005859375,-39.11940660636221],[-63.82781982421875,-39.12792964388497],[-63.841552734375,-39.13432124527172],[-63.83056640624999,-39.11088253765177],[-63.84979248046875,-39.10235743781758],[-63.87451171875,-39.09596293630548],[-63.88824462890625,-39.11088253765177],[-63.90472412109375,-39.08956785484933],[-63.929443359375,-39.0916996131046],[-63.91845703124999,-39.07251146922359],[-63.9459228515625,-39.05118518880596],[-63.97888183593749,-39.04265287290379],[-63.99810791015625,-39.02985246667932],[-63.99810791015625,-39.01278165162774],[-64.017333984375,-39.01491572891581],[-64.02557373046875,-39.00424469849723],[-64.06402587890625,-38.99570671505042],[-64.0997314453125,-38.97862765746911],[-64.13818359375,-38.96154447940714],[-64.21783447265625,-38.93377552819721],[-64.26727294921875,-38.914544497799476],[-64.28924560546875,-38.895308254920174],[-64.3194580078125,-38.91240739487224],[-64.33868408203125,-38.89103282648846],[-64.35516357421875,-38.873928539236296],[-64.37713623046875,-38.88675714069589],[-64.3963623046875,-38.89103282648846],[-64.3798828125,-38.86751337001197],[-64.41009521484375,-38.87820499706149],[-64.42657470703125,-38.871790213825356],[-64.45953369140625,-38.86109762182887],[-64.47601318359375,-38.85468129471518],[-64.49523925781249,-38.86751337001197],[-64.51171875,-38.86323626888359],[-64.51446533203125,-38.85040342169187],[-64.544677734375,-38.86109762182887],[-64.56390380859375,-38.85895891044853],[-64.58587646484375,-38.84826438869912],[-64.59136962890625,-38.856820134743614],[-64.61334228515625,-38.85040342169187],[-64.632568359375,-38.84612529138702],[-64.66278076171875,-38.83114980934872],[-64.698486328125,-38.835428840073035],[-64.71221923828125,-38.835428840073035],[-64.8028564453125,-38.81617117607388],[-64.83856201171875,-38.82473078093276],[-64.874267578125,-38.81403111409756],[-64.9017333984375,-38.82473078093276],[-64.90447998046875,-38.83756825896612],[-64.94842529296875,-38.82687052138062],[-64.9951171875,-38.820451107114714],[-65.01983642578125,-38.81617117607388],[-65.06927490234375,-38.81189098781869],[-65.0885009765625,-38.805470223177444],[-65.09674072265625,-38.786204457258656],[-65.11322021484375,-38.801189391923266],[-65.12420654296875,-38.81189098781869],[-65.137939453125,-38.81617117607388],[-65.14892578125,-38.801189391923266],[-65.1708984375,-38.79904887985135],[-65.19561767578125,-38.80761054235758],[-65.17913818359375,-38.82687052138062],[-65.203857421875,-38.835428840073035],[-65.225830078125,-38.829010197519615],[-65.2587890625,-38.82687052138062],[-65.26702880859374,-38.81403111409756],[-65.3082275390625,-38.83114980934872],[-65.35491943359375,-38.84826438869912],[-65.36865234375,-38.85040342169187],[-65.37689208984375,-38.829010197519615],[-65.43182373046875,-38.818311173746615],[-65.45928955078125,-38.80761054235758],[-65.5224609375,-38.773357720269054],[-65.58013916015625,-38.77764022307335],[-65.58837890625,-38.76693348394695],[-65.60760498046875,-38.77121637244271],[-65.61859130859375,-38.78406349514288],[-65.5938720703125,-38.79690830348428],[-65.61309814453125,-38.80332983969898],[-65.6268310546875,-38.79476766282311],[-65.6268310546875,-38.81189098781869],[-65.64605712890625,-38.801189391923266],[-65.64056396484375,-38.81617117607388],[-65.6817626953125,-38.83114980934872],[-65.71197509765625,-38.81403111409756],[-65.72296142578125,-38.82473078093276],[-65.7421875,-38.81403111409756],[-65.74905395507812,-38.81189098781869],[-65.76553344726562,-38.812961058995874],[-65.78750610351562,-38.80761054235758],[-65.7861328125,-38.79476766282311],[-65.80398559570312,-38.80654039080487],[-65.8135986328125,-38.80332983969898],[-65.8026123046875,-38.792626957868904],[-65.81771850585938,-38.786204457258656],[-65.8245849609375,-38.79690830348428],[-65.83419799804688,-38.787274914208304],[-65.86715698242186,-38.801189391923266],[-65.86029052734375,-38.78941577989047],[-65.8685302734375,-38.7851339842368],[-65.8795166015625,-38.792626957868904],[-65.87265014648438,-38.77764022307335],[-65.90835571289062,-38.779781378049165],[-65.906982421875,-38.76800423017594],[-65.92758178710938,-38.77656962147865],[-65.92208862304686,-38.760508669111495],[-65.94268798828125,-38.76800423017594],[-65.94680786132812,-38.75943781039658],[-65.93994140625,-38.745515184882635],[-65.9783935546875,-38.74337300148124],[-66.01959228515625,-38.740159605877814],[-66.02783203125,-38.751941349470876],[-66.03195190429688,-38.73801726180954],[-66.04019165039062,-38.74872833948074],[-66.04843139648438,-38.74230188568015],[-66.060791015625,-38.74979935887852],[-66.07315063476562,-38.74765730401542],[-66.07177734375,-38.735874853476375],[-66.07864379882812,-38.72944724289828],[-66.08139038085938,-38.719804742642374],[-66.09375,-38.72623322072786],[-66.10610961914062,-38.72944724289828],[-66.11572265625,-38.73801726180954],[-66.11984252929688,-38.74444410121545],[-66.12533569335938,-38.73158984401967],[-66.13082885742188,-38.735874853476375],[-66.148681640625,-38.72944724289828],[-66.1761474609375,-38.745515184882635],[-66.1761474609375,-38.728375918239784],[-66.18438720703125,-38.73373238087941],[-66.19400024414062,-38.73266112048232],[-66.21047973632811,-38.73801726180954],[-66.22421264648438,-38.736946065676],[-66.23931884765625,-38.7348036252108],[-66.25579833984375,-38.74123075381229],[-66.28463745117188,-38.75408327579141],[-66.29425048828125,-38.74230188568015],[-66.30523681640625,-38.74123075381229],[-66.3079833984375,-38.76157951175738],[-66.31759643554688,-38.74658625248267],[-66.33132934570312,-38.75729604476024],[-66.35330200195312,-38.745515184882635],[-66.37390136718749,-38.74230188568015],[-66.38763427734375,-38.73908844187685],[-66.39312744140625,-38.74337300148124],[-66.52221679687499,-38.736946065676],[-66.654052734375,-38.65977773071253],[-66.610107421875,-38.513788259511635],[-66.719970703125,-38.47939467327644],[-66.851806640625,-38.47079371120379],[-66.917724609375,-38.42777351132903],[-67.060546875,-38.40194908237823],[-67.12646484375,-38.32442042700653],[-67.17041015625,-38.255436376379464],[-67.181396484375,-38.21228805438816],[-67.313232421875,-38.26406296833961],[-67.467041015625,-38.255436376379464],[-67.642822265625,-38.2036553180715],[-67.69775390625,-38.12591462924156],[-67.7197265625,-38.06539235133248],[-67.818603515625,-38.06539235133248],[-67.87353515625,-38.01347623104192],[-67.862548828125,-37.944197500754036],[-67.774658203125,-37.926867601481334],[-67.708740234375,-37.84015683604134],[-67.752685546875,-37.72728027686003],[-67.8076171875,-37.640334898059464],[-67.9833984375,-37.60552821745789],[-68.09326171875,-37.58811876638321],[-68.192138671875,-37.57070524233115],[-68.258056640625,-37.57070524233115],[-68.26904296875,-36.323977120112616],[-68.291015625,-36.2354121683998],[-68.291015625,-36.04021586880111],[-68.291015625,-35.96022296929668],[-65.07202148437499,-35.99578538642033],[-65.07202148437499,-34.99400375757576],[-63.40209960937499,-35.0030033952767],[-63.38287353515625,-39.327924017690286]]]}},{"type":"Feature","properties":{"nombre":"La Rioja","fuente":"Referencia comunitaria; verificar con IGN"},"geometry":{"type":"Polygon","coordinates":[[[-65.41259765625,-30.121373087823034],[-65.7696533203125,-31.024694128525123],[-65.775146484375,-31.891550612684366],[-66.4837646484375,-31.980123357368026],[-66.654052734375,-31.924192605327708],[-66.8023681640625,-31.81689688674699],[-66.8792724609375,-31.634675549541342],[-66.9451904296875,-31.62999849900255],[-67.115478515625,-31.391157522824695],[-67.0770263671875,-31.25037814985571],[-67.12646484375,-31.16110911780645],[-67.093505859375,-31.076460800121108],[-67.1209716796875,-31.001154517278966],[-67.093505859375,-30.911651004518244],[-67.1759033203125,-30.831497881307932],[-67.25830078125,-30.713503990354965],[-67.291259765625,-30.69461154663229],[-67.423095703125,-30.619004797647793],[-67.510986328125,-30.51021658722997],[-67.587890625,-30.396568538569365],[-67.58239746093749,-30.29701788337205],[-67.7362060546875,-30.168875561169077],[-67.9010009765625,-30.03581104266778],[-68.0218505859375,-29.935895213372433],[-68.104248046875,-29.873992211235645],[-68.1866455078125,-29.859701442126745],[-68.1756591796875,-29.778681776917622],[-68.258056640625,-29.778681776917622],[-68.258056640625,-29.750070930806785],[-68.4613037109375,-29.637933183204563],[-68.61785888671875,-29.630771207229],[-68.68927001953124,-29.64270755090439],[-68.7359619140625,-29.618833448987818],[-68.7689208984375,-29.63315858914055],[-68.79364013671875,-29.618833448987818],[-68.8348388671875,-29.630771207229],[-68.8677978515625,-29.63315858914055],[-68.88153076171875,-29.62122111378448],[-68.873291015625,-29.590177059879455],[-68.90350341796875,-29.618833448987818],[-68.92822265625,-29.616445727622533],[-68.93096923828124,-29.64986867797229],[-68.961181640625,-29.65702929559473],[-69.00238037109375,-29.640320395351402],[-69.0216064453125,-29.618833448987818],[-69.02984619140625,-29.583011690377486],[-69.03259277343749,-29.537619205973414],[-69.01611328125,-29.496987596535757],[-68.9886474609375,-29.46829664171322],[-68.983154296875,-29.480252193344256],[-68.96942138671875,-29.45155650109173],[-68.9886474609375,-29.432421529604852],[-68.9996337890625,-29.40371231103247],[-68.97491455078125,-29.370207973865522],[-68.98040771484375,-29.33429823031566],[-68.9776611328125,-29.31274631057796],[-68.961181640625,-29.322325503752857],[-68.96392822265625,-29.303166218113073],[-68.96392822265625,-29.27442054681336],[-68.994140625,-29.27681632836857],[-68.98590087890624,-29.245666788514377],[-68.9886474609375,-29.214507763499327],[-69.00238037109375,-29.180941290001776],[-68.9666748046875,-29.13776825498331],[-68.9447021484375,-29.17374704477497],[-68.9337158203125,-29.14736383122664],[-68.9117431640625,-29.11857441491087],[-68.92822265625,-29.092177036037533],[-68.917236328125,-29.077775612552088],[-68.90350341796875,-29.065772888415406],[-68.90625,-29.029756331252763],[-68.93096923828124,-29.024953173722604],[-68.9337158203125,-28.986519871823326],[-68.961181640625,-28.957685518378963],[-68.94744873046875,-28.92643923862101],[-68.93920898437499,-28.899992721104482],[-68.9227294921875,-28.873539463162675],[-68.9117431640625,-28.86391842622455],[-69.16168212890625,-28.762843805266016],[-69.16717529296875,-28.729130483430154],[-69.1864013671875,-28.719496107557465],[-69.20013427734375,-28.700224692776963],[-69.21661376953125,-28.671310915880834],[-69.21661376953125,-28.632746799225856],[-69.202880859375,-28.603814407841313],[-69.21112060546875,-28.589345223446177],[-69.31549072265625,-28.413144152002783],[-69.34844970703125,-28.43246820620096],[-69.3896484375,-28.44937385955666],[-69.43084716796875,-28.44937385955666],[-69.46105957031249,-28.425222099239033],[-69.4775390625,-28.403480802362697],[-69.510498046875,-28.425222099239033],[-69.56268310546874,-28.401064827220896],[-69.6038818359375,-28.41555985166584],[-69.63958740234375,-28.391400375817753],[-69.620361328125,-28.36965213860084],[-69.58740234375,-28.37690204653979],[-69.5819091796875,-28.345482201206497],[-69.5489501953125,-28.345482201206497],[-69.51873779296875,-28.31405305806959],[-69.5050048828125,-28.260844114804833],[-69.4775390625,-28.23906915809903],[-69.45831298828125,-28.183401855246004],[-69.3896484375,-28.222130007158537],[-69.3841552734375,-28.185822775955277],[-69.3621826171875,-28.17613876426337],[-69.33197021484375,-28.15676811058399],[-69.32098388671874,-28.13254986371677],[-69.29901123046875,-28.093789282770945],[-69.2962646484375,-28.06713326012151],[-69.2633056640625,-28.04047062328007],[-69.27154541015625,-28.018650821833045],[-69.2523193359375,-27.991976169784145],[-69.24957275390625,-27.97014654331592],[-69.2138671875,-27.96772075653107],[-69.20013427734375,-27.97014654331592],[-69.18090820312499,-27.972572275562516],[-69.15618896484375,-27.948312499250417],[-69.1314697265625,-27.928900753321876],[-69.12597656249999,-27.89734922968425],[-69.136962890625,-27.868216579514076],[-69.10675048828125,-27.846361950155494],[-69.0985107421875,-27.805068967813085],[-69.0985107421875,-27.76862094491864],[-68.79638671875,-27.727298422724655],[-68.6700439453125,-27.80020993741824],[-68.5382080078125,-27.80020993741824],[-68.5382080078125,-27.8439333860705],[-68.44482421875,-27.877928333679495],[-68.4393310546875,-28.033197847676366],[-68.3953857421875,-27.999251729858745],[-68.345947265625,-28.033197847676366],[-68.323974609375,-27.999251729858745],[-68.302001953125,-28.101057958669447],[-68.2305908203125,-28.071980301779845],[-68.1646728515625,-28.08652011460073],[-68.1317138671875,-28.144659671673157],[-68.0987548828125,-28.183401855246004],[-67.9669189453125,-28.081673729044283],[-67.8900146484375,-28.207608595327365],[-67.8350830078125,-28.29954416560909],[-67.82409667968749,-28.386567819657202],[-67.7581787109375,-28.33823014702584],[-67.7252197265625,-28.333395169196447],[-67.6812744140625,-28.29954416560909],[-67.3297119140625,-28.381735043223095],[-67.1319580078125,-28.36240173523821],[-67.0330810546875,-28.256005619824986],[-66.5826416015625,-28.28503329464067],[-66.51123046875,-28.488005204159457],[-66.55517578125,-28.541100228636036],[-66.5057373046875,-28.526622418648113],[-66.4947509765625,-28.618281599983852],[-66.346435546875,-28.724313406473463],[-66.3299560546875,-28.753212537990326],[-66.3958740234375,-28.772474183943018],[-66.4178466796875,-28.806173508854776],[-66.37390136718749,-28.878349647602047],[-66.26953125,-28.8927788645183],[-66.1102294921875,-28.940861769405554],[-65.7861328125,-29.195328267099118],[-65.8245849609375,-29.291189838184863],[-65.70373535156249,-29.291189838184863],[-65.70373535156249,-29.377388403478978],[-65.7257080078125,-29.420460341013133],[-65.50048828125,-29.926374178635747],[-65.45654296875,-30.0405664305846],[-65.41259765625,-30.121373087823034]]]}},{"type":"Feature","properties":{"nombre":"Mendoza","fuente":"Referencia comunitaria; verificar con IGN"},"geometry":{"type":"Polygon","coordinates":[[[-70.433349609375,-36.15561783381854],[-70.38940429687499,-36.06686213257887],[-70.367431640625,-36.01356058518153],[-70.3564453125,-35.91574741949969],[-70.455322265625,-35.87124685002796],[-70.257568359375,-35.79108281624993],[-70.3564453125,-35.7465122599185],[-70.411376953125,-35.68407153314097],[-70.37841796875,-35.57691652403861],[-70.433349609375,-35.50540009344132],[-70.42236328125,-35.39800594715107],[-70.433349609375,-35.33529320309327],[-70.51025390625,-35.30840140169162],[-70.55419921875,-35.2456190942068],[-70.57617187499999,-35.18278813800227],[-70.4443359375,-35.18278813800227],[-70.345458984375,-35.110921809704756],[-70.3564453125,-35.03899204678079],[-70.345458984375,-34.91296249521695],[-70.213623046875,-34.80478291957241],[-70.279541015625,-34.7686914575527],[-70.257568359375,-34.68742794931483],[-70.213623046875,-34.569906380856345],[-70.15869140625,-34.52466147177172],[-70.09277343749999,-34.4793919710481],[-70.02685546875,-34.43409789359468],[-70.015869140625,-34.325291924427326],[-70.048828125,-34.24359472969738],[-69.927978515625,-34.27083595164999],[-69.884033203125,-34.26175652445979],[-69.796142578125,-34.198173096277245],[-69.80712890625,-34.143634820312634],[-69.818115234375,-34.0708623237663],[-69.818115234375,-33.998027262348764],[-69.8291015625,-33.925129700071984],[-69.90600585937499,-33.9433599465788],[-69.85107421874999,-33.87041555094183],[-69.89501953125,-33.815666308702774],[-69.85107421874999,-33.687781758439364],[-69.89501953125,-33.605469612271875],[-69.89501953125,-33.5139194239494],[-69.840087890625,-33.440609443703565],[-69.774169921875,-33.367237465838315],[-69.774169921875,-33.293803558346596],[-69.840087890625,-33.22030778968541],[-69.89501953125,-33.20192418977893],[-69.949951171875,-33.229498141449504],[-69.971923828125,-33.28461996888768],[-70.059814453125,-33.266249890762744],[-70.059814453125,-33.22030778968541],[-70.059814453125,-33.16514540824028],[-70.059814453125,-33.109948297894285],[-70.059814453125,-33.03629817885955],[-70.0048828125,-32.99945000822837],[-69.949951171875,-32.94414888814146],[-69.971923828125,-32.89803818160521],[-70.037841796875,-32.83344284664948],[-70.09277343749999,-32.778037985363675],[-70.13671875,-32.71335535317753],[-70.169677734375,-32.64862578373671],[-70.15869140625,-32.58384932565661],[-70.07080078125,-32.611616403170316],[-70.037841796875,-32.53755174676898],[-69.98291015625,-32.49123028794758],[-69.9169921875,-32.556073644920275],[-69.85107421874999,-32.546813173515154],[-69.774169921875,-32.50049648924481],[-69.686279296875,-32.463425957761025],[-69.7412109375,-32.37068286611426],[-69.708251953125,-32.31499127724555],[-69.63134765625,-32.249974455863295],[-69.58740234375,-32.18491105051798],[-69.554443359375,-32.119801111793265],[-69.4775390625,-32.0546446905493],[-69.3896484375,-32.0546446905493],[-69.32373046875,-32.119801111793265],[-69.27978515625,-32.04533283885849],[-69.158935546875,-32.00807595929104],[-69.06005859375,-32.0546446905493],[-69.027099609375,-32.09188262002179],[-68.917236328125,-32.10118973232094],[-68.917236328125,-32.30570601389427],[-68.73046875,-32.32427558887655],[-68.466796875,-32.22209584050232],[-68.44482421875,-32.1384086967725],[-68.26904296875,-32.10118973232094],[-68.203125,-32.1384086967725],[-68.09326171875,-32.08257455954592],[-68.016357421875,-32.06395559466041],[-67.994384765625,-32.12910537866883],[-67.906494140625,-32.175612478499325],[-67.8076171875,-32.21280106801518],[-67.752685546875,-32.20350534542367],[-67.67578124999999,-32.2313896627376],[-67.576904296875,-32.22209584050232],[-67.510986328125,-32.22209584050232],[-67.510986328125,-32.268555446214776],[-67.47802734375,-32.32427558887655],[-67.412109375,-32.32427558887655],[-67.335205078125,-32.31499127724555],[-67.3297119140625,-32.38460040620991],[-67.2802734375,-32.48659682936049],[-67.2967529296875,-32.51439400122826],[-67.25830078125,-32.54218257955074],[-67.2857666015625,-32.58384932565661],[-67.2198486328125,-32.597733940057424],[-67.25830078125,-32.65787573695528],[-67.15393066406249,-32.71335535317753],[-67.181396484375,-32.82882709408908],[-67.24731445312499,-32.87497382061984],[-67.1649169921875,-33.13755119234615],[-67.1759033203125,-33.21111647241684],[-67.159423828125,-33.40393120023469],[-67.09899902343749,-33.5230788089042],[-67.0440673828125,-33.605469612271875],[-66.99462890625,-33.64206250475369],[-66.961669921875,-33.69235234723728],[-66.90673828125,-33.75631505992707],[-66.8682861328125,-33.801973518065886],[-66.873779296875,-33.84304531474468],[-66.8023681640625,-33.847607629887406],[-66.77490234375,-33.87953701355922],[-66.7254638671875,-33.911454454267606],[-66.6815185546875,-33.93880275084579],[-66.6650390625,-33.96614226559744],[-66.7034912109375,-33.993472995119674],[-66.7254638671875,-34.0708623237663],[-66.7364501953125,-34.13454168193737],[-66.7474365234375,-34.20725938207231],[-66.785888671875,-34.225429015241396],[-66.7913818359375,-34.27083595164999],[-66.7803955078125,-34.31168124115255],[-66.81884765625,-34.33890040040499],[-66.807861328125,-34.375178875335294],[-66.76391601562499,-34.40237742424136],[-66.741943359375,-34.46127728843705],[-66.7529296875,-34.511083202999714],[-66.719970703125,-34.59251960889389],[-66.67053222656249,-34.651285198954135],[-66.64306640625,-34.71000915922493],[-66.6265869140625,-34.74161249883172],[-66.676025390625,-34.7506398050501],[-66.5771484375,-34.7912504721074],[-66.51123046875,-34.93998515156043],[-66.5386962890625,-34.98050244536519],[-66.5167236328125,-35.04348951431468],[-66.5057373046875,-35.07946034047982],[-66.4837646484375,-35.13787911963418],[-66.4837646484375,-35.200744801724014],[-66.4617919921875,-35.2456190942068],[-66.51123046875,-35.281500657891186],[-66.46728515624999,-35.31288398967157],[-66.5167236328125,-35.344255149184086],[-66.533203125,-35.39352808136066],[-66.533203125,-35.438295547396685],[-66.500244140625,-35.487511023853756],[-66.5057373046875,-35.52328517910782],[-66.5277099609375,-35.57691652403861],[-66.5496826171875,-35.594785665487244],[-66.55517578125,-35.626047065956975],[-66.5606689453125,-35.67068501330237],[-66.5771484375,-35.75542836925961],[-66.59912109375,-35.83117495624653],[-66.61560058593749,-35.91129848822746],[-66.632080078125,-35.978006180855665],[-68.291015625,-35.96022296929668],[-68.280029296875,-36.26199220445662],[-68.2470703125,-37.57070524233115],[-68.35693359375,-37.57941251343839],[-68.477783203125,-37.53586597792037],[-68.57666015625,-37.46613860234406],[-68.631591796875,-37.43125050179356],[-68.741455078125,-37.37015718405751],[-68.829345703125,-37.37015718405751],[-68.895263671875,-37.38761749978394],[-69.005126953125,-37.40507375017693],[-68.994140625,-37.30027528134431],[-69.049072265625,-37.21283151445594],[-69.202880859375,-37.142803443716836],[-69.345703125,-37.16031654673676],[-69.488525390625,-37.23032838760386],[-69.554443359375,-37.221580458386484],[-69.58740234375,-37.16031654673676],[-69.71923828125,-37.081475648860525],[-69.752197265625,-37.020098201368114],[-69.752197265625,-36.91476428895593],[-69.98291015625,-36.730079507078415],[-70.14770507812499,-36.58906837139909],[-70.169677734375,-36.500805317604794],[-70.235595703125,-36.359374956015856],[-70.301513671875,-36.37706783983681],[-70.37841796875,-36.39475669987384],[-70.38940429687499,-36.17335693522159],[-70.433349609375,-36.15561783381854]]]}}]}