{"type":"FeatureCollection","features":[{"type":"Feature","properties":{"nombre":"Misiones","fuente":"Referencia comunitaria; verificar con IGN"},"geometry":{"type":"Polygon","coordinates":[[[-55.997314453125,-27.342494467201007],[-55.9039306640625,-27.342494467201007],[-55.7501220703125,-27.45953933271788],[-55.689697265625,-27.386400814693562],[-55.5908203125,-27.342494467201007],[-55.5963134765625,-27.28880751983311],[-55.579833984375,-27.244862521497268],[-55.623779296875,-27.19601438317328],[-55.623779296875,-27.142256704793976],[-55.5633544921875,-27.176469131898884],[-55.5523681640625,-27.073800430911774],[-55.5029296875,-27.108033801463105],[-55.4425048828125,-27.108033801463105],[-55.4425048828125,-27.034663773424224],[-55.4095458984375,-26.990618722964737],[-55.34912109375,-26.966141794817023],[-55.283203125,-26.941659545381505],[-55.2227783203125,-26.941659545381505],[-55.1788330078125,-26.951453083498247],[-55.1019287109375,-26.926967642880513],[-55.140380859375,-26.89267909590814],[-55.12939453124999,-26.848578525873275],[-55.0799560546875,-26.814266197561462],[-54.99755859375,-26.77503938699959],[-54.964599609375,-26.77503938699959],[-54.9481201171875,-26.725986812271756],[-54.94262695312499,-26.676913083105454],[-54.876708984375,-26.652368294008856],[-54.8602294921875,-26.681821407205966],[-54.8052978515625,-26.652368294008856],[-54.7723388671875,-26.61799672211676],[-54.788818359375,-26.578702269100557],[-54.810791015625,-26.549222577692028],[-54.7613525390625,-26.50498882874339],[-54.70092773437499,-26.44598399885638],[-54.6844482421875,-26.362342068998764],[-54.6405029296875,-26.303264239389534],[-54.66796875,-26.263862280111095],[-54.60205078125,-26.209662749792965],[-54.64599609375,-26.160368536718494],[-54.64599609375,-26.13571361317392],[-54.6240234375,-26.091321632191132],[-54.64599609375,-26.04691280168397],[-54.66796875,-26.022233955988987],[-54.6624755859375,-25.97779895546436],[-54.5965576171875,-25.98273700762736],[-54.60205078125,-25.948166288539706],[-54.613037109375,-25.923466700919274],[-54.613037109375,-25.888878582127074],[-54.5855712890625,-25.839449402063185],[-54.60205078125,-25.79989118208832],[-54.613037109375,-25.77021384896025],[-54.6185302734375,-25.7306325255319],[-54.64599609375,-25.69103802005013],[-54.6514892578125,-25.64647846279615],[-54.60754394531249,-25.661333498952683],[-54.591064453125,-25.621715959845726],[-54.5635986328125,-25.58208527870071],[-54.5416259765625,-25.60190226111574],[-54.5361328125,-25.636574077877036],[-54.51416015625,-25.591994180254712],[-54.47021484375,-25.636574077877036],[-54.4482421875,-25.681137335685307],[-54.42626953125,-25.70093788144426],[-54.415283203125,-25.636574077877036],[-54.3878173828125,-25.60190226111574],[-54.3548583984375,-25.591994180254712],[-54.3218994140625,-25.567220388070023],[-54.2889404296875,-25.55235365216548],[-54.2669677734375,-25.58703983205006],[-54.239501953125,-25.591994180254712],[-54.228515625,-25.55730943578312],[-54.1790771484375,-25.58703983205006],[-54.1845703125,-25.55730943578312],[-54.195556640625,-25.52261464762328],[-54.129638671875,-25.517657429994035],[-54.107666015625,-25.48790982559231],[-54.107666015625,-25.54244147012483],[-54.12414550781249,-25.591994180254712],[-54.107666015625,-25.61676284310854],[-54.0802001953125,-25.591994180254712],[-54.0472412109375,-25.567220388070023],[-54.00054931640625,-25.577130520235198],[-53.96209716796875,-25.64400244361502],[-53.94561767578125,-25.656382025768078],[-53.94561767578125,-25.631621577258482],[-53.931884765625,-25.621715959845726],[-53.91815185546875,-25.621715959845726],[-53.88519287109375,-25.629145249921905],[-53.865966796875,-25.651430347039724],[-53.84124755859375,-25.681137335685307],[-53.8494873046875,-25.695988053632732],[-53.865966796875,-25.710836919640606],[-53.85498046874999,-25.738055028213896],[-53.843994140625,-25.755372398367232],[-53.83026123046875,-25.787526529117866],[-53.81927490234375,-25.829561086053484],[-53.84124755859375,-25.84439325019513],[-53.83575439453124,-25.869109390999295],[-53.83575439453124,-25.91111496561543],[-53.8385009765625,-25.945696562830516],[-53.82476806640625,-25.98520595593358],[-53.7945556640625,-26.00248714194575],[-53.75885009765625,-26.03210611734895],[-53.72314453125,-26.054315442680398],[-53.7451171875,-26.069119321860885],[-53.7451171875,-26.11105348290953],[-53.71490478515624,-26.12831612064242],[-53.68194580078125,-26.148041726002855],[-53.65997314453124,-26.175158990178122],[-53.646240234375,-26.194876675795218],[-53.63250732421874,-26.219519089083942],[-53.64074707031249,-26.256472923285333],[-53.646240234375,-26.293415004265782],[-53.6737060546875,-26.33772997083918],[-53.69293212890625,-26.36480299075789],[-53.70941162109375,-26.382027976025352],[-53.69842529296875,-26.42138972529502],[-53.69293212890625,-26.44598399885638],[-53.701171875,-26.458279167084115],[-53.701171875,-26.475490196773805],[-53.70391845703125,-26.490240458869618],[-53.70391845703125,-26.50498882874339],[-53.72039794921875,-26.502530898533244],[-53.72589111328125,-26.512362303867516],[-53.7286376953125,-26.52710783403151],[-53.7286376953125,-26.556593211456345],[-53.72589111328125,-26.571333057252062],[-53.73138427734375,-26.61063004014913],[-53.7506103515625,-26.62781822639306],[-53.7396240234375,-26.654823010507506],[-53.73138427734375,-26.6646413485827],[-53.7286376953125,-26.681821407205966],[-53.72589111328125,-26.69409129295014],[-53.7506103515625,-26.713720362159567],[-53.74786376953125,-26.73334604773261],[-53.7286376953125,-26.735799020431674],[-53.72039794921875,-26.755420897359123],[-53.70941162109375,-26.784847361051206],[-53.701171875,-26.804460766546146],[-53.68743896484374,-26.833874515058564],[-53.66546630859375,-26.85838013872655],[-53.6846923828125,-26.86328062676624],[-53.701171875,-26.873080965938414],[-53.68194580078125,-26.89022951552361],[-53.6627197265625,-26.89267909590814],[-53.68194580078125,-26.9171719779723],[-53.68743896484374,-26.941659545381505],[-53.71490478515624,-26.939211027894675],[-53.72314453125,-26.949004778750272],[-53.73413085937499,-26.997960763263023],[-53.72589111328125,-27.022430768789505],[-53.75335693359374,-27.022430768789505],[-53.7725830078125,-27.034663773424224],[-53.73413085937499,-27.07624601860038],[-53.76708984375,-27.064017546608678],[-53.78631591796875,-27.064017546608678],[-53.7945556640625,-27.073800430911774],[-53.7835693359375,-27.09336363811583],[-53.800048828125,-27.098253906137874],[-53.81378173828125,-27.103143960595734],[-53.822021484375,-27.12514656209436],[-53.8055419921875,-27.144700797119597],[-53.822021484375,-27.14714483599181],[-53.822021484375,-27.166695222253104],[-53.8604736328125,-27.13003544147935],[-53.88244628906249,-27.13981255901822],[-53.89617919921875,-27.171582284054892],[-53.9208984375,-27.1618079465197],[-53.94561767578125,-27.15936422843682],[-53.95111083984375,-27.200900160835698],[-53.997802734375,-27.200900160835698],[-54.02801513671875,-27.249746156836583],[-54.052734375,-27.25951278436168],[-54.06921386718749,-27.28636658685281],[-54.09667968749999,-27.30101137997916],[-54.13787841796875,-27.30101137997916],[-54.15435791015625,-27.29124839916739],[-54.1571044921875,-27.26195430723363],[-54.17083740234374,-27.254629577800078],[-54.19281005859375,-27.26683719214355],[-54.19006347656249,-27.29124839916739],[-54.19830322265624,-27.31565424126349],[-54.21752929687499,-27.340054715183612],[-54.228515625,-27.38396203008555],[-54.25872802734375,-27.393716845850502],[-54.25872802734375,-27.41078570257701],[-54.2724609375,-27.437602864300437],[-54.29168701171874,-27.44979032978423],[-54.305419921875,-27.43272750117998],[-54.33013916015625,-27.41078570257701],[-54.3438720703125,-27.398593931033513],[-54.3438720703125,-27.41322389547461],[-54.33837890624999,-27.440040465097045],[-54.33837890624999,-27.45953933271788],[-54.3603515625,-27.464413510962768],[-54.37408447265625,-27.442478012046962],[-54.39605712890625,-27.418100119832875],[-54.41253662109374,-27.405909155361034],[-54.415283203125,-27.418100119832875],[-54.42901611328125,-27.420538151287094],[-54.4537353515625,-27.420538151287094],[-54.46746826171875,-27.425414052729572],[-54.46746826171875,-27.447352944393767],[-54.45098876953125,-27.46685051926846],[-54.44549560546875,-27.479034752500656],[-54.48669433593749,-27.481471437465334],[-54.503173828125,-27.486344645687208],[-54.52239990234375,-27.498526722798307],[-54.53887939453125,-27.488781168937983],[-54.55261230468749,-27.476598013637766],[-54.569091796875,-27.457102162785127],[-54.5855712890625,-27.45953933271788],[-54.5855712890625,-27.471724374230227],[-54.5965576171875,-27.493654053703136],[-54.61029052734375,-27.535064863939912],[-54.6295166015625,-27.544806317753874],[-54.64324951171875,-27.527758206861897],[-54.6514892578125,-27.508271413876017],[-54.67620849609375,-27.510707451811573],[-54.67620849609375,-27.53993569880378],[-54.67620849609375,-27.571590861376297],[-54.70092773437499,-27.561851783388512],[-54.72564697265625,-27.556981920338306],[-54.75311279296875,-27.55454690781033],[-54.75311279296875,-27.574025495831123],[-54.766845703125,-27.58619785769265],[-54.7833251953125,-27.571590861376297],[-54.7833251953125,-27.55454690781033],[-54.788818359375,-27.535064863939912],[-54.80804443359375,-27.53262936554833],[-54.81903076171875,-27.55454690781033],[-54.83551025390625,-27.581329075043346],[-54.83551025390625,-27.60323689456203],[-54.84100341796874,-27.632440508426782],[-54.8822021484375,-27.627573780299],[-54.898681640625,-27.630007171411226],[-54.90966796875,-27.67379895781762],[-54.9041748046875,-27.70784710660342],[-54.92340087890624,-27.73945373313174],[-54.93438720703125,-27.766190642387496],[-54.95635986328125,-27.775911526834257],[-54.97833251953125,-27.77105119317226],[-54.99481201171875,-27.78077164334821],[-54.99481201171875,-27.792920984444542],[-55.00854492187499,-27.80020993741824],[-55.03875732421875,-27.785631542688837],[-55.06072998046875,-27.773481387145182],[-55.0799560546875,-27.788061410911258],[-55.052490234375,-27.81235710596081],[-55.0250244140625,-27.85364731612737],[-55.06347656249999,-27.858503954841236],[-55.09094238281249,-27.851218915187072],[-55.12664794921875,-27.885211577912145],[-55.162353515625,-27.870644599673355],[-55.18157958984375,-27.8560756626798],[-55.206298828125,-27.86093219260852],[-55.2447509765625,-27.90948552034696],[-55.2667236328125,-27.928900753321876],[-55.2996826171875,-27.926474039864992],[-55.32989501953125,-27.926474039864992],[-55.3436279296875,-27.953164890693838],[-55.34637451171875,-27.977423576428517],[-55.37933349609374,-27.97984914504167],[-55.3656005859375,-28.001676807403094],[-55.37384033203125,-28.04047062328007],[-55.41229248046875,-28.047742907226546],[-55.43426513671875,-28.06228599981216],[-55.43975830078125,-28.08652011460073],[-55.45349121093749,-28.10832614221258],[-55.47821044921875,-28.08409694916474],[-55.4974365234375,-28.081673729044283],[-55.513916015625,-28.105903469076186],[-55.52490234375,-28.122861031898402],[-55.5413818359375,-28.13981591275445],[-55.54962158203125,-28.16645387574049],[-55.57708740234375,-28.159189634046708],[-55.58807373046875,-28.144659671673157],[-55.58258056640625,-28.125283321961742],[-55.5963134765625,-28.110748760633534],[-55.61553955078125,-28.125283321961742],[-55.623779296875,-28.1470814689913],[-55.66497802734375,-28.10832614221258],[-55.71441650390624,-28.074403740607135],[-55.72540283203125,-28.057438520876673],[-55.74737548828125,-28.081673729044283],[-55.77484130859375,-28.00410183036864],[-55.80230712890625,-27.965294915211118],[-55.810546875,-27.921620449508456],[-55.821533203125,-27.89249433228659],[-55.8380126953125,-27.839076094777802],[-55.83526611328124,-27.80020993741824],[-55.89569091796875,-27.68596022987161],[-55.93688964843749,-27.61783967494728],[-55.97808837890625,-27.535064863939912],[-56.01654052734375,-27.508271413876017],[-56.04949951171874,-27.464413510962768],[-56.05773925781249,-27.43272750117998],[-56.03851318359375,-27.415662034560974],[-56.03851318359375,-27.37664535363957],[-56.0357666015625,-27.335175050009422],[-55.997314453125,-27.342494467201007]]]}},{"type":"Feature","properties":{"nombre":"Neuquen","fuente":"Referencia comunitaria; verificar con IGN"},"geometry":{"type":"Polygon","coordinates":[[[-68.258056640625,-37.57070524233115],[-68.26904296875,-38.668356101515066],[-68.104248046875,-38.81403111409756],[-67.994384765625,-38.93377552819721],[-68.192138671875,-39.00211029922513],[-68.389892578125,-39.0362529596366],[-68.499755859375,-39.070379131087506],[-68.5986328125,-39.232253141714885],[-68.73046875,-39.27478966170307],[-68.917236328125,-39.461643642055485],[-69.202880859375,-39.58875727696546],[-69.2578125,-39.68182601089364],[-69.43359375,-39.79165483525342],[-69.796142578125,-39.90973623453718],[-69.971923828125,-39.97712009843962],[-69.949951171875,-40.145289295676605],[-70.081787109375,-40.24599150419902],[-70.081787109375,-40.36328834091582],[-70.15869140625,-40.45530721213149],[-70.13671875,-40.52215098562377],[-70.213623046875,-40.52215098562377],[-70.29052734375,-40.50544628405211],[-70.37841796875,-40.53885152535465],[-70.55419921875,-40.50544628405211],[-70.64208984375,-40.60561205826017],[-70.762939453125,-40.58892816969374],[-70.90576171875,-40.60561205826017],[-71.015625,-40.66397287638688],[-71.004638671875,-40.730608477796636],[-71.103515625,-40.76390128094587],[-71.092529296875,-40.80549384389416],[-71.05957031249999,-40.863679665481676],[-71.048583984375,-40.92181441237851],[-71.048583984375,-40.96330795307352],[-71.08154296875,-41.00477542222948],[-71.180419921875,-41.06278606873301],[-71.334228515625,-41.11246878918086],[-71.4111328125,-41.05450196329049],[-71.4990234375,-41.02135510866601],[-71.59790039062499,-41.02135510866601],[-71.729736328125,-41.01306578700629],[-71.861572265625,-41.00477542222948],[-71.883544921875,-40.96330795307352],[-71.83959960937499,-40.896905775859985],[-71.91650390625,-40.83043687764923],[-71.949462890625,-40.7472569628042],[-71.91650390625,-40.6723059714534],[-71.82861328125,-40.638967343817235],[-71.795654296875,-40.58892816969374],[-71.883544921875,-40.572240117769006],[-71.861572265625,-40.50544628405211],[-71.82861328125,-40.42186036204519],[-71.729736328125,-40.42186036204519],[-71.685791015625,-40.39676430557204],[-71.641845703125,-40.33817045213393],[-71.685791015625,-40.27114368608419],[-71.751708984375,-40.22921818870116],[-71.7626953125,-40.279525668812916],[-71.806640625,-40.22921818870116],[-71.82861328125,-40.15368685779403],[-71.817626953125,-40.06966452329777],[-71.685791015625,-40.103285912934396],[-71.60888671875,-40.09488212232115],[-71.6748046875,-40.044437584608566],[-71.685791015625,-40.00237193587647],[-71.630859375,-39.94343646197421],[-71.59790039062499,-39.88445017823439],[-71.59790039062499,-39.82541310342477],[-71.6748046875,-39.808536041445905],[-71.69677734375,-39.74943369178246],[-71.619873046875,-39.69028059481802],[-71.69677734375,-39.639537564366705],[-71.751708984375,-39.53793974517626],[-71.60888671875,-39.597223244955636],[-71.52099609375,-39.67337039176559],[-71.422119140625,-39.61415207700264],[-71.444091796875,-39.546411919686705],[-71.531982421875,-39.52946653645164],[-71.4990234375,-39.461643642055485],[-71.43310546875,-39.38526381099774],[-71.400146484375,-39.334297429807236],[-71.334228515625,-39.283293868938486],[-71.38916015625,-39.24927084622339],[-71.422119140625,-39.18969082109679],[-71.444091796875,-39.087436032158834],[-71.444091796875,-39.00211029922513],[-71.47705078125,-38.925229047140526],[-71.378173828125,-38.89103282648846],[-71.290283203125,-38.84826438869912],[-71.30126953124999,-38.762650338334126],[-71.202392578125,-38.81403111409756],[-71.12548828125,-38.75408327579141],[-71.004638671875,-38.745515184882635],[-70.916748046875,-38.719804742642374],[-70.86181640625,-38.69408504756832],[-70.86181640625,-38.634036452919204],[-70.828857421875,-38.5567571473522],[-70.87280273437499,-38.47939467327644],[-70.9716796875,-38.453588708941375],[-71.004638671875,-38.358887858666755],[-70.9716796875,-38.26406296833961],[-71.015625,-38.18638677411551],[-71.048583984375,-38.11727165830541],[-70.938720703125,-38.10862766432126],[-71.004638671875,-38.05674222065294],[-71.048583984375,-38.00481996641319],[-71.11450195312499,-37.95286091815648],[-71.12548828125,-37.89219554724435],[-71.1474609375,-37.84883250647401],[-71.202392578125,-37.85750715625204],[-71.103515625,-37.762029885732105],[-71.158447265625,-37.71859032558814],[-71.202392578125,-37.65773212628273],[-71.158447265625,-37.614231415424165],[-71.12548828125,-37.53586597792037],[-71.12548828125,-37.46613860234406],[-71.16943359375,-37.39634613318924],[-71.2353515625,-37.3439590894449],[-71.202392578125,-37.30027528134431],[-71.1474609375,-37.239075302021824],[-71.092529296875,-37.19533058280063],[-71.070556640625,-37.142803443716836],[-71.11450195312499,-37.07271048132944],[-71.16943359375,-36.96744946416932],[-71.103515625,-36.9586711315303],[-71.136474609375,-36.90597988519295],[-71.158447265625,-36.84446074079562],[-71.103515625,-36.730079507078415],[-71.004638671875,-36.70365959719453],[-71.015625,-36.62434536776987],[-71.092529296875,-36.571423823462766],[-71.03759765625,-36.53612263184686],[-70.982666015625,-36.46547188679815],[-70.86181640625,-36.39475669987384],[-70.72998046875,-36.43896124085945],[-70.675048828125,-36.40359962073253],[-70.718994140625,-36.34167804918314],[-70.718994140625,-36.27085020723904],[-70.609130859375,-36.199958059328935],[-70.5322265625,-36.146746777814364],[-70.455322265625,-36.199958059328935],[-70.411376953125,-36.13787471840727],[-70.37841796875,-36.182224980422504],[-70.37841796875,-36.27085020723904],[-70.37841796875,-36.368221900851104],[-70.29052734375,-36.34167804918314],[-70.235595703125,-36.34167804918314],[-70.213623046875,-36.40359962073253],[-70.191650390625,-36.50963615733048],[-70.081787109375,-36.61552763134924],[-69.98291015625,-36.72127388004499],[-69.89501953125,-36.800488165790796],[-69.818115234375,-36.879620605026766],[-69.7412109375,-36.941111430107696],[-69.76318359375,-37.00255267215954],[-69.76318359375,-37.07271048132944],[-69.60937499999999,-37.12528628496679],[-69.54345703125,-37.204081555898505],[-69.290771484375,-37.142803443716836],[-69.169921875,-37.169071577130104],[-69.0380859375,-37.239075302021824],[-69.049072265625,-37.31775185163687],[-69.049072265625,-37.38761749978394],[-68.9501953125,-37.40507375017693],[-68.829345703125,-37.37015718405751],[-68.719482421875,-37.39634613318924],[-68.66455078125,-37.43997405227057],[-68.57666015625,-37.448696585910376],[-68.477783203125,-37.50101042949326],[-68.389892578125,-37.56199695314352],[-68.258056640625,-37.57070524233115]]]}},{"type":"Feature","properties":{"nombre":"Rio Negro","fuente":"Referencia comunitaria; verificar con IGN"},"geometry":{"type":"Polygon","coordinates":[[[-68.258056640625,-37.55328764595765],[-67.78564453125,-37.640334898059464],[-67.686767578125,-37.83148014503288],[-67.74169921875,-37.90953361677018],[-67.862548828125,-37.90086509257005],[-67.87353515625,-37.96152331396614],[-67.8076171875,-38.082689544838004],[-67.69775390625,-38.03943889182173],[-67.6318359375,-38.19502155795573],[-67.357177734375,-38.281313079229676],[-67.181396484375,-38.19502155795573],[-67.049560546875,-38.37611542403602],[-66.86279296875,-38.47079371120379],[-66.5771484375,-38.52238409020084],[-66.654052734375,-38.67693344463792],[-66.42333984375,-38.762650338334126],[-66.24755859375,-38.77121637244271],[-66.15966796875,-38.728375918239784],[-66.07177734375,-38.69408504756832],[-65.9619140625,-38.71123253895225],[-65.8740234375,-38.779781378049165],[-65.79711914062499,-38.8225909761771],[-65.6982421875,-38.84826438869912],[-65.621337890625,-38.8225909761771],[-65.54443359375,-38.762650338334126],[-65.36865234375,-38.83114980934872],[-65.269775390625,-38.86537485161164],[-65.181884765625,-38.8225909761771],[-65.159912109375,-38.745515184882635],[-64.896240234375,-38.84826438869912],[-64.70947265625,-38.8225909761771],[-64.544677734375,-38.83114980934872],[-64.35791015625,-38.873928539236296],[-64.215087890625,-38.94232097947902],[-63.96240234375,-39.04478604850143],[-63.8525390625,-39.09596293630548],[-63.74267578125,-39.104488809440475],[-63.73168945312501,-39.18117526158747],[-63.64379882812499,-39.198205348894795],[-63.54492187500001,-39.24076251001309],[-63.45703124999999,-39.30029918615028],[-63.39111328125,-39.317300373271024],[-63.369140625,-40.72228267283148],[-63.2373046875,-40.70562793820589],[-63.072509765625,-40.73893324113602],[-62.89672851562499,-40.8719877566974],[-62.77587890625,-40.98819156349392],[-62.9461669921875,-41.08763212467916],[-63.05053710937499,-41.13729606112274],[-63.182373046875,-41.16211393939691],[-63.36364746093749,-41.153842357114456],[-63.56689453124999,-41.14970617453724],[-63.74267578125,-41.153842357114456],[-63.84704589843749,-41.14143302653629],[-63.907470703125,-41.1248835992912],[-63.96240234375,-41.06278606873301],[-64.061279296875,-41.03378713521864],[-64.0777587890625,-40.98819156349392],[-64.1107177734375,-40.97160353279909],[-64.1436767578125,-41.017210578228436],[-64.2755126953125,-40.97575093157534],[-64.423828125,-40.913512576127566],[-64.544677734375,-40.85952522899319],[-64.676513671875,-40.82212357516944],[-64.7589111328125,-40.80965166748854],[-64.8577880859375,-40.83043687764923],[-64.8907470703125,-40.801335759791996],[-64.7698974609375,-40.77638178482895],[-64.8028564453125,-40.7347709896724],[-64.874267578125,-40.718119379753446],[-64.92370605468749,-40.72644570551444],[-64.9017333984375,-40.768061709366116],[-64.97863769531249,-40.75557964275589],[-65.0775146484375,-40.78470081841746],[-65.126953125,-40.85952522899319],[-65.14892578125,-40.934265211779405],[-65.1544189453125,-40.996484014377884],[-65.159912109375,-41.12902134749509],[-65.1434326171875,-41.19932314127606],[-65.10498046875,-41.269549502842565],[-65.0665283203125,-41.37268648186465],[-65.0390625,-41.442726377672116],[-65.006103515625,-41.488006071854265],[-64.97863769531249,-41.56614196476837],[-65.0225830078125,-41.61133539944173],[-65.028076171875,-41.677014822032184],[-65.028076171875,-41.72213058512578],[-65.01708984375,-41.76721469421018],[-65.006103515625,-41.8122671435998],[-65.050048828125,-41.8122671435998],[-65.0335693359375,-41.85319643776674],[-65.0555419921875,-41.92271616673922],[-65.0555419921875,-41.98807738309157],[-71.7791748046875,-41.979910896912344],[-71.78466796874999,-41.89001042401825],[-71.795654296875,-41.8450126727069],[-71.751708984375,-41.81636125072052],[-71.751708984375,-41.7590199381554],[-71.8011474609375,-41.73033005046653],[-71.806640625,-41.68522004222072],[-71.8341064453125,-41.664705030092065],[-71.87255859375,-41.6154423246811],[-71.82861328125,-41.55792157780418],[-71.83959960937499,-41.492120839687765],[-71.83959960937499,-41.43860847395721],[-71.8890380859375,-41.36444153054222],[-71.883544921875,-41.29431726315257],[-71.9110107421875,-41.25716209782705],[-71.8560791015625,-41.21172151054787],[-71.9000244140625,-41.16211393939691],[-71.83959960937499,-41.120745590167445],[-71.8341064453125,-41.07106913080641],[-71.8560791015625,-41.03378713521864],[-71.87255859375,-41.00477542222948],[-71.72149658203125,-41.02135510866601],[-71.6033935546875,-41.035858911442986],[-71.553955078125,-41.02135510866601],[-71.49078369140625,-41.03378713521864],[-71.4276123046875,-41.044145364313174],[-71.35620117187499,-41.093842171296195],[-71.25732421875,-41.100051630930444],[-71.15570068359375,-41.06278606873301],[-71.14471435546875,-41.031715293792885],[-71.0870361328125,-41.0068481112136],[-71.08978271484375,-40.98611828780411],[-71.0540771484375,-40.97367726477832],[-71.026611328125,-40.95293701189724],[-71.048583984375,-40.8865244080599],[-71.06231689453125,-40.84498264925404],[-71.09527587890625,-40.83667117059108],[-71.0870361328125,-40.813809230569596],[-71.11175537109375,-40.786780414016455],[-71.1199951171875,-40.76390128094587],[-71.09527587890625,-40.72644570551444],[-71.026611328125,-40.728527124205996],[-70.99365234375,-40.67647212850003],[-70.97442626953125,-40.649387454518354],[-70.92498779296875,-40.628545606365854],[-70.88653564453125,-40.62020704520564],[-70.86181640625,-40.5951851158199],[-70.80413818359375,-40.586842390879085],[-70.75469970703125,-40.57432635193038],[-70.675048828125,-40.591013883455915],[-70.63934326171875,-40.58475654701268],[-70.61187744140625,-40.551374198715166],[-70.54595947265625,-40.50962284959668],[-70.51025390625,-40.49709237269566],[-70.41961669921875,-40.5284141757591],[-70.28778076171874,-40.49709237269566],[-70.22186279296875,-40.51171103483291],[-70.16693115234375,-40.48038142908171],[-70.18341064453125,-40.43022363450859],[-70.09277343749999,-40.37165889150608],[-70.081787109375,-40.22921818870116],[-69.949951171875,-40.15368685779403],[-69.993896484375,-40.05284760182396],[-70.0048828125,-39.98553841480972],[-69.862060546875,-39.90130858574735],[-69.6533203125,-39.850720925015956],[-69.444580078125,-39.79165483525342],[-69.345703125,-39.724088577333696],[-69.202880859375,-39.58875727696546],[-69.005126953125,-39.4955633605947],[-68.829345703125,-39.37677199661635],[-68.73046875,-39.266284422130646],[-68.609619140625,-39.18969082109679],[-68.477783203125,-39.06184913429153],[-68.302001953125,-39.00211029922513],[-68.203125,-38.985032786959074],[-68.0712890625,-38.985032786959074],[-67.9998779296875,-38.9764924855394],[-68.170166015625,-38.728375918239784],[-68.26904296875,-38.668356101515066],[-68.258056640625,-37.55328764595765]]]}},{"type":"Feature","properties":{"nombre":"Salta","fuente":"Referencia comunitaria; verificar con IGN"},"geometry":{"type":"Polygon","coordinates":[[[-68.389892578125,-25.15522939494057],[-67.97241210937499,-25.23475847023373],[-67.467041015625,-25.25463261974944],[-66.9287109375,-25.244695951306028],[-66.64306640625,-25.22482017676502],[-66.588134765625,-25.25463261974944],[-66.456298828125,-25.40358497318669],[-66.533203125,-25.60190226111574],[-66.610107421875,-25.7306325255319],[-66.785888671875,-25.7306325255319],[-66.807861328125,-25.839449402063185],[-66.785888671875,-25.967922229034034],[-66.610107421875,-26.096254906968515],[-66.51123046875,-26.303264239389534],[-66.346435546875,-26.401710528707692],[-66.346435546875,-26.293415004265782],[-66.170654296875,-26.145576207592274],[-66.02783203125,-26.20473426710759],[-65.7421875,-26.352497858154],[-65.6982421875,-26.28356493253137],[-65.709228515625,-26.194876675795218],[-65.63232421875,-26.07652055985696],[-65.54443359375,-26.086388149394864],[-65.4345703125,-26.086388149394864],[-65.32470703125,-26.06665213857739],[-65.23681640625,-26.11598592533351],[-65.19287109375,-26.194876675795218],[-65.050048828125,-26.23430203240673],[-65.006103515625,-26.332806922897866],[-64.874267578125,-26.303264239389534],[-64.764404296875,-26.254009699865737],[-64.698486328125,-26.254009699865737],[-64.58862304687499,-26.2145910237943],[-64.478759765625,-26.175158990178122],[-64.368896484375,-25.948166288539706],[-64.22607421875,-25.7306325255319],[-64.017333984375,-25.7306325255319],[-64.00634765625,-25.651430347039724],[-63.446044921875,-25.70093788144426],[-63.06152343750001,-25.22482017676502],[-62.35839843749999,-24.387127324604496],[-62.33642578125001,-22.512556954051437],[-62.38037109374999,-22.441494859380246],[-62.43530273437499,-22.41102852155869],[-62.55615234375,-22.309425841200177],[-62.68798828125,-22.19757745335104],[-62.7978515625,-22.12635475991967],[-62.80883789062499,-22.024545601240327],[-63.03955078125,-22.014360653103207],[-63.65478515625,-22.004174972902003],[-63.67675781249999,-22.06527806776582],[-63.720703125,-21.983801417384687],[-63.929443359375,-22.024545601240327],[-64.0228271484375,-22.187404991398775],[-64.1217041015625,-22.33991442556202],[-64.13818359375,-22.40087159030595],[-64.1876220703125,-22.471954507739227],[-64.2315673828125,-22.603868842895686],[-64.2425537109375,-22.649502094242195],[-64.2645263671875,-22.740723091194727],[-64.2755126953125,-22.791375149053486],[-64.2755126953125,-22.836945920943844],[-64.3084716796875,-22.887562215174476],[-64.324951171875,-22.91286328803375],[-64.3414306640625,-22.88250143437005],[-64.324951171875,-22.806567100271508],[-64.3359375,-22.745789142425874],[-64.3634033203125,-22.71032284205226],[-64.412841796875,-22.669778674332314],[-64.4293212890625,-22.63429269379352],[-64.44030761718749,-22.58358253773391],[-64.4073486328125,-22.53285370752713],[-64.478759765625,-22.477030464933307],[-64.5062255859375,-22.4364176007631],[-64.544677734375,-22.4364176007631],[-64.5501708984375,-22.39579284633252],[-64.5611572265625,-22.35515621858974],[-64.5721435546875,-22.309425841200177],[-64.5172119140625,-22.273847411104615],[-64.5941162109375,-22.228090416784486],[-64.654541015625,-22.177231792821342],[-64.742431640625,-22.161970614367977],[-64.8028564453125,-22.17214491738175],[-64.808349609375,-22.12635475991967],[-64.874267578125,-22.11617714721062],[-64.92919921875,-22.10599879975055],[-65.006103515625,-22.085639901650328],[-65.0830078125,-22.075459351546858],[-65.16540527343749,-22.080549718325063],[-65.19561767578125,-22.111088065307705],[-65.225830078125,-22.21537748845929],[-65.23406982421875,-22.25351281497473],[-65.23681640625,-22.296720298809937],[-65.2313232421875,-22.31704861179864],[-65.2642822265625,-22.3424548401465],[-65.27801513671875,-22.375476015564775],[-65.29998779296875,-22.431340156360594],[-65.3192138671875,-22.487181821139284],[-65.34942626953125,-22.520168585994366],[-65.357666015625,-22.568365847961534],[-65.35491943359375,-22.608939952085887],[-65.32745361328125,-22.629222519460487],[-65.27801513671875,-22.65203683056866],[-65.28900146484375,-22.702721724459973],[-65.31646728515625,-22.735656852206482],[-65.2972412109375,-22.750855005867315],[-65.2972412109375,-22.781246241104416],[-65.28350830078125,-22.798971336311098],[-65.28350830078125,-22.836945920943844],[-65.2862548828125,-22.859725586446075],[-65.2752685546875,-22.887562215174476],[-65.22308349609375,-22.91286328803375],[-65.20111083984375,-22.948276856880895],[-65.19012451171875,-22.965980167474083],[-65.15716552734375,-22.99379497224218],[-65.10772705078125,-23.02160404824428],[-65.0830078125,-23.04182522949167],[-65.0665283203125,-23.074678175027337],[-65.0665283203125,-23.097417822529177],[-65.0665283203125,-23.130257185291022],[-65.06927490234375,-23.142885569598484],[-65.04730224609375,-23.152987420582075],[-65.05279541015625,-23.226203048301535],[-65.028076171875,-23.259010826648776],[-64.9896240234375,-23.279196216873352],[-64.962158203125,-23.28928776494912],[-64.94842529296875,-23.274150156028497],[-64.92370605468749,-23.28928776494912],[-64.89898681640625,-23.32964630439145],[-64.9017333984375,-23.34729931216777],[-64.89898681640625,-23.380077240656462],[-64.90447998046875,-23.41032659658828],[-64.89349365234375,-23.427968862308663],[-64.88250732421875,-23.44812856964819],[-64.8687744140625,-23.458207269894125],[-64.8687744140625,-23.47332387777116],[-64.852294921875,-23.485919728174252],[-64.8138427734375,-23.483400654325628],[-64.77264404296875,-23.480881532357056],[-64.73693847656249,-23.47332387777116],[-64.70947265625,-23.465765790247943],[-64.67926025390625,-23.455687666943383],[-64.6710205078125,-23.475843144075874],[-64.61883544921875,-23.488438753898947],[-64.60235595703125,-23.49851437547979],[-64.58862304687499,-23.50355189742412],[-64.56939697265625,-23.511107819194187],[-64.53369140625,-23.531254824436434],[-64.50897216796875,-23.548880923858743],[-64.500732421875,-23.56146954827817],[-64.478759765625,-23.586643178460278],[-64.45404052734375,-23.626910942556872],[-64.44030761718749,-23.63194354319966],[-64.4293212890625,-23.63445977099464],[-64.412841796875,-23.629427267052417],[-64.39361572265624,-23.60929531766475],[-64.390869140625,-23.579091596182867],[-64.39910888671875,-23.558951919862924],[-64.3853759765625,-23.55391651832161],[-64.37164306640625,-23.546363054291565],[-64.3634033203125,-23.531254824436434],[-64.3194580078125,-23.518663307493846],[-64.149169921875,-23.508589226762282],[-64.16015624999999,-24.12168855843422],[-64.16015624999999,-24.231937933001383],[-64.2425537109375,-24.357105493969723],[-64.302978515625,-24.412140070651514],[-64.3634033203125,-24.43214670001101],[-64.3853759765625,-24.402135566630744],[-64.4293212890625,-24.402135566630744],[-64.4732666015625,-24.43714786161562],[-64.48974609375,-24.462150693715255],[-64.5391845703125,-24.4971463205719],[-64.566650390625,-24.56211235799689],[-64.599609375,-24.577099744289427],[-64.6380615234375,-24.5970801370964],[-64.6710205078125,-24.5970801370964],[-64.7314453125,-24.512141466217635],[-64.7808837890625,-24.472150437226865],[-64.84130859375,-24.44714958973081],[-64.874267578125,-24.472150437226865],[-64.8797607421875,-24.492147541216017],[-64.9017333984375,-24.54212638889929],[-64.9017333984375,-24.5970801370964],[-64.9896240234375,-24.592085337797194],[-65.0885009765625,-24.557116164309612],[-65.159912109375,-24.507143283102828],[-65.203857421875,-24.467150664738977],[-65.247802734375,-24.45715052418584],[-65.2862548828125,-24.477150011148677],[-65.3192138671875,-24.4971463205719],[-65.3521728515625,-24.492147541216017],[-65.3521728515625,-24.462150693715255],[-65.379638671875,-24.442148824865622],[-65.41259765625,-24.45715052418584],[-65.4400634765625,-24.44714958973081],[-65.4730224609375,-24.41714202537204],[-65.4949951171875,-24.43714786161562],[-65.5389404296875,-24.43714786161562],[-65.5828857421875,-24.387127324604496],[-65.63232421875,-24.367113562651262],[-65.665283203125,-24.337086982410497],[-65.6707763671875,-24.292033766081367],[-65.709228515625,-24.211899678553248],[-65.72021484375,-24.1567782333034],[-65.731201171875,-24.111661168663574],[-65.7806396484375,-24.026396666017327],[-65.8740234375,-23.996289790628406],[-65.89599609375,-24.003817170108697],[-65.93170166015625,-24.00130809253819],[-65.950927734375,-23.998798966043474],[-65.94268798828125,-23.97872419327722],[-65.94268798828125,-23.96366606023667],[-65.96466064453125,-23.96617587126503],[-65.98114013671875,-23.96617587126503],[-66.00311279296875,-23.938565262944763],[-66.01959228515625,-23.890860299280366],[-66.0223388671875,-23.838113284893172],[-66.0113525390625,-23.77026416023979],[-66.01409912109375,-23.71495350699027],[-66.00860595703125,-23.644524198573677],[-65.994873046875,-23.599228183239397],[-65.9893798828125,-23.56146954827817],[-65.99761962890625,-23.52118170724856],[-66.03607177734375,-23.485919728174252],[-66.08551025390624,-23.450648316816473],[-66.14593505859375,-23.42544868270144],[-66.17340087890625,-23.41284706430993],[-66.18438720703125,-23.440569039771567],[-66.21185302734375,-23.4708045633623],[-66.24755859375,-23.50103316052575],[-66.26678466796875,-23.548880923858743],[-66.302490234375,-23.574056966642654],[-66.3189697265625,-23.586643178460278],[-66.31622314453125,-23.606778606523957],[-66.32720947265624,-23.644524198573677],[-66.34918212890625,-23.6646507316316],[-66.37664794921875,-23.694834722205936],[-66.37115478515625,-23.73758343093914],[-66.37115478515625,-23.795397597978745],[-66.34918212890625,-23.830576244074514],[-66.37115478515625,-23.82052617508277],[-66.37390136718749,-23.848161991218262],[-66.368408203125,-23.87830343514709],[-66.36566162109375,-23.94609601499837],[-66.36016845703125,-23.993780566296852],[-66.3299560546875,-23.983743179882847],[-66.346435546875,-24.021379342900296],[-66.357421875,-24.031413793283296],[-66.37390136718749,-24.08157428735657],[-66.368408203125,-24.096618611278767],[-66.37115478515625,-24.114168089756113],[-66.38763427734375,-24.126701958681668],[-66.4013671875,-24.119181784645264],[-66.4178466796875,-24.114168089756113],[-66.4178466796875,-24.13923459969371],[-66.4178466796875,-24.15928427005673],[-66.4398193359375,-24.17431945794909],[-66.46453857421875,-24.164296196060473],[-66.47552490234374,-24.179330793772717],[-66.478271484375,-24.20438452045993],[-66.50299072265625,-24.19937416888191],[-66.52496337890625,-24.206889622398023],[-66.55242919921875,-24.194363620393613],[-66.5716552734375,-24.18434193280842],[-66.61285400390625,-24.171813716251364],[-66.654052734375,-24.15928427005673],[-66.68701171875,-24.13923459969371],[-66.70623779296875,-24.13171516246295],[-66.73095703125,-24.10915419847752],[-66.73919677734375,-24.089096670083006],[-66.76391601562499,-24.086589258228027],[-66.80511474609375,-24.096618611278767],[-66.8408203125,-24.076559120295382],[-66.86279296875,-24.0514803432201],[-66.8682861328125,-24.021379342900296],[-66.88201904296875,-23.998798966043474],[-66.8792724609375,-23.973705011113726],[-66.895751953125,-23.96366606023667],[-66.9232177734375,-23.973705011113726],[-66.9342041015625,-23.986252599841798],[-66.96990966796875,-23.9435858131479],[-67.0166015625,-23.898393832743015],[-67.03033447265625,-23.85820991853466],[-67.07427978515625,-23.815500848699656],[-67.21435546875,-23.692319656040915],[-67.3297119140625,-24.036430724667362],[-68.258056640625,-24.397133017391052],[-68.2635498046875,-24.42214378185897],[-68.2745361328125,-24.449649897759652],[-68.29376220703125,-24.454650364990947],[-68.302001953125,-24.484648999654024],[-68.31024169921875,-24.494646955731685],[-68.3404541015625,-24.492147541216017],[-68.37890625,-24.492147541216017],[-68.3953857421875,-24.48214938647424],[-68.40087890624999,-24.517139450525136],[-68.42010498046875,-24.564610380176838],[-68.43109130859375,-24.592085337797194],[-68.4283447265625,-24.61206333896377],[-68.44757080078124,-24.607069137709683],[-68.4613037109375,-24.622051143216904],[-68.4832763671875,-24.604571962313884],[-68.49700927734375,-24.607069137709683],[-68.49700927734375,-24.642024357863985],[-68.49700927734375,-24.65949830115192],[-68.51348876953125,-24.701924833689922],[-68.5382080078125,-24.72188526321623],[-68.5601806640625,-24.75930243922547],[-68.565673828125,-24.80169495167004],[-68.54644775390625,-24.81914648173908],[-68.53271484375,-24.841580551445343],[-68.49700927734375,-24.88892801013205],[-68.4503173828125,-24.896402266558713],[-68.433837890625,-24.9113494218506],[-68.433837890625,-24.95618002005594],[-68.42010498046875,-24.971119927578236],[-68.4173583984375,-25.010950810695284],[-68.38165283203125,-25.05076877966862],[-68.37066650390625,-25.078136134310142],[-68.35968017578125,-25.100523057465217],[-68.3514404296875,-25.11544539706194],[-68.40911865234374,-25.145284610685053],[-68.389892578125,-25.15522939494057]]]}},{"type":"Feature","properties":{"nombre":"San Juan","fuente":"Referencia comunitaria; verificar con IGN"},"geometry":{"type":"Polygon","coordinates":[[[-69.60937499999999,-28.4107283972379],[-69.5379638671875,-28.425222099239033],[-69.4830322265625,-28.41555985166584],[-69.4171142578125,-28.44937385955666],[-69.345703125,-28.4300528923357],[-69.19189453125,-28.5941685062326],[-69.2138671875,-28.656851034203406],[-69.18090820312499,-28.719496107557465],[-68.90625,-28.859107573773],[-68.9501953125,-28.9600886880068],[-68.93920898437499,-29.017748018496036],[-68.8897705078125,-29.0513677745173],[-68.9227294921875,-29.084976575985902],[-68.9007568359375,-29.13776825498331],[-68.92822265625,-29.180941290001776],[-68.9666748046875,-29.14256615510704],[-69.0106201171875,-29.176145182559758],[-68.9666748046875,-29.233683670282776],[-68.994140625,-29.257648503615542],[-68.9501953125,-29.257648503615542],[-68.9556884765625,-29.324720161511017],[-68.983154296875,-29.324720161511017],[-68.97216796875,-29.377388403478978],[-68.9776611328125,-29.44916482692468],[-69.005126953125,-29.511330027309146],[-69.01611328125,-29.568679425235135],[-69.005126953125,-29.640320395351402],[-68.9447021484375,-29.664189403696138],[-68.9227294921875,-29.625996273660775],[-68.851318359375,-29.583011690377486],[-68.8568115234375,-29.625996273660775],[-68.8018798828125,-29.611670115197377],[-68.741455078125,-29.62122111378448],[-68.653564453125,-29.640320395351402],[-68.4613037109375,-29.640320395351402],[-68.258056640625,-29.750070930806785],[-68.258056640625,-29.76914573606667],[-68.1756591796875,-29.764377375163114],[-68.1866455078125,-29.859701442126745],[-68.0877685546875,-29.878755346037963],[-67.58239746093749,-30.29701788337205],[-67.576904296875,-30.406044269969488],[-67.423095703125,-30.62373195163005],[-67.24731445312499,-30.718226523201352],[-67.0770263671875,-30.902224705171427],[-67.1044921875,-30.982318643027522],[-67.08251953125,-31.05293398570514],[-67.115478515625,-31.170509824703437],[-67.071533203125,-31.245681880715512],[-67.1044921875,-31.39584654193847],[-66.939697265625,-31.62999849900255],[-66.8792724609375,-31.62999849900255],[-66.8023681640625,-31.80756092262094],[-66.6815185546875,-31.905541455900355],[-67.1484375,-31.826231907142883],[-67.24731445312499,-31.88222220265971],[-67.4395751953125,-31.85889704445453],[-67.4395751953125,-31.998759371947305],[-67.4725341796875,-32.11049589629438],[-67.401123046875,-32.21280106801518],[-67.2802734375,-32.30570601389427],[-67.2418212890625,-32.366043209760214],[-67.3297119140625,-32.34284135639301],[-67.3297119140625,-32.3103487645258],[-67.4725341796875,-32.32891738775125],[-67.5164794921875,-32.263910555201306],[-67.52197265625,-32.22674287041065],[-67.6483154296875,-32.245328614045995],[-67.752685546875,-32.21280106801518],[-67.9119873046875,-32.18491105051798],[-68.00537109375,-32.12910537866883],[-68.016357421875,-32.08722870829662],[-68.115234375,-32.09653629470277],[-68.1756591796875,-32.133757156326446],[-68.258056640625,-32.11049589629438],[-68.4228515625,-32.147711065955704],[-68.45581054687499,-32.2313896627376],[-68.7249755859375,-32.32427558887655],[-68.9007568359375,-32.3103487645258],[-68.917236328125,-32.119801111793265],[-69.0216064453125,-32.09653629470277],[-69.0655517578125,-32.0546446905493],[-69.1424560546875,-32.02204906495202],[-69.2633056640625,-32.04533283885849],[-69.3017578125,-32.119801111793265],[-69.3841552734375,-32.07326555104238],[-69.45556640625,-32.06395559466041],[-69.54345703125,-32.119801111793265],[-69.60937499999999,-32.245328614045995],[-69.686279296875,-32.31499127724555],[-69.7137451171875,-32.38460040620991],[-69.6807861328125,-32.463425957761025],[-69.7467041015625,-32.50049648924481],[-69.85107421874999,-32.546813173515154],[-69.90875244140625,-32.563018371445324],[-69.97467041015625,-32.50281289041496],[-70.02410888671875,-32.532920675187846],[-70.06805419921875,-32.60467544055497],[-70.14770507812499,-32.58384932565661],[-70.1202392578125,-32.54449790638623],[-70.1422119140625,-32.50049648924481],[-70.12298583984375,-32.49354692775988],[-70.15045166015625,-32.4611085426106],[-70.191650390625,-32.440249123375494],[-70.213623046875,-32.428658470843686],[-70.23284912109375,-32.430976720547015],[-70.23834228515625,-32.41242905441613],[-70.2301025390625,-32.39155837235158],[-70.2191162109375,-32.368363067704706],[-70.224609375,-32.347482203218654],[-70.21636962890625,-32.3312381979454],[-70.2301025390625,-32.32195460020057],[-70.24383544921875,-32.3103487645258],[-70.26580810546875,-32.29874144190242],[-70.29327392578125,-32.287132632616355],[-70.30975341796875,-32.27320009948135],[-70.32623291015625,-32.25926542645934],[-70.31524658203125,-32.24068253457368],[-70.29052734375,-32.23371296980229],[-70.3070068359375,-32.22209584050232],[-70.29052734375,-32.19885712788488],[-70.30975341796875,-32.18026188320706],[-70.3289794921875,-32.161662840180114],[-70.30426025390625,-32.14305999998843],[-70.32073974609375,-32.12677940089152],[-70.33447265624999,-32.10816944421469],[-70.34820556640625,-32.08722870829662],[-70.3399658203125,-32.07559289203769],[-70.34271240234374,-32.0546446905493],[-70.37841796875,-32.04300472789399],[-70.38665771484375,-32.031363284937534],[-70.36468505859375,-32.024377708740744],[-70.3399658203125,-32.040676557717454],[-70.32073974609375,-32.04300472789399],[-70.29876708984375,-32.04998888314202],[-70.279541015625,-32.02903481873583],[-70.25482177734375,-32.02903481873583],[-70.257568359375,-31.998759371947305],[-70.21087646484375,-31.982453066235752],[-70.2081298828125,-31.963813739260456],[-70.2301025390625,-31.935847653299405],[-70.24383544921875,-31.91486750327621],[-70.2630615234375,-31.87755764334002],[-70.3179931640625,-31.88222220265971],[-70.37841796875,-31.87755764334002],[-70.4498291015625,-31.85889704445453],[-70.455322265625,-31.835565983656227],[-70.46630859375,-31.784216884487385],[-70.4608154296875,-31.718822224083244],[-70.46630859375,-31.676758418795487],[-70.51025390625,-31.676758418795487],[-70.5267333984375,-31.62064369245056],[-70.5596923828125,-31.59725256170665],[-70.5706787109375,-31.5504526754715],[-70.5487060546875,-31.508312698943445],[-70.5596923828125,-31.47083898476439],[-70.55419921875,-31.419288124288343],[-70.5267333984375,-31.358327833411312],[-70.5487060546875,-31.297327991404266],[-70.5322265625,-31.226894468813978],[-70.5047607421875,-31.16580958786196],[-70.4937744140625,-31.12349696406731],[-70.4608154296875,-31.08586989620833],[-70.400390625,-31.11409159489869],[-70.411376953125,-31.184609135743237],[-70.345458984375,-31.142304905845723],[-70.3509521484375,-31.095278060807935],[-70.3564453125,-31.05763981413011],[-70.323486328125,-31.05293398570514],[-70.29052734375,-31.043521630684204],[-70.257568359375,-31.005862904624195],[-70.2960205078125,-30.958768570779846],[-70.323486328125,-30.930500817607765],[-70.29052734375,-30.845647420182598],[-70.2740478515625,-30.76543912810553],[-70.24108886718749,-30.70878122625409],[-70.24658203125,-30.65209002676],[-70.2191162109375,-30.595365565588075],[-70.2081298828125,-30.529145036680397],[-70.169677734375,-30.491284452100185],[-70.125732421875,-30.424992973925583],[-70.169677734375,-30.368135828720554],[-70.103759765625,-30.344435586368448],[-70.048828125,-30.396568538569365],[-69.99938964843749,-30.37761431777478],[-69.9554443359375,-30.38235321766958],[-69.8895263671875,-30.35865642078877],[-69.89501953125,-30.315987718557853],[-69.89501953125,-30.27330042806995],[-69.873046875,-30.240086360983426],[-69.85107421874999,-30.206861065952626],[-69.8236083984375,-30.178373310707887],[-69.8236083984375,-30.135626231134587],[-69.840087890625,-30.09286062952815],[-69.90600585937499,-30.097613277217132],[-69.93896484375,-30.12612436422458],[-69.9554443359375,-30.09286062952815],[-69.949951171875,-30.059585699708215],[-69.9169921875,-30.0405664305846],[-69.9114990234375,-29.997759725578895],[-69.89501953125,-29.954934549656134],[-69.89501953125,-29.921613319695577],[-69.884033203125,-29.869228848968298],[-69.873046875,-29.84064389983441],[-69.89501953125,-29.802517905764464],[-69.8785400390625,-29.735762444449087],[-69.8785400390625,-29.69759650228319],[-69.90600585937499,-29.688052749856787],[-69.93896484375,-29.65941605491237],[-69.94445800781249,-29.616445727622533],[-69.9334716796875,-29.563901551414432],[-69.94445800781249,-29.53045010749105],[-69.9554443359375,-29.482643134466592],[-69.971923828125,-29.453948118887734],[-69.9609375,-29.420460341013133],[-70.0103759765625,-29.38696152165749],[-69.99938964843749,-29.3486636465236],[-69.99938964843749,-29.305561325527712],[-69.949951171875,-29.25285598597375],[-69.9334716796875,-29.204918463909024],[-69.93896484375,-29.161755515328824],[-69.8565673828125,-29.14256615510704],[-69.7796630859375,-29.132970130878636],[-69.78515625,-29.084976575985902],[-69.7796630859375,-29.02255151116834],[-69.75769042968749,-28.96489485992113],[-69.7467041015625,-28.916823103291634],[-69.7686767578125,-28.8927788645183],[-69.7247314453125,-28.859107573773],[-69.708251953125,-28.806173508854776],[-69.6697998046875,-28.76765910569124],[-69.6917724609375,-28.73876397137028],[-69.7357177734375,-28.729130483430154],[-69.7412109375,-28.685768802287075],[-69.697265625,-28.623103554529905],[-69.6807861328125,-28.579697994029317],[-69.6533203125,-28.536274512989916],[-69.6533203125,-28.473520105140892],[-69.6917724609375,-28.43971381702787],[-69.60937499999999,-28.4107283972379]]]}},{"type":"Feature","properties":{"nombre":"San Luis","fuente":"Referencia comunitaria; verificar con IGN"},"geometry":{"type":"Polygon","coordinates":[[[-65.0885009765625,-34.99400375757576],[-65.0885009765625,-36.00911716117324],[-66.6375732421875,-36.000229561780024],[-66.632080078125,-35.93798832265392],[-66.6265869140625,-35.88014896488358],[-66.588134765625,-35.79108281624993],[-66.5826416015625,-35.7465122599185],[-66.5716552734375,-35.68853320738874],[-66.5496826171875,-35.6439052378773],[-66.5771484375,-35.594785665487244],[-66.5386962890625,-35.5501053358855],[-66.5167236328125,-35.478564995357296],[-66.544189453125,-35.44277092585765],[-66.5167236328125,-35.37561413174875],[-66.478271484375,-35.31288398967157],[-66.5277099609375,-35.28598473606574],[-66.4837646484375,-35.25010515853934],[-66.4892578125,-35.18278813800227],[-66.4947509765625,-35.110921809704756],[-66.51123046875,-35.05248370662468],[-66.544189453125,-35.00750284295289],[-66.5496826171875,-34.97600151317588],[-66.5167236328125,-34.94899072578225],[-66.5386962890625,-34.91296249521695],[-66.5716552734375,-34.84085858477277],[-66.588134765625,-34.78673916270252],[-66.6375732421875,-34.777715803604686],[-66.6925048828125,-34.74612627525939],[-66.62109375,-34.723554927042194],[-66.67053222656249,-34.70549341022544],[-66.6925048828125,-34.66935854524543],[-66.7144775390625,-34.64224704776853],[-66.7144775390625,-34.6060845921693],[-66.7364501953125,-34.58347505599176],[-66.7529296875,-34.53371242139564],[-66.7474365234375,-34.46580632768852],[-66.76391601562499,-34.40237742424136],[-66.796875,-34.384246040152185],[-66.807861328125,-34.34343606848294],[-66.7803955078125,-34.31168124115255],[-66.7913818359375,-34.27537529764387],[-66.7913818359375,-34.21634468843463],[-66.7474365234375,-34.21634468843463],[-66.741943359375,-34.18908583117239],[-66.73095703125,-34.14818102254435],[-66.73095703125,-34.10270799317487],[-66.7144775390625,-34.039004679044446],[-66.68701171875,-33.993472995119674],[-66.6650390625,-33.957030069982295],[-66.719970703125,-33.920571528675076],[-66.796875,-33.85216970140739],[-66.8792724609375,-33.84304531474468],[-66.8792724609375,-33.78827853625995],[-66.91223144531249,-33.74261277734688],[-66.961669921875,-33.70606265510119],[-67.0111083984375,-33.62834199137178],[-67.00561523437499,-33.6008944080788],[-67.049560546875,-33.573438085677324],[-67.09899902343749,-33.5139194239494],[-67.1209716796875,-33.477272187760356],[-67.15393066406249,-33.408516828002675],[-67.159423828125,-33.33052824902809],[-67.17041015625,-33.25246979589198],[-67.1868896484375,-33.178939260581046],[-67.159423828125,-33.132951312515885],[-67.181396484375,-33.077733957209844],[-67.19238281249999,-33.01326987686983],[-67.2198486328125,-32.948758637154214],[-67.2418212890625,-32.87036022808352],[-67.181396484375,-32.83805835927704],[-67.17041015625,-32.773419354975154],[-67.1649169921875,-32.71797709835758],[-67.21435546875,-32.676372772089834],[-67.2528076171875,-32.64862578373671],[-67.225341796875,-32.60236166681751],[-67.2747802734375,-32.597733940057424],[-67.25830078125,-32.53755174676898],[-67.3077392578125,-32.51439400122826],[-67.291259765625,-32.48659682936049],[-67.2967529296875,-32.43561304116276],[-67.3297119140625,-32.38460040620991],[-67.34619140625,-32.33820027152774],[-67.2637939453125,-32.36140331527542],[-67.2747802734375,-32.3103487645258],[-67.3736572265625,-32.245328614045995],[-67.4395751953125,-32.175612478499325],[-67.467041015625,-32.105842932857676],[-67.4395751953125,-32.017391599803986],[-67.4505615234375,-31.854231304426364],[-67.2802734375,-31.87755764334002],[-67.15393066406249,-31.826231907142883],[-67.0440673828125,-31.84489911613476],[-66.9451904296875,-31.863562548378965],[-66.8133544921875,-31.886886525780806],[-66.7364501953125,-31.905541455900355],[-66.68701171875,-31.90087807776306],[-66.5057373046875,-31.980123357368026],[-66.324462890625,-31.96148355726853],[-66.02783203125,-31.91486750327621],[-65.7696533203125,-31.891550612684366],[-65.5609130859375,-31.88222220265971],[-65.247802734375,-32.06395559466041],[-65.203857421875,-32.32427558887655],[-64.92370605468749,-32.27784451498272],[-64.9346923828125,-32.38460040620991],[-64.874267578125,-32.505129231918936],[-64.8468017578125,-32.556073644920275],[-64.9017333984375,-32.57922064287566],[-64.9456787109375,-32.72259860404406],[-64.9676513671875,-32.88420028540546],[-65.01708984375,-33.017876018554894],[-65.0665283203125,-33.12835119163156],[-65.1708984375,-33.18353672893613],[-65.16540527343749,-33.536816067733],[-65.1214599609375,-34.61512668346219],[-65.0994873046875,-34.809293241762674],[-65.0885009765625,-34.99400375757576]]]}}]}